{
"type": "FeatureCollection",
"name": "business_districts_metrotaipei",
"crs": { "type": "name", "properties": { "name": "urn:ogc:def:crs:OGC:1.3:CRS84" } },
"features": [
{ "type": "Feature", "properties": { "name": "新北市商圈聯合發展協會", "address": "新北市深坑區深坑街3巷2號2樓", "district": "深坑區" }, "geometry": { "type": "Polygon", "coordinates": [ [ [ 121.626713, 25.002449 ], [ 121.626664847266724, 25.001468828596703 ], [ 121.626520852804035, 25.000498096779836 ], [ 121.626282403357322, 24.999546153227453 ], [ 121.625951795325122, 24.998622165676348 ], [ 121.625532212643492, 24.997735032631738 ], [ 121.625027696123027, 24.996893297669804 ], [ 121.624443104533626, 24.996105067158361 ], [ 121.623784067811869, 24.995377932188134 ], [ 121.623056932841635, 24.99471889546637 ], [ 121.622268702330203, 24.994134303876972 ], [ 121.621426967368265, 24.993629787356515 ], [ 121.620539834323651, 24.993210204674885 ], [ 121.619615846772547, 24.992879596642677 ], [ 121.618663903220167, 24.992641147195965 ], [ 121.617693171403303, 24.992497152733275 ], [ 121.616713, 24.992449 ], [ 121.615732828596705, 24.992497152733275 ], [ 121.614762096779842, 24.992641147195965 ], [ 121.613810153227462, 24.992879596642677 ], [ 121.612886165676358, 24.993210204674885 ], [ 121.611999032631743, 24.993629787356515 ], [ 121.611157297669806, 24.994134303876972 ], [ 121.610369067158373, 24.99471889546637 ], [ 121.60964193218814, 24.995377932188134 ], [ 121.608982895466383, 24.996105067158361 ], [ 121.608398303876982, 24.996893297669804 ], [ 121.607893787356517, 24.997735032631738 ], [ 121.607474204674887, 24.998622165676348 ], [ 121.607143596642686, 24.999546153227453 ], [ 121.606905147195974, 25.000498096779836 ], [ 121.606761152733284, 25.001468828596703 ], [ 121.606713, 25.002449 ], [ 121.606761152733284, 25.003429171403294 ], [ 121.606905147195974, 25.004399903220161 ], [ 121.607143596642686, 25.005351846772545 ], [ 121.607474204674887, 25.006275834323649 ], [ 121.607893787356517, 25.007162967368259 ], [ 121.608398303876982, 25.008004702330194 ], [ 121.608982895466383, 25.008792932841637 ], [ 121.60964193218814, 25.009520067811863 ], [ 121.610369067158373, 25.010179104533627 ], [ 121.611157297669806, 25.010763696123025 ], [ 121.611999032631743, 25.011268212643483 ], [ 121.612886165676358, 25.011687795325113 ], [ 121.613810153227462, 25.01201840335732 ], [ 121.614762096779842, 25.012256852804033 ], [ 121.615732828596705, 25.012400847266722 ], [ 121.616713, 25.012449 ], [ 121.617693171403303, 25.012400847266722 ], [ 121.618663903220167, 25.012256852804033 ], [ 121.619615846772547, 25.01201840335732 ], [ 121.620539834323651, 25.011687795325113 ], [ 121.621426967368265, 25.011268212643483 ], [ 121.622268702330203, 25.010763696123025 ], [ 121.623056932841635, 25.010179104533627 ], [ 121.623784067811869, 25.009520067811863 ], [ 121.624443104533626, 25.008792932841637 ], [ 121.625027696123027, 25.008004702330194 ], [ 121.625532212643492, 25.007162967368259 ], [ 121.625951795325122, 25.006275834323649 ], [ 121.626282403357322, 25.005351846772545 ], [ 121.626520852804035, 25.004399903220161 ], [ 121.626664847266724, 25.003429171403294 ], [ 121.626713, 25.002449 ] ] ] } },
{ "type": "Feature", "properties": { "name": "鶯歌商圈", "address": "新北市鶯歌區重慶街69號", "district": "鶯歌區" }, "geometry": { "type": "Polygon", "coordinates": [ [ [ 121.359059, 24.951758 ], [ 121.359010847266717, 24.950777828596706 ], [ 121.358866852804027, 24.949807096779839 ], [ 121.358628403357315, 24.948855153227456 ], [ 121.358297795325115, 24.947931165676351 ], [ 121.357878212643485, 24.947044032631741 ], [ 121.35737369612302, 24.946202297669807 ], [ 121.356789104533618, 24.945414067158364 ], [ 121.356130067811861, 24.944686932188137 ], [ 121.355402932841628, 24.944027895466373 ], [ 121.354614702330196, 24.943443303876975 ], [ 121.353772967368258, 24.942938787356518 ], [ 121.352885834323644, 24.942519204674888 ], [ 121.351961846772539, 24.94218859664268 ], [ 121.351009903220159, 24.941950147195968 ], [ 121.350039171403296, 24.941806152733278 ], [ 121.349059, 24.941758 ], [ 121.348078828596698, 24.941806152733278 ], [ 121.347108096779834, 24.941950147195968 ], [ 121.346156153227454, 24.94218859664268 ], [ 121.34523216567635, 24.942519204674888 ], [ 121.344345032631736, 24.942938787356518 ], [ 121.343503297669798, 24.943443303876975 ], [ 121.342715067158366, 24.944027895466373 ], [ 121.341987932188133, 24.944686932188137 ], [ 121.341328895466376, 24.945414067158364 ], [ 121.340744303876974, 24.946202297669807 ], [ 121.340239787356509, 24.947044032631741 ], [ 121.339820204674879, 24.947931165676351 ], [ 121.339489596642679, 24.948855153227456 ], [ 121.339251147195966, 24.949807096779839 ], [ 121.339107152733277, 24.950777828596706 ], [ 121.339059, 24.951758 ], [ 121.339107152733277, 24.952738171403297 ], [ 121.339251147195966, 24.953708903220164 ], [ 121.339489596642679, 24.954660846772548 ], [ 121.339820204674879, 24.955584834323652 ], [ 121.340239787356509, 24.956471967368262 ], [ 121.340744303876974, 24.957313702330197 ], [ 121.341328895466376, 24.95810193284164 ], [ 121.341987932188133, 24.958829067811866 ], [ 121.342715067158366, 24.95948810453363 ], [ 121.343503297669798, 24.960072696123028 ], [ 121.344345032631736, 24.960577212643486 ], [ 121.34523216567635, 24.960996795325116 ], [ 121.346156153227454, 24.961327403357323 ], [ 121.347108096779834, 24.961565852804036 ], [ 121.348078828596698, 24.961709847266725 ], [ 121.349059, 24.961758 ], [ 121.350039171403296, 24.961709847266725 ], [ 121.351009903220159, 24.961565852804036 ], [ 121.351961846772539, 24.961327403357323 ], [ 121.352885834323644, 24.960996795325116 ], [ 121.353772967368258, 24.960577212643486 ], [ 121.354614702330196, 24.960072696123028 ], [ 121.355402932841628, 24.95948810453363 ], [ 121.356130067811861, 24.958829067811866 ], [ 121.356789104533618, 24.95810193284164 ], [ 121.35737369612302, 24.957313702330197 ], [ 121.357878212643485, 24.956471967368262 ], [ 121.358297795325115, 24.955584834323652 ], [ 121.358628403357315, 24.954660846772548 ], [ 121.358866852804027, 24.953708903220164 ], [ 121.359010847266717, 24.952738171403297 ], [ 121.359059, 24.951758 ] ] ] } },
{ "type": "Feature", "properties": { "name": "蘆洲廟口商圈", "address": "新北市蘆洲區得勝街131號", "district": "蘆洲區" }, "geometry": { "type": "Polygon", "coordinates": [ [ [ 121.482138, 25.083234 ], [ 121.482089847266721, 25.082253828596706 ], [ 121.481945852804031, 25.081283096779838 ], [ 121.481707403357319, 25.080331153227455 ], [ 121.481376795325119, 25.079407165676351 ], [ 121.480957212643489, 25.07852003263174 ], [ 121.480452696123024, 25.077678297669806 ], [ 121.479868104533622, 25.076890067158363 ], [ 121.479209067811865, 25.076162932188137 ], [ 121.478481932841632, 25.075503895466372 ], [ 121.4776937023302, 25.074919303876975 ], [ 121.476851967368262, 25.074414787356517 ], [ 121.475964834323648, 25.073995204674887 ], [ 121.475040846772544, 25.073664596642679 ], [ 121.474088903220164, 25.073426147195967 ], [ 121.4731181714033, 25.073282152733277 ], [ 121.472138, 25.073234 ], [ 121.471157828596702, 25.073282152733277 ], [ 121.470187096779838, 25.073426147195967 ], [ 121.469235153227459, 25.073664596642679 ], [ 121.468311165676354, 25.073995204674887 ], [ 121.46742403263174, 25.074414787356517 ], [ 121.466582297669802, 25.074919303876975 ], [ 121.46579406715837, 25.075503895466372 ], [ 121.465066932188137, 25.076162932188137 ], [ 121.46440789546638, 25.076890067158363 ], [ 121.463823303876978, 25.077678297669806 ], [ 121.463318787356513, 25.07852003263174 ], [ 121.462899204674883, 25.079407165676351 ], [ 121.462568596642683, 25.080331153227455 ], [ 121.462330147195971, 25.081283096779838 ], [ 121.462186152733281, 25.082253828596706 ], [ 121.462138, 25.083234 ], [ 121.462186152733281, 25.084214171403296 ], [ 121.462330147195971, 25.085184903220163 ], [ 121.462568596642683, 25.086136846772547 ], [ 121.462899204674883, 25.087060834323651 ], [ 121.463318787356513, 25.087947967368262 ], [ 121.463823303876978, 25.088789702330196 ], [ 121.46440789546638, 25.089577932841639 ], [ 121.465066932188137, 25.090305067811865 ], [ 121.46579406715837, 25.090964104533629 ], [ 121.466582297669802, 25.091548696123027 ], [ 121.46742403263174, 25.092053212643485 ], [ 121.468311165676354, 25.092472795325115 ], [ 121.469235153227459, 25.092803403357323 ], [ 121.470187096779838, 25.093041852804035 ], [ 121.471157828596702, 25.093185847266724 ], [ 121.472138, 25.093234 ], [ 121.4731181714033, 25.093185847266724 ], [ 121.474088903220164, 25.093041852804035 ], [ 121.475040846772544, 25.092803403357323 ], [ 121.475964834323648, 25.092472795325115 ], [ 121.476851967368262, 25.092053212643485 ], [ 121.4776937023302, 25.091548696123027 ], [ 121.478481932841632, 25.090964104533629 ], [ 121.479209067811865, 25.090305067811865 ], [ 121.479868104533622, 25.089577932841639 ], [ 121.480452696123024, 25.088789702330196 ], [ 121.480957212643489, 25.087947967368262 ], [ 121.481376795325119, 25.087060834323651 ], [ 121.481707403357319, 25.086136846772547 ], [ 121.481945852804031, 25.085184903220163 ], [ 121.482089847266721, 25.084214171403296 ], [ 121.482138, 25.083234 ] ] ] } },
{ "type": "Feature", "properties": { "name": "石碇商圈", "address": "新北市石碇區石碇東街51號", "district": "石碇區" }, "geometry": { "type": "Polygon", "coordinates": [ [ [ 121.670906, 24.990662 ], [ 121.670857847266717, 24.989681828596705 ], [ 121.670713852804028, 24.988711096779838 ], [ 121.670475403357315, 24.987759153227454 ], [ 121.670144795325115, 24.98683516567635 ], [ 121.669725212643485, 24.98594803263174 ], [ 121.66922069612302, 24.985106297669805 ], [ 121.668636104533618, 24.984318067158362 ], [ 121.667977067811862, 24.983590932188136 ], [ 121.667249932841628, 24.982931895466372 ], [ 121.666461702330196, 24.982347303876974 ], [ 121.665619967368258, 24.981842787356516 ], [ 121.664732834323644, 24.981423204674886 ], [ 121.66380884677254, 24.981092596642679 ], [ 121.66285690322016, 24.980854147195966 ], [ 121.661886171403296, 24.980710152733277 ], [ 121.660906, 24.980662 ], [ 121.659925828596698, 24.980710152733277 ], [ 121.658955096779835, 24.980854147195966 ], [ 121.658003153227455, 24.981092596642679 ], [ 121.65707916567635, 24.981423204674886 ], [ 121.656192032631736, 24.981842787356516 ], [ 121.655350297669798, 24.982347303876974 ], [ 121.654562067158366, 24.982931895466372 ], [ 121.653834932188133, 24.983590932188136 ], [ 121.653175895466376, 24.984318067158362 ], [ 121.652591303876974, 24.985106297669805 ], [ 121.652086787356509, 24.98594803263174 ], [ 121.651667204674879, 24.98683516567635 ], [ 121.651336596642679, 24.987759153227454 ], [ 121.651098147195967, 24.988711096779838 ], [ 121.650954152733277, 24.989681828596705 ], [ 121.650906, 24.990662 ], [ 121.650954152733277, 24.991642171403296 ], [ 121.651098147195967, 24.992612903220163 ], [ 121.651336596642679, 24.993564846772546 ], [ 121.651667204674879, 24.994488834323651 ], [ 121.652086787356509, 24.995375967368261 ], [ 121.652591303876974, 24.996217702330195 ], [ 121.653175895466376, 24.997005932841638 ], [ 121.653834932188133, 24.997733067811865 ], [ 121.654562067158366, 24.998392104533629 ], [ 121.655350297669798, 24.998976696123027 ], [ 121.656192032631736, 24.999481212643484 ], [ 121.65707916567635, 24.999900795325114 ], [ 121.658003153227455, 25.000231403357322 ], [ 121.658955096779835, 25.000469852804034 ], [ 121.659925828596698, 25.000613847266724 ], [ 121.660906, 25.000662 ], [ 121.661886171403296, 25.000613847266724 ], [ 121.66285690322016, 25.000469852804034 ], [ 121.66380884677254, 25.000231403357322 ], [ 121.664732834323644, 24.999900795325114 ], [ 121.665619967368258, 24.999481212643484 ], [ 121.666461702330196, 24.998976696123027 ], [ 121.667249932841628, 24.998392104533629 ], [ 121.667977067811862, 24.997733067811865 ], [ 121.668636104533618, 24.997005932841638 ], [ 121.66922069612302, 24.996217702330195 ], [ 121.669725212643485, 24.995375967368261 ], [ 121.670144795325115, 24.994488834323651 ], [ 121.670475403357315, 24.993564846772546 ], [ 121.670713852804028, 24.992612903220163 ], [ 121.670857847266717, 24.991642171403296 ], [ 121.670906, 24.990662 ] ] ] } },
{ "type": "Feature", "properties": { "name": "韓國街商圈", "address": "新北市永和區中興街9號", "district": "永和區" }, "geometry": { "type": "Polygon", "coordinates": [ [ [ 121.527802, 25.011294 ], [ 121.527753847266723, 25.010313828596704 ], [ 121.527609852804034, 25.009343096779837 ], [ 121.527371403357321, 25.008391153227453 ], [ 121.527040795325121, 25.007467165676349 ], [ 121.526621212643491, 25.006580032631739 ], [ 121.526116696123026, 25.005738297669804 ], [ 121.525532104533625, 25.004950067158362 ], [ 121.524873067811868, 25.004222932188135 ], [ 121.524145932841634, 25.003563895466371 ], [ 121.523357702330202, 25.002979303876973 ], [ 121.522515967368264, 25.002474787356515 ], [ 121.52162883432365, 25.002055204674885 ], [ 121.520704846772546, 25.001724596642678 ], [ 121.519752903220166, 25.001486147195966 ], [ 121.518782171403302, 25.001342152733276 ], [ 121.517802, 25.001294 ], [ 121.516821828596704, 25.001342152733276 ], [ 121.515851096779841, 25.001486147195966 ], [ 121.514899153227461, 25.001724596642678 ], [ 121.513975165676356, 25.002055204674885 ], [ 121.513088032631742, 25.002474787356515 ], [ 121.512246297669805, 25.002979303876973 ], [ 121.511458067158372, 25.003563895466371 ], [ 121.510730932188139, 25.004222932188135 ], [ 121.510071895466382, 25.004950067158362 ], [ 121.50948730387698, 25.005738297669804 ], [ 121.508982787356516, 25.006580032631739 ], [ 121.508563204674886, 25.007467165676349 ], [ 121.508232596642685, 25.008391153227453 ], [ 121.507994147195973, 25.009343096779837 ], [ 121.507850152733283, 25.010313828596704 ], [ 121.507802, 25.011294 ], [ 121.507850152733283, 25.012274171403295 ], [ 121.507994147195973, 25.013244903220162 ], [ 121.508232596642685, 25.014196846772546 ], [ 121.508563204674886, 25.01512083432365 ], [ 121.508982787356516, 25.01600796736826 ], [ 121.50948730387698, 25.016849702330195 ], [ 121.510071895466382, 25.017637932841637 ], [ 121.510730932188139, 25.018365067811864 ], [ 121.511458067158372, 25.019024104533628 ], [ 121.512246297669805, 25.019608696123026 ], [ 121.513088032631742, 25.020113212643484 ], [ 121.513975165676356, 25.020532795325114 ], [ 121.514899153227461, 25.020863403357321 ], [ 121.515851096779841, 25.021101852804033 ], [ 121.516821828596704, 25.021245847266723 ], [ 121.517802, 25.021294 ], [ 121.518782171403302, 25.021245847266723 ], [ 121.519752903220166, 25.021101852804033 ], [ 121.520704846772546, 25.020863403357321 ], [ 121.52162883432365, 25.020532795325114 ], [ 121.522515967368264, 25.020113212643484 ], [ 121.523357702330202, 25.019608696123026 ], [ 121.524145932841634, 25.019024104533628 ], [ 121.524873067811868, 25.018365067811864 ], [ 121.525532104533625, 25.017637932841637 ], [ 121.526116696123026, 25.016849702330195 ], [ 121.526621212643491, 25.01600796736826 ], [ 121.527040795325121, 25.01512083432365 ], [ 121.527371403357321, 25.014196846772546 ], [ 121.527609852804034, 25.013244903220162 ], [ 121.527753847266723, 25.012274171403295 ], [ 121.527802, 25.011294 ] ] ] } },
{ "type": "Feature", "properties": { "name": "平溪魅力商圈", "address": "新北市平溪區靜安路2段390號", "district": "平溪區" }, "geometry": { "type": "Polygon", "coordinates": [ [ [ 121.776027, 25.032482 ], [ 121.775978847266714, 25.031501828596706 ], [ 121.775834852804024, 25.030531096779839 ], [ 121.775596403357312, 25.029579153227456 ], [ 121.775265795325112, 25.028655165676351 ], [ 121.774846212643482, 25.027768032631741 ], [ 121.774341696123017, 25.026926297669807 ], [ 121.773757104533615, 25.026138067158364 ], [ 121.773098067811858, 25.025410932188137 ], [ 121.772370932841625, 25.024751895466373 ], [ 121.771582702330193, 25.024167303876975 ], [ 121.770740967368255, 25.023662787356518 ], [ 121.769853834323641, 25.023243204674888 ], [ 121.768929846772537, 25.02291259664268 ], [ 121.767977903220157, 25.022674147195968 ], [ 121.767007171403293, 25.022530152733278 ], [ 121.766027, 25.022482 ], [ 121.765046828596695, 25.022530152733278 ], [ 121.764076096779831, 25.022674147195968 ], [ 121.763124153227452, 25.02291259664268 ], [ 121.762200165676347, 25.023243204674888 ], [ 121.761313032631733, 25.023662787356518 ], [ 121.760471297669795, 25.024167303876975 ], [ 121.759683067158363, 25.024751895466373 ], [ 121.75895593218813, 25.025410932188137 ], [ 121.758296895466373, 25.026138067158364 ], [ 121.757712303876971, 25.026926297669807 ], [ 121.757207787356506, 25.027768032631741 ], [ 121.756788204674876, 25.028655165676351 ], [ 121.756457596642676, 25.029579153227456 ], [ 121.756219147195964, 25.030531096779839 ], [ 121.756075152733274, 25.031501828596706 ], [ 121.756027, 25.032482 ], [ 121.756075152733274, 25.033462171403297 ], [ 121.756219147195964, 25.034432903220164 ], [ 121.756457596642676, 25.035384846772548 ], [ 121.756788204674876, 25.036308834323652 ], [ 121.757207787356506, 25.037195967368262 ], [ 121.757712303876971, 25.038037702330197 ], [ 121.758296895466373, 25.03882593284164 ], [ 121.75895593218813, 25.039553067811866 ], [ 121.759683067158363, 25.04021210453363 ], [ 121.760471297669795, 25.040796696123028 ], [ 121.761313032631733, 25.041301212643486 ], [ 121.762200165676347, 25.041720795325116 ], [ 121.763124153227452, 25.042051403357323 ], [ 121.764076096779831, 25.042289852804036 ], [ 121.765046828596695, 25.042433847266725 ], [ 121.766027, 25.042482 ], [ 121.767007171403293, 25.042433847266725 ], [ 121.767977903220157, 25.042289852804036 ], [ 121.768929846772537, 25.042051403357323 ], [ 121.769853834323641, 25.041720795325116 ], [ 121.770740967368255, 25.041301212643486 ], [ 121.771582702330193, 25.040796696123028 ], [ 121.772370932841625, 25.04021210453363 ], [ 121.773098067811858, 25.039553067811866 ], [ 121.773757104533615, 25.03882593284164 ], [ 121.774341696123017, 25.038037702330197 ], [ 121.774846212643482, 25.037195967368262 ], [ 121.775265795325112, 25.036308834323652 ], [ 121.775596403357312, 25.035384846772548 ], [ 121.775834852804024, 25.034432903220164 ], [ 121.775978847266714, 25.033462171403297 ], [ 121.776027, 25.032482 ] ] ] } },
{ "type": "Feature", "properties": { "name": "淡水老街商圈", "address": "新北市淡水區中正路 11 巷 8 號", "district": "淡水區" }, "geometry": { "type": "Polygon", "coordinates": [ [ [ 121.448907, 25.170451 ], [ 121.44885884726672, 25.169470828596705 ], [ 121.448714852804031, 25.168500096779837 ], [ 121.448476403357319, 25.167548153227454 ], [ 121.448145795325118, 25.16662416567635 ], [ 121.447726212643488, 25.165737032631739 ], [ 121.447221696123023, 25.164895297669805 ], [ 121.446637104533622, 25.164107067158362 ], [ 121.445978067811865, 25.163379932188136 ], [ 121.445250932841631, 25.162720895466371 ], [ 121.444462702330199, 25.162136303876974 ], [ 121.443620967368261, 25.161631787356516 ], [ 121.442733834323647, 25.161212204674886 ], [ 121.441809846772543, 25.160881596642678 ], [ 121.440857903220163, 25.160643147195966 ], [ 121.439887171403299, 25.160499152733276 ], [ 121.438907, 25.160451 ], [ 121.437926828596702, 25.160499152733276 ], [ 121.436956096779838, 25.160643147195966 ], [ 121.436004153227458, 25.160881596642678 ], [ 121.435080165676354, 25.161212204674886 ], [ 121.43419303263174, 25.161631787356516 ], [ 121.433351297669802, 25.162136303876974 ], [ 121.43256306715837, 25.162720895466371 ], [ 121.431835932188136, 25.163379932188136 ], [ 121.431176895466379, 25.164107067158362 ], [ 121.430592303876978, 25.164895297669805 ], [ 121.430087787356513, 25.165737032631739 ], [ 121.429668204674883, 25.16662416567635 ], [ 121.429337596642682, 25.167548153227454 ], [ 121.42909914719597, 25.168500096779837 ], [ 121.42895515273328, 25.169470828596705 ], [ 121.428907, 25.170451 ], [ 121.42895515273328, 25.171431171403295 ], [ 121.42909914719597, 25.172401903220162 ], [ 121.429337596642682, 25.173353846772546 ], [ 121.429668204674883, 25.17427783432365 ], [ 121.430087787356513, 25.175164967368261 ], [ 121.430592303876978, 25.176006702330195 ], [ 121.431176895466379, 25.176794932841638 ], [ 121.431835932188136, 25.177522067811864 ], [ 121.43256306715837, 25.178181104533628 ], [ 121.433351297669802, 25.178765696123026 ], [ 121.43419303263174, 25.179270212643484 ], [ 121.435080165676354, 25.179689795325114 ], [ 121.436004153227458, 25.180020403357322 ], [ 121.436956096779838, 25.180258852804034 ], [ 121.437926828596702, 25.180402847266723 ], [ 121.438907, 25.180451 ], [ 121.439887171403299, 25.180402847266723 ], [ 121.440857903220163, 25.180258852804034 ], [ 121.441809846772543, 25.180020403357322 ], [ 121.442733834323647, 25.179689795325114 ], [ 121.443620967368261, 25.179270212643484 ], [ 121.444462702330199, 25.178765696123026 ], [ 121.445250932841631, 25.178181104533628 ], [ 121.445978067811865, 25.177522067811864 ], [ 121.446637104533622, 25.176794932841638 ], [ 121.447221696123023, 25.176006702330195 ], [ 121.447726212643488, 25.175164967368261 ], [ 121.448145795325118, 25.17427783432365 ], [ 121.448476403357319, 25.173353846772546 ], [ 121.448714852804031, 25.172401903220162 ], [ 121.44885884726672, 25.171431171403295 ], [ 121.448907, 25.170451 ] ] ] } },
{ "type": "Feature", "properties": { "name": "板橋府中商圈", "address": "新北市板橋區重慶路10號8樓", "district": "板橋區" }, "geometry": { "type": "Polygon", "coordinates": [ [ [ 121.470709, 25.007954 ], [ 121.470660847266714, 25.006973828596706 ], [ 121.470516852804025, 25.006003096779839 ], [ 121.470278403357312, 25.005051153227456 ], [ 121.469947795325112, 25.004127165676351 ], [ 121.469528212643482, 25.003240032631741 ], [ 121.469023696123017, 25.002398297669806 ], [ 121.468439104533616, 25.001610067158364 ], [ 121.467780067811859, 25.000882932188137 ], [ 121.467052932841625, 25.000223895466373 ], [ 121.466264702330193, 24.999639303876975 ], [ 121.465422967368255, 24.999134787356518 ], [ 121.464535834323641, 24.998715204674888 ], [ 121.463611846772537, 24.99838459664268 ], [ 121.462659903220157, 24.998146147195968 ], [ 121.461689171403293, 24.998002152733278 ], [ 121.460709, 24.997954 ], [ 121.459728828596695, 24.998002152733278 ], [ 121.458758096779832, 24.998146147195968 ], [ 121.457806153227452, 24.99838459664268 ], [ 121.456882165676348, 24.998715204674888 ], [ 121.455995032631733, 24.999134787356518 ], [ 121.455153297669796, 24.999639303876975 ], [ 121.454365067158363, 25.000223895466373 ], [ 121.45363793218813, 25.000882932188137 ], [ 121.452978895466373, 25.001610067158364 ], [ 121.452394303876972, 25.002398297669806 ], [ 121.451889787356507, 25.003240032631741 ], [ 121.451470204674877, 25.004127165676351 ], [ 121.451139596642676, 25.005051153227456 ], [ 121.450901147195964, 25.006003096779839 ], [ 121.450757152733274, 25.006973828596706 ], [ 121.450709, 25.007954 ], [ 121.450757152733274, 25.008934171403297 ], [ 121.450901147195964, 25.009904903220164 ], [ 121.451139596642676, 25.010856846772548 ], [ 121.451470204674877, 25.011780834323652 ], [ 121.451889787356507, 25.012667967368262 ], [ 121.452394303876972, 25.013509702330197 ], [ 121.452978895466373, 25.014297932841639 ], [ 121.45363793218813, 25.015025067811866 ], [ 121.454365067158363, 25.01568410453363 ], [ 121.455153297669796, 25.016268696123028 ], [ 121.455995032631733, 25.016773212643486 ], [ 121.456882165676348, 25.017192795325116 ], [ 121.457806153227452, 25.017523403357323 ], [ 121.458758096779832, 25.017761852804036 ], [ 121.459728828596695, 25.017905847266725 ], [ 121.460709, 25.017954 ], [ 121.461689171403293, 25.017905847266725 ], [ 121.462659903220157, 25.017761852804036 ], [ 121.463611846772537, 25.017523403357323 ], [ 121.464535834323641, 25.017192795325116 ], [ 121.465422967368255, 25.016773212643486 ], [ 121.466264702330193, 25.016268696123028 ], [ 121.467052932841625, 25.01568410453363 ], [ 121.467780067811859, 25.015025067811866 ], [ 121.468439104533616, 25.014297932841639 ], [ 121.469023696123017, 25.013509702330197 ], [ 121.469528212643482, 25.012667967368262 ], [ 121.469947795325112, 25.011780834323652 ], [ 121.470278403357312, 25.010856846772548 ], [ 121.470516852804025, 25.009904903220164 ], [ 121.470660847266714, 25.008934171403297 ], [ 121.470709, 25.007954 ] ] ] } },
{ "type": "Feature", "properties": { "name": "新莊廟街商圈", "address": "新北市新莊區武前街24號", "district": "新莊區" }, "geometry": { "type": "Polygon", "coordinates": [ [ [ 121.46022, 25.032856 ], [ 121.460171847266722, 25.031875828596704 ], [ 121.460027852804032, 25.030905096779836 ], [ 121.45978940335732, 25.029953153227453 ], [ 121.459458795325119, 25.029029165676349 ], [ 121.459039212643489, 25.028142032631738 ], [ 121.458534696123024, 25.027300297669804 ], [ 121.457950104533623, 25.026512067158361 ], [ 121.457291067811866, 25.025784932188134 ], [ 121.456563932841632, 25.02512589546637 ], [ 121.4557757023302, 25.024541303876973 ], [ 121.454933967368262, 25.024036787356515 ], [ 121.454046834323648, 25.023617204674885 ], [ 121.453122846772544, 25.023286596642677 ], [ 121.452170903220164, 25.023048147195965 ], [ 121.4512001714033, 25.022904152733275 ], [ 121.45022, 25.022856 ], [ 121.449239828596703, 25.022904152733275 ], [ 121.448269096779839, 25.023048147195965 ], [ 121.447317153227459, 25.023286596642677 ], [ 121.446393165676355, 25.023617204674885 ], [ 121.445506032631741, 25.024036787356515 ], [ 121.444664297669803, 25.024541303876973 ], [ 121.443876067158371, 25.02512589546637 ], [ 121.443148932188137, 25.025784932188134 ], [ 121.44248989546638, 25.026512067158361 ], [ 121.441905303876979, 25.027300297669804 ], [ 121.441400787356514, 25.028142032631738 ], [ 121.440981204674884, 25.029029165676349 ], [ 121.440650596642683, 25.029953153227453 ], [ 121.440412147195971, 25.030905096779836 ], [ 121.440268152733282, 25.031875828596704 ], [ 121.44022, 25.032856 ], [ 121.440268152733282, 25.033836171403294 ], [ 121.440412147195971, 25.034806903220161 ], [ 121.440650596642683, 25.035758846772545 ], [ 121.440981204674884, 25.036682834323649 ], [ 121.441400787356514, 25.03756996736826 ], [ 121.441905303876979, 25.038411702330194 ], [ 121.44248989546638, 25.039199932841637 ], [ 121.443148932188137, 25.039927067811863 ], [ 121.443876067158371, 25.040586104533627 ], [ 121.444664297669803, 25.041170696123025 ], [ 121.445506032631741, 25.041675212643483 ], [ 121.446393165676355, 25.042094795325113 ], [ 121.447317153227459, 25.042425403357321 ], [ 121.448269096779839, 25.042663852804033 ], [ 121.449239828596703, 25.042807847266722 ], [ 121.45022, 25.042856 ], [ 121.4512001714033, 25.042807847266722 ], [ 121.452170903220164, 25.042663852804033 ], [ 121.453122846772544, 25.042425403357321 ], [ 121.454046834323648, 25.042094795325113 ], [ 121.454933967368262, 25.041675212643483 ], [ 121.4557757023302, 25.041170696123025 ], [ 121.456563932841632, 25.040586104533627 ], [ 121.457291067811866, 25.039927067811863 ], [ 121.457950104533623, 25.039199932841637 ], [ 121.458534696123024, 25.038411702330194 ], [ 121.459039212643489, 25.03756996736826 ], [ 121.459458795325119, 25.036682834323649 ], [ 121.45978940335732, 25.035758846772545 ], [ 121.460027852804032, 25.034806903220161 ], [ 121.460171847266722, 25.033836171403294 ], [ 121.46022, 25.032856 ] ] ] } },
{ "type": "Feature", "properties": { "name": "三峽民權老街商圈", "address": "新北市三峽區民權街75號", "district": "三峽區" }, "geometry": { "type": "Polygon", "coordinates": [ [ [ 121.379497, 24.93302 ], [ 121.379448847266715, 24.932039828596704 ], [ 121.379304852804026, 24.931069096779837 ], [ 121.379066403357314, 24.930117153227453 ], [ 121.378735795325113, 24.929193165676349 ], [ 121.378316212643483, 24.928306032631738 ], [ 121.377811696123018, 24.927464297669804 ], [ 121.377227104533617, 24.926676067158361 ], [ 121.37656806781186, 24.925948932188135 ], [ 121.375840932841626, 24.925289895466371 ], [ 121.375052702330194, 24.924705303876973 ], [ 121.374210967368256, 24.924200787356515 ], [ 121.373323834323642, 24.923781204674885 ], [ 121.372399846772538, 24.923450596642677 ], [ 121.371447903220158, 24.923212147195965 ], [ 121.370477171403294, 24.923068152733276 ], [ 121.369497, 24.92302 ], [ 121.368516828596697, 24.923068152733276 ], [ 121.367546096779833, 24.923212147195965 ], [ 121.366594153227453, 24.923450596642677 ], [ 121.365670165676349, 24.923781204674885 ], [ 121.364783032631735, 24.924200787356515 ], [ 121.363941297669797, 24.924705303876973 ], [ 121.363153067158365, 24.925289895466371 ], [ 121.362425932188131, 24.925948932188135 ], [ 121.361766895466374, 24.926676067158361 ], [ 121.361182303876973, 24.927464297669804 ], [ 121.360677787356508, 24.928306032631738 ], [ 121.360258204674878, 24.929193165676349 ], [ 121.359927596642677, 24.930117153227453 ], [ 121.359689147195965, 24.931069096779837 ], [ 121.359545152733276, 24.932039828596704 ], [ 121.359497, 24.93302 ], [ 121.359545152733276, 24.934000171403294 ], [ 121.359689147195965, 24.934970903220162 ], [ 121.359927596642677, 24.935922846772545 ], [ 121.360258204674878, 24.936846834323649 ], [ 121.360677787356508, 24.93773396736826 ], [ 121.361182303876973, 24.938575702330194 ], [ 121.361766895466374, 24.939363932841637 ], [ 121.362425932188131, 24.940091067811863 ], [ 121.363153067158365, 24.940750104533628 ], [ 121.363941297669797, 24.941334696123025 ], [ 121.364783032631735, 24.941839212643483 ], [ 121.365670165676349, 24.942258795325113 ], [ 121.366594153227453, 24.942589403357321 ], [ 121.367546096779833, 24.942827852804033 ], [ 121.368516828596697, 24.942971847266723 ], [ 121.369497, 24.94302 ], [ 121.370477171403294, 24.942971847266723 ], [ 121.371447903220158, 24.942827852804033 ], [ 121.372399846772538, 24.942589403357321 ], [ 121.373323834323642, 24.942258795325113 ], [ 121.374210967368256, 24.941839212643483 ], [ 121.375052702330194, 24.941334696123025 ], [ 121.375840932841626, 24.940750104533628 ], [ 121.37656806781186, 24.940091067811863 ], [ 121.377227104533617, 24.939363932841637 ], [ 121.377811696123018, 24.938575702330194 ], [ 121.378316212643483, 24.93773396736826 ], [ 121.378735795325113, 24.936846834323649 ], [ 121.379066403357314, 24.935922846772545 ], [ 121.379304852804026, 24.934970903220162 ], [ 121.379448847266715, 24.934000171403294 ], [ 121.379497, 24.93302 ] ] ] } },
{ "type": "Feature", "properties": { "name": "九份老街商圈", "address": "新北市瑞芳區豎崎路15號", "district": "瑞芳區" }, "geometry": { "type": "Polygon", "coordinates": [ [ [ 121.853693, 25.108247 ], [ 121.853644847266722, 25.107266828596703 ], [ 121.853500852804032, 25.106296096779836 ], [ 121.85326240335732, 25.105344153227453 ], [ 121.852931795325119, 25.104420165676348 ], [ 121.852512212643489, 25.103533032631738 ], [ 121.852007696123025, 25.102691297669804 ], [ 121.851423104533623, 25.101903067158361 ], [ 121.850764067811866, 25.101175932188134 ], [ 121.850036932841633, 25.10051689546637 ], [ 121.8492487023302, 25.099932303876972 ], [ 121.848406967368263, 25.099427787356515 ], [ 121.847519834323649, 25.099008204674885 ], [ 121.846595846772544, 25.098677596642677 ], [ 121.845643903220164, 25.098439147195965 ], [ 121.844673171403301, 25.098295152733275 ], [ 121.843693, 25.098247 ], [ 121.842712828596703, 25.098295152733275 ], [ 121.841742096779839, 25.098439147195965 ], [ 121.840790153227459, 25.098677596642677 ], [ 121.839866165676355, 25.099008204674885 ], [ 121.838979032631741, 25.099427787356515 ], [ 121.838137297669803, 25.099932303876972 ], [ 121.837349067158371, 25.10051689546637 ], [ 121.836621932188137, 25.101175932188134 ], [ 121.83596289546638, 25.101903067158361 ], [ 121.835378303876979, 25.102691297669804 ], [ 121.834873787356514, 25.103533032631738 ], [ 121.834454204674884, 25.104420165676348 ], [ 121.834123596642684, 25.105344153227453 ], [ 121.833885147195971, 25.106296096779836 ], [ 121.833741152733282, 25.107266828596703 ], [ 121.833693, 25.108247 ], [ 121.833741152733282, 25.109227171403294 ], [ 121.833885147195971, 25.110197903220161 ], [ 121.834123596642684, 25.111149846772545 ], [ 121.834454204674884, 25.112073834323649 ], [ 121.834873787356514, 25.112960967368259 ], [ 121.835378303876979, 25.113802702330194 ], [ 121.83596289546638, 25.114590932841637 ], [ 121.836621932188137, 25.115318067811863 ], [ 121.837349067158371, 25.115977104533627 ], [ 121.838137297669803, 25.116561696123025 ], [ 121.838979032631741, 25.117066212643483 ], [ 121.839866165676355, 25.117485795325113 ], [ 121.840790153227459, 25.11781640335732 ], [ 121.841742096779839, 25.118054852804033 ], [ 121.842712828596703, 25.118198847266722 ], [ 121.843693, 25.118247 ], [ 121.844673171403301, 25.118198847266722 ], [ 121.845643903220164, 25.118054852804033 ], [ 121.846595846772544, 25.11781640335732 ], [ 121.847519834323649, 25.117485795325113 ], [ 121.848406967368263, 25.117066212643483 ], [ 121.8492487023302, 25.116561696123025 ], [ 121.850036932841633, 25.115977104533627 ], [ 121.850764067811866, 25.115318067811863 ], [ 121.851423104533623, 25.114590932841637 ], [ 121.852007696123025, 25.113802702330194 ], [ 121.852512212643489, 25.112960967368259 ], [ 121.852931795325119, 25.112073834323649 ], [ 121.85326240335732, 25.111149846772545 ], [ 121.853500852804032, 25.110197903220161 ], [ 121.853644847266722, 25.109227171403294 ], [ 121.853693, 25.108247 ] ] ] } },
{ "type": "Feature", "properties": { "name": "金山商圈", "address": "新北市金山區金包里街74號", "district": "金山區" }, "geometry": { "type": "Polygon", "coordinates": [ [ [ 121.64883, 25.221572 ], [ 121.648781847266719, 25.220591828596703 ], [ 121.648637852804029, 25.219621096779836 ], [ 121.648399403357317, 25.218669153227452 ], [ 121.648068795325116, 25.217745165676348 ], [ 121.647649212643486, 25.216858032631738 ], [ 121.647144696123021, 25.216016297669803 ], [ 121.64656010453362, 25.21522806715836 ], [ 121.645901067811863, 25.214500932188134 ], [ 121.645173932841629, 25.21384189546637 ], [ 121.644385702330197, 25.213257303876972 ], [ 121.643543967368259, 25.212752787356514 ], [ 121.642656834323645, 25.212333204674884 ], [ 121.641732846772541, 25.212002596642677 ], [ 121.640780903220161, 25.211764147195964 ], [ 121.639810171403298, 25.211620152733275 ], [ 121.63883, 25.211572 ], [ 121.6378498285967, 25.211620152733275 ], [ 121.636879096779836, 25.211764147195964 ], [ 121.635927153227456, 25.212002596642677 ], [ 121.635003165676352, 25.212333204674884 ], [ 121.634116032631738, 25.212752787356514 ], [ 121.6332742976698, 25.213257303876972 ], [ 121.632486067158368, 25.21384189546637 ], [ 121.631758932188134, 25.214500932188134 ], [ 121.631099895466377, 25.21522806715836 ], [ 121.630515303876976, 25.216016297669803 ], [ 121.630010787356511, 25.216858032631738 ], [ 121.629591204674881, 25.217745165676348 ], [ 121.629260596642681, 25.218669153227452 ], [ 121.629022147195968, 25.219621096779836 ], [ 121.628878152733279, 25.220591828596703 ], [ 121.62883, 25.221572 ], [ 121.628878152733279, 25.222552171403294 ], [ 121.629022147195968, 25.223522903220161 ], [ 121.629260596642681, 25.224474846772544 ], [ 121.629591204674881, 25.225398834323649 ], [ 121.630010787356511, 25.226285967368259 ], [ 121.630515303876976, 25.227127702330193 ], [ 121.631099895466377, 25.227915932841636 ], [ 121.631758932188134, 25.228643067811863 ], [ 121.632486067158368, 25.229302104533627 ], [ 121.6332742976698, 25.229886696123025 ], [ 121.634116032631738, 25.230391212643482 ], [ 121.635003165676352, 25.230810795325112 ], [ 121.635927153227456, 25.23114140335732 ], [ 121.636879096779836, 25.231379852804032 ], [ 121.6378498285967, 25.231523847266722 ], [ 121.63883, 25.231572 ], [ 121.639810171403298, 25.231523847266722 ], [ 121.640780903220161, 25.231379852804032 ], [ 121.641732846772541, 25.23114140335732 ], [ 121.642656834323645, 25.230810795325112 ], [ 121.643543967368259, 25.230391212643482 ], [ 121.644385702330197, 25.229886696123025 ], [ 121.645173932841629, 25.229302104533627 ], [ 121.645901067811863, 25.228643067811863 ], [ 121.64656010453362, 25.227915932841636 ], [ 121.647144696123021, 25.227127702330193 ], [ 121.647649212643486, 25.226285967368259 ], [ 121.648068795325116, 25.225398834323649 ], [ 121.648399403357317, 25.224474846772544 ], [ 121.648637852804029, 25.223522903220161 ], [ 121.648781847266719, 25.222552171403294 ], [ 121.64883, 25.221572 ] ] ] } },
{ "type": "Feature", "properties": { "name": "深坑老街商圈", "address": "新北市深坑區昇高里文山路2段30巷28號", "district": "深坑區" }, "geometry": { "type": "Polygon", "coordinates": [ [ [ 121.632821, 25.000356 ], [ 121.632772847266722, 24.999375828596705 ], [ 121.632628852804032, 24.998405096779837 ], [ 121.63239040335732, 24.997453153227454 ], [ 121.632059795325119, 24.99652916567635 ], [ 121.631640212643489, 24.995642032631739 ], [ 121.631135696123025, 24.994800297669805 ], [ 121.630551104533623, 24.994012067158362 ], [ 121.629892067811866, 24.993284932188136 ], [ 121.629164932841633, 24.992625895466372 ], [ 121.6283767023302, 24.992041303876974 ], [ 121.627534967368263, 24.991536787356516 ], [ 121.626647834323649, 24.991117204674886 ], [ 121.625723846772544, 24.990786596642678 ], [ 121.624771903220164, 24.990548147195966 ], [ 121.623801171403301, 24.990404152733277 ], [ 121.622821, 24.990356 ], [ 121.621840828596703, 24.990404152733277 ], [ 121.620870096779839, 24.990548147195966 ], [ 121.619918153227459, 24.990786596642678 ], [ 121.618994165676355, 24.991117204674886 ], [ 121.618107032631741, 24.991536787356516 ], [ 121.617265297669803, 24.992041303876974 ], [ 121.616477067158371, 24.992625895466372 ], [ 121.615749932188137, 24.993284932188136 ], [ 121.615090895466381, 24.994012067158362 ], [ 121.614506303876979, 24.994800297669805 ], [ 121.614001787356514, 24.995642032631739 ], [ 121.613582204674884, 24.99652916567635 ], [ 121.613251596642684, 24.997453153227454 ], [ 121.613013147195971, 24.998405096779837 ], [ 121.612869152733282, 24.999375828596705 ], [ 121.612821, 25.000356 ], [ 121.612869152733282, 25.001336171403295 ], [ 121.613013147195971, 25.002306903220163 ], [ 121.613251596642684, 25.003258846772546 ], [ 121.613582204674884, 25.00418283432365 ], [ 121.614001787356514, 25.005069967368261 ], [ 121.614506303876979, 25.005911702330195 ], [ 121.615090895466381, 25.006699932841638 ], [ 121.615749932188137, 25.007427067811864 ], [ 121.616477067158371, 25.008086104533628 ], [ 121.617265297669803, 25.008670696123026 ], [ 121.618107032631741, 25.009175212643484 ], [ 121.618994165676355, 25.009594795325114 ], [ 121.619918153227459, 25.009925403357322 ], [ 121.620870096779839, 25.010163852804034 ], [ 121.621840828596703, 25.010307847266724 ], [ 121.622821, 25.010356 ], [ 121.623801171403301, 25.010307847266724 ], [ 121.624771903220164, 25.010163852804034 ], [ 121.625723846772544, 25.009925403357322 ], [ 121.626647834323649, 25.009594795325114 ], [ 121.627534967368263, 25.009175212643484 ], [ 121.6283767023302, 25.008670696123026 ], [ 121.629164932841633, 25.008086104533628 ], [ 121.629892067811866, 25.007427067811864 ], [ 121.630551104533623, 25.006699932841638 ], [ 121.631135696123025, 25.005911702330195 ], [ 121.631640212643489, 25.005069967368261 ], [ 121.632059795325119, 25.00418283432365 ], [ 121.63239040335732, 25.003258846772546 ], [ 121.632628852804032, 25.002306903220163 ], [ 121.632772847266722, 25.001336171403295 ], [ 121.632821, 25.000356 ] ] ] } },
{ "type": "Feature", "properties": { "name": "雙溪商圈", "address": "新北市雙溪區梅竹蹊67號", "district": "雙溪區" }, "geometry": { "type": "Polygon", "coordinates": [ [ [ 121.856937, 25.031012 ], [ 121.856888847266717, 25.030031828596705 ], [ 121.856744852804027, 25.029061096779838 ], [ 121.856506403357315, 25.028109153227454 ], [ 121.856175795325115, 25.02718516567635 ], [ 121.855756212643485, 25.02629803263174 ], [ 121.85525169612302, 25.025456297669805 ], [ 121.854667104533618, 25.024668067158363 ], [ 121.854008067811861, 25.023940932188136 ], [ 121.853280932841628, 25.023281895466372 ], [ 121.852492702330196, 25.022697303876974 ], [ 121.851650967368258, 25.022192787356516 ], [ 121.850763834323644, 25.021773204674886 ], [ 121.849839846772539, 25.021442596642679 ], [ 121.84888790322016, 25.021204147195967 ], [ 121.847917171403296, 25.021060152733277 ], [ 121.846937, 25.021012 ], [ 121.845956828596698, 25.021060152733277 ], [ 121.844986096779834, 25.021204147195967 ], [ 121.844034153227454, 25.021442596642679 ], [ 121.84311016567635, 25.021773204674886 ], [ 121.842223032631736, 25.022192787356516 ], [ 121.841381297669798, 25.022697303876974 ], [ 121.840593067158366, 25.023281895466372 ], [ 121.839865932188133, 25.023940932188136 ], [ 121.839206895466376, 25.024668067158363 ], [ 121.838622303876974, 25.025456297669805 ], [ 121.838117787356509, 25.02629803263174 ], [ 121.837698204674879, 25.02718516567635 ], [ 121.837367596642679, 25.028109153227454 ], [ 121.837129147195967, 25.029061096779838 ], [ 121.836985152733277, 25.030031828596705 ], [ 121.836937, 25.031012 ], [ 121.836985152733277, 25.031992171403296 ], [ 121.837129147195967, 25.032962903220163 ], [ 121.837367596642679, 25.033914846772547 ], [ 121.837698204674879, 25.034838834323651 ], [ 121.838117787356509, 25.035725967368261 ], [ 121.838622303876974, 25.036567702330196 ], [ 121.839206895466376, 25.037355932841638 ], [ 121.839865932188133, 25.038083067811865 ], [ 121.840593067158366, 25.038742104533629 ], [ 121.841381297669798, 25.039326696123027 ], [ 121.842223032631736, 25.039831212643485 ], [ 121.84311016567635, 25.040250795325115 ], [ 121.844034153227454, 25.040581403357322 ], [ 121.844986096779834, 25.040819852804034 ], [ 121.845956828596698, 25.040963847266724 ], [ 121.846937, 25.041012 ], [ 121.847917171403296, 25.040963847266724 ], [ 121.84888790322016, 25.040819852804034 ], [ 121.849839846772539, 25.040581403357322 ], [ 121.850763834323644, 25.040250795325115 ], [ 121.851650967368258, 25.039831212643485 ], [ 121.852492702330196, 25.039326696123027 ], [ 121.853280932841628, 25.038742104533629 ], [ 121.854008067811861, 25.038083067811865 ], [ 121.854667104533618, 25.037355932841638 ], [ 121.85525169612302, 25.036567702330196 ], [ 121.855756212643485, 25.035725967368261 ], [ 121.856175795325115, 25.034838834323651 ], [ 121.856506403357315, 25.033914846772547 ], [ 121.856744852804027, 25.032962903220163 ], [ 121.856888847266717, 25.031992171403296 ], [ 121.856937, 25.031012 ] ] ] } },
{ "type": "Feature", "properties": { "name": "萬里商圈", "address": "新北市萬里區瑪鋉路221號", "district": "萬里區" }, "geometry": { "type": "Polygon", "coordinates": [ [ [ 121.699761, 25.179719 ], [ 121.699712847266724, 25.178738828596703 ], [ 121.699568852804035, 25.177768096779836 ], [ 121.699330403357322, 25.176816153227453 ], [ 121.698999795325122, 25.175892165676348 ], [ 121.698580212643492, 25.175005032631738 ], [ 121.698075696123027, 25.174163297669804 ], [ 121.697491104533626, 25.173375067158361 ], [ 121.696832067811869, 25.172647932188134 ], [ 121.696104932841635, 25.17198889546637 ], [ 121.695316702330203, 25.171404303876972 ], [ 121.694474967368265, 25.170899787356515 ], [ 121.693587834323651, 25.170480204674885 ], [ 121.692663846772547, 25.170149596642677 ], [ 121.691711903220167, 25.169911147195965 ], [ 121.690741171403303, 25.169767152733275 ], [ 121.689761, 25.169719 ], [ 121.688780828596705, 25.169767152733275 ], [ 121.687810096779842, 25.169911147195965 ], [ 121.686858153227462, 25.170149596642677 ], [ 121.685934165676358, 25.170480204674885 ], [ 121.685047032631743, 25.170899787356515 ], [ 121.684205297669806, 25.171404303876972 ], [ 121.683417067158373, 25.17198889546637 ], [ 121.68268993218814, 25.172647932188134 ], [ 121.682030895466383, 25.173375067158361 ], [ 121.681446303876982, 25.174163297669804 ], [ 121.680941787356517, 25.175005032631738 ], [ 121.680522204674887, 25.175892165676348 ], [ 121.680191596642686, 25.176816153227453 ], [ 121.679953147195974, 25.177768096779836 ], [ 121.679809152733284, 25.178738828596703 ], [ 121.679761, 25.179719 ], [ 121.679809152733284, 25.180699171403294 ], [ 121.679953147195974, 25.181669903220161 ], [ 121.680191596642686, 25.182621846772545 ], [ 121.680522204674887, 25.183545834323649 ], [ 121.680941787356517, 25.184432967368259 ], [ 121.681446303876982, 25.185274702330194 ], [ 121.682030895466383, 25.186062932841637 ], [ 121.68268993218814, 25.186790067811863 ], [ 121.683417067158373, 25.187449104533627 ], [ 121.684205297669806, 25.188033696123025 ], [ 121.685047032631743, 25.188538212643483 ], [ 121.685934165676358, 25.188957795325113 ], [ 121.686858153227462, 25.18928840335732 ], [ 121.687810096779842, 25.189526852804033 ], [ 121.688780828596705, 25.189670847266722 ], [ 121.689761, 25.189719 ], [ 121.690741171403303, 25.189670847266722 ], [ 121.691711903220167, 25.189526852804033 ], [ 121.692663846772547, 25.18928840335732 ], [ 121.693587834323651, 25.188957795325113 ], [ 121.694474967368265, 25.188538212643483 ], [ 121.695316702330203, 25.188033696123025 ], [ 121.696104932841635, 25.187449104533627 ], [ 121.696832067811869, 25.186790067811863 ], [ 121.697491104533626, 25.186062932841637 ], [ 121.698075696123027, 25.185274702330194 ], [ 121.698580212643492, 25.184432967368259 ], [ 121.698999795325122, 25.183545834323649 ], [ 121.699330403357322, 25.182621846772545 ], [ 121.699568852804035, 25.181669903220161 ], [ 121.699712847266724, 25.180699171403294 ], [ 121.699761, 25.179719 ] ] ] } },
{ "type": "Feature", "properties": { "name": "烏來商圈", "address": "新北市烏來區烏來街34號", "district": "烏來區" }, "geometry": { "type": "Polygon", "coordinates": [ [ [ 121.561198, 24.863485 ], [ 121.561149847266719, 24.862504828596705 ], [ 121.56100585280403, 24.861534096779838 ], [ 121.560767403357318, 24.860582153227455 ], [ 121.560436795325117, 24.85965816567635 ], [ 121.560017212643487, 24.85877103263174 ], [ 121.559512696123022, 24.857929297669806 ], [ 121.558928104533621, 24.857141067158363 ], [ 121.558269067811864, 24.856413932188136 ], [ 121.55754193284163, 24.855754895466372 ], [ 121.556753702330198, 24.855170303876974 ], [ 121.55591196736826, 24.854665787356517 ], [ 121.555024834323646, 24.854246204674887 ], [ 121.554100846772542, 24.853915596642679 ], [ 121.553148903220162, 24.853677147195967 ], [ 121.552178171403298, 24.853533152733277 ], [ 121.551198, 24.853485 ], [ 121.550217828596701, 24.853533152733277 ], [ 121.549247096779837, 24.853677147195967 ], [ 121.548295153227457, 24.853915596642679 ], [ 121.547371165676353, 24.854246204674887 ], [ 121.546484032631739, 24.854665787356517 ], [ 121.545642297669801, 24.855170303876974 ], [ 121.544854067158369, 24.855754895466372 ], [ 121.544126932188135, 24.856413932188136 ], [ 121.543467895466378, 24.857141067158363 ], [ 121.542883303876977, 24.857929297669806 ], [ 121.542378787356512, 24.85877103263174 ], [ 121.541959204674882, 24.85965816567635 ], [ 121.541628596642681, 24.860582153227455 ], [ 121.541390147195969, 24.861534096779838 ], [ 121.541246152733279, 24.862504828596705 ], [ 121.541198, 24.863485 ], [ 121.541246152733279, 24.864465171403296 ], [ 121.541390147195969, 24.865435903220163 ], [ 121.541628596642681, 24.866387846772547 ], [ 121.541959204674882, 24.867311834323651 ], [ 121.542378787356512, 24.868198967368262 ], [ 121.542883303876977, 24.869040702330196 ], [ 121.543467895466378, 24.869828932841639 ], [ 121.544126932188135, 24.870556067811865 ], [ 121.544854067158369, 24.871215104533629 ], [ 121.545642297669801, 24.871799696123027 ], [ 121.546484032631739, 24.872304212643485 ], [ 121.547371165676353, 24.872723795325115 ], [ 121.548295153227457, 24.873054403357322 ], [ 121.549247096779837, 24.873292852804035 ], [ 121.550217828596701, 24.873436847266724 ], [ 121.551198, 24.873485 ], [ 121.552178171403298, 24.873436847266724 ], [ 121.553148903220162, 24.873292852804035 ], [ 121.554100846772542, 24.873054403357322 ], [ 121.555024834323646, 24.872723795325115 ], [ 121.55591196736826, 24.872304212643485 ], [ 121.556753702330198, 24.871799696123027 ], [ 121.55754193284163, 24.871215104533629 ], [ 121.558269067811864, 24.870556067811865 ], [ 121.558928104533621, 24.869828932841639 ], [ 121.559512696123022, 24.869040702330196 ], [ 121.560017212643487, 24.868198967368262 ], [ 121.560436795325117, 24.867311834323651 ], [ 121.560767403357318, 24.866387846772547 ], [ 121.56100585280403, 24.865435903220163 ], [ 121.561149847266719, 24.864465171403296 ], [ 121.561198, 24.863485 ] ] ] } },
{ "type": "Feature", "properties": { "name": "坪林商圈", "address": "新北市坪林區北宜路8段217號", "district": "坪林區" }, "geometry": { "type": "Polygon", "coordinates": [ [ [ 121.720526, 24.935179 ], [ 121.720477847266721, 24.934198828596706 ], [ 121.720333852804032, 24.933228096779839 ], [ 121.72009540335732, 24.932276153227455 ], [ 121.719764795325119, 24.931352165676351 ], [ 121.719345212643489, 24.930465032631741 ], [ 121.718840696123024, 24.929623297669806 ], [ 121.718256104533623, 24.928835067158364 ], [ 121.717597067811866, 24.928107932188137 ], [ 121.716869932841632, 24.927448895466373 ], [ 121.7160817023302, 24.926864303876975 ], [ 121.715239967368262, 24.926359787356517 ], [ 121.714352834323648, 24.925940204674887 ], [ 121.713428846772544, 24.92560959664268 ], [ 121.712476903220164, 24.925371147195968 ], [ 121.7115061714033, 24.925227152733278 ], [ 121.710526, 24.925179 ], [ 121.709545828596703, 24.925227152733278 ], [ 121.708575096779839, 24.925371147195968 ], [ 121.707623153227459, 24.92560959664268 ], [ 121.706699165676355, 24.925940204674887 ], [ 121.705812032631741, 24.926359787356517 ], [ 121.704970297669803, 24.926864303876975 ], [ 121.704182067158371, 24.927448895466373 ], [ 121.703454932188137, 24.928107932188137 ], [ 121.70279589546638, 24.928835067158364 ], [ 121.702211303876979, 24.929623297669806 ], [ 121.701706787356514, 24.930465032631741 ], [ 121.701287204674884, 24.931352165676351 ], [ 121.700956596642683, 24.932276153227455 ], [ 121.700718147195971, 24.933228096779839 ], [ 121.700574152733282, 24.934198828596706 ], [ 121.700526, 24.935179 ], [ 121.700574152733282, 24.936159171403297 ], [ 121.700718147195971, 24.937129903220164 ], [ 121.700956596642683, 24.938081846772548 ], [ 121.701287204674884, 24.939005834323652 ], [ 121.701706787356514, 24.939892967368262 ], [ 121.702211303876979, 24.940734702330197 ], [ 121.70279589546638, 24.941522932841639 ], [ 121.703454932188137, 24.942250067811866 ], [ 121.704182067158371, 24.94290910453363 ], [ 121.704970297669803, 24.943493696123028 ], [ 121.705812032631741, 24.943998212643486 ], [ 121.706699165676355, 24.944417795325116 ], [ 121.707623153227459, 24.944748403357323 ], [ 121.708575096779839, 24.944986852804035 ], [ 121.709545828596703, 24.945130847266725 ], [ 121.710526, 24.945179 ], [ 121.7115061714033, 24.945130847266725 ], [ 121.712476903220164, 24.944986852804035 ], [ 121.713428846772544, 24.944748403357323 ], [ 121.714352834323648, 24.944417795325116 ], [ 121.715239967368262, 24.943998212643486 ], [ 121.7160817023302, 24.943493696123028 ], [ 121.716869932841632, 24.94290910453363 ], [ 121.717597067811866, 24.942250067811866 ], [ 121.718256104533623, 24.941522932841639 ], [ 121.718840696123024, 24.940734702330197 ], [ 121.719345212643489, 24.939892967368262 ], [ 121.719764795325119, 24.939005834323652 ], [ 121.72009540335732, 24.938081846772548 ], [ 121.720333852804032, 24.937129903220164 ], [ 121.720477847266721, 24.936159171403297 ], [ 121.720526, 24.935179 ] ] ] } },
{ "type": "Feature", "properties": { "name": "八里左岸商圈", "address": "新北市八里區忠孝路133號1樓", "district": "八里區" }, "geometry": { "type": "Polygon", "coordinates": [ [ [ 121.434109, 25.160531 ], [ 121.434060847266721, 25.159550828596704 ], [ 121.433916852804032, 25.158580096779836 ], [ 121.43367840335732, 25.157628153227453 ], [ 121.433347795325119, 25.156704165676349 ], [ 121.432928212643489, 25.155817032631738 ], [ 121.432423696123024, 25.154975297669804 ], [ 121.431839104533623, 25.154187067158361 ], [ 121.431180067811866, 25.153459932188134 ], [ 121.430452932841632, 25.15280089546637 ], [ 121.4296647023302, 25.152216303876973 ], [ 121.428822967368262, 25.151711787356515 ], [ 121.427935834323648, 25.151292204674885 ], [ 121.427011846772544, 25.150961596642677 ], [ 121.426059903220164, 25.150723147195965 ], [ 121.4250891714033, 25.150579152733275 ], [ 121.424109, 25.150531 ], [ 121.423128828596703, 25.150579152733275 ], [ 121.422158096779839, 25.150723147195965 ], [ 121.421206153227459, 25.150961596642677 ], [ 121.420282165676355, 25.151292204674885 ], [ 121.419395032631741, 25.151711787356515 ], [ 121.418553297669803, 25.152216303876973 ], [ 121.417765067158371, 25.15280089546637 ], [ 121.417037932188137, 25.153459932188134 ], [ 121.41637889546638, 25.154187067158361 ], [ 121.415794303876979, 25.154975297669804 ], [ 121.415289787356514, 25.155817032631738 ], [ 121.414870204674884, 25.156704165676349 ], [ 121.414539596642683, 25.157628153227453 ], [ 121.414301147195971, 25.158580096779836 ], [ 121.414157152733281, 25.159550828596704 ], [ 121.414109, 25.160531 ], [ 121.414157152733281, 25.161511171403294 ], [ 121.414301147195971, 25.162481903220161 ], [ 121.414539596642683, 25.163433846772545 ], [ 121.414870204674884, 25.164357834323649 ], [ 121.415289787356514, 25.16524496736826 ], [ 121.415794303876979, 25.166086702330194 ], [ 121.41637889546638, 25.166874932841637 ], [ 121.417037932188137, 25.167602067811863 ], [ 121.417765067158371, 25.168261104533627 ], [ 121.418553297669803, 25.168845696123025 ], [ 121.419395032631741, 25.169350212643483 ], [ 121.420282165676355, 25.169769795325113 ], [ 121.421206153227459, 25.170100403357321 ], [ 121.422158096779839, 25.170338852804033 ], [ 121.423128828596703, 25.170482847266722 ], [ 121.424109, 25.170531 ], [ 121.4250891714033, 25.170482847266722 ], [ 121.426059903220164, 25.170338852804033 ], [ 121.427011846772544, 25.170100403357321 ], [ 121.427935834323648, 25.169769795325113 ], [ 121.428822967368262, 25.169350212643483 ], [ 121.4296647023302, 25.168845696123025 ], [ 121.430452932841632, 25.168261104533627 ], [ 121.431180067811866, 25.167602067811863 ], [ 121.431839104533623, 25.166874932841637 ], [ 121.432423696123024, 25.166086702330194 ], [ 121.432928212643489, 25.16524496736826 ], [ 121.433347795325119, 25.164357834323649 ], [ 121.43367840335732, 25.163433846772545 ], [ 121.433916852804032, 25.162481903220161 ], [ 121.434060847266721, 25.161511171403294 ], [ 121.434109, 25.160531 ] ] ] } },
{ "type": "Feature", "properties": { "name": "三重碧華布街商圈", "address": "新北市三重區碧華街113號", "district": "三重區" }, "geometry": { "type": "Polygon", "coordinates": [ [ [ 121.49579, 25.081898 ], [ 121.495741847266714, 25.080917828596704 ], [ 121.495597852804025, 25.079947096779836 ], [ 121.495359403357313, 25.078995153227453 ], [ 121.495028795325112, 25.078071165676349 ], [ 121.494609212643482, 25.077184032631738 ], [ 121.494104696123017, 25.076342297669804 ], [ 121.493520104533616, 25.075554067158361 ], [ 121.492861067811859, 25.074826932188135 ], [ 121.492133932841625, 25.07416789546637 ], [ 121.491345702330193, 25.073583303876973 ], [ 121.490503967368255, 25.073078787356515 ], [ 121.489616834323641, 25.072659204674885 ], [ 121.488692846772537, 25.072328596642677 ], [ 121.487740903220157, 25.072090147195965 ], [ 121.486770171403293, 25.071946152733275 ], [ 121.48579, 25.071898 ], [ 121.484809828596696, 25.071946152733275 ], [ 121.483839096779832, 25.072090147195965 ], [ 121.482887153227452, 25.072328596642677 ], [ 121.481963165676348, 25.072659204674885 ], [ 121.481076032631734, 25.073078787356515 ], [ 121.480234297669796, 25.073583303876973 ], [ 121.479446067158364, 25.07416789546637 ], [ 121.47871893218813, 25.074826932188135 ], [ 121.478059895466373, 25.075554067158361 ], [ 121.477475303876972, 25.076342297669804 ], [ 121.476970787356507, 25.077184032631738 ], [ 121.476551204674877, 25.078071165676349 ], [ 121.476220596642676, 25.078995153227453 ], [ 121.475982147195964, 25.079947096779836 ], [ 121.475838152733274, 25.080917828596704 ], [ 121.47579, 25.081898 ], [ 121.475838152733274, 25.082878171403294 ], [ 121.475982147195964, 25.083848903220161 ], [ 121.476220596642676, 25.084800846772545 ], [ 121.476551204674877, 25.085724834323649 ], [ 121.476970787356507, 25.08661196736826 ], [ 121.477475303876972, 25.087453702330194 ], [ 121.478059895466373, 25.088241932841637 ], [ 121.47871893218813, 25.088969067811863 ], [ 121.479446067158364, 25.089628104533627 ], [ 121.480234297669796, 25.090212696123025 ], [ 121.481076032631734, 25.090717212643483 ], [ 121.481963165676348, 25.091136795325113 ], [ 121.482887153227452, 25.091467403357321 ], [ 121.483839096779832, 25.091705852804033 ], [ 121.484809828596696, 25.091849847266722 ], [ 121.48579, 25.091898 ], [ 121.486770171403293, 25.091849847266722 ], [ 121.487740903220157, 25.091705852804033 ], [ 121.488692846772537, 25.091467403357321 ], [ 121.489616834323641, 25.091136795325113 ], [ 121.490503967368255, 25.090717212643483 ], [ 121.491345702330193, 25.090212696123025 ], [ 121.492133932841625, 25.089628104533627 ], [ 121.492861067811859, 25.088969067811863 ], [ 121.493520104533616, 25.088241932841637 ], [ 121.494104696123017, 25.087453702330194 ], [ 121.494609212643482, 25.08661196736826 ], [ 121.495028795325112, 25.085724834323649 ], [ 121.495359403357313, 25.084800846772545 ], [ 121.495597852804025, 25.083848903220161 ], [ 121.495741847266714, 25.082878171403294 ], [ 121.49579, 25.081898 ] ] ] } },
{ "type": "Feature", "properties": { "name": "三峽三角湧商圈", "address": "新北市三峽區民生街170號", "district": "三峽區" }, "geometry": { "type": "Polygon", "coordinates": [ [ [ 121.381361, 24.934923 ], [ 121.381312847266713, 24.933942828596706 ], [ 121.381168852804024, 24.932972096779839 ], [ 121.380930403357311, 24.932020153227455 ], [ 121.380599795325111, 24.931096165676351 ], [ 121.380180212643481, 24.93020903263174 ], [ 121.379675696123016, 24.929367297669806 ], [ 121.379091104533614, 24.928579067158363 ], [ 121.378432067811858, 24.927851932188137 ], [ 121.377704932841624, 24.927192895466373 ], [ 121.376916702330192, 24.926608303876975 ], [ 121.376074967368254, 24.926103787356517 ], [ 121.37518783432364, 24.925684204674887 ], [ 121.374263846772536, 24.92535359664268 ], [ 121.373311903220156, 24.925115147195967 ], [ 121.372341171403292, 24.924971152733278 ], [ 121.371361, 24.924923 ], [ 121.370380828596694, 24.924971152733278 ], [ 121.369410096779831, 24.925115147195967 ], [ 121.368458153227451, 24.92535359664268 ], [ 121.367534165676346, 24.925684204674887 ], [ 121.366647032631732, 24.926103787356517 ], [ 121.365805297669795, 24.926608303876975 ], [ 121.365017067158362, 24.927192895466373 ], [ 121.364289932188129, 24.927851932188137 ], [ 121.363630895466372, 24.928579067158363 ], [ 121.36304630387697, 24.929367297669806 ], [ 121.362541787356506, 24.93020903263174 ], [ 121.362122204674876, 24.931096165676351 ], [ 121.361791596642675, 24.932020153227455 ], [ 121.361553147195963, 24.932972096779839 ], [ 121.361409152733273, 24.933942828596706 ], [ 121.361361, 24.934923 ], [ 121.361409152733273, 24.935903171403297 ], [ 121.361553147195963, 24.936873903220164 ], [ 121.361791596642675, 24.937825846772547 ], [ 121.362122204674876, 24.938749834323652 ], [ 121.362541787356506, 24.939636967368262 ], [ 121.36304630387697, 24.940478702330196 ], [ 121.363630895466372, 24.941266932841639 ], [ 121.364289932188129, 24.941994067811866 ], [ 121.365017067158362, 24.94265310453363 ], [ 121.365805297669795, 24.943237696123028 ], [ 121.366647032631732, 24.943742212643485 ], [ 121.367534165676346, 24.944161795325115 ], [ 121.368458153227451, 24.944492403357323 ], [ 121.369410096779831, 24.944730852804035 ], [ 121.370380828596694, 24.944874847266725 ], [ 121.371361, 24.944923 ], [ 121.372341171403292, 24.944874847266725 ], [ 121.373311903220156, 24.944730852804035 ], [ 121.374263846772536, 24.944492403357323 ], [ 121.37518783432364, 24.944161795325115 ], [ 121.376074967368254, 24.943742212643485 ], [ 121.376916702330192, 24.943237696123028 ], [ 121.377704932841624, 24.94265310453363 ], [ 121.378432067811858, 24.941994067811866 ], [ 121.379091104533614, 24.941266932841639 ], [ 121.379675696123016, 24.940478702330196 ], [ 121.380180212643481, 24.939636967368262 ], [ 121.380599795325111, 24.938749834323652 ], [ 121.380930403357311, 24.937825846772547 ], [ 121.381168852804024, 24.936873903220164 ], [ 121.381312847266713, 24.935903171403297 ], [ 121.381361, 24.934923 ] ] ] } },
{ "type": "Feature", "properties": { "name": "三峽秀川商圈", "address": "新北市三峽區忠孝街24號", "district": "三峽區" }, "geometry": { "type": "Polygon", "coordinates": [ [ [ 121.38085, 24.934086 ], [ 121.380801847266724, 24.933105828596705 ], [ 121.380657852804035, 24.932135096779838 ], [ 121.380419403357322, 24.931183153227455 ], [ 121.380088795325122, 24.93025916567635 ], [ 121.379669212643492, 24.92937203263174 ], [ 121.379164696123027, 24.928530297669806 ], [ 121.378580104533626, 24.927742067158363 ], [ 121.377921067811869, 24.927014932188136 ], [ 121.377193932841635, 24.926355895466372 ], [ 121.376405702330203, 24.925771303876974 ], [ 121.375563967368265, 24.925266787356517 ], [ 121.374676834323651, 24.924847204674887 ], [ 121.373752846772547, 24.924516596642679 ], [ 121.372800903220167, 24.924278147195967 ], [ 121.371830171403303, 24.924134152733277 ], [ 121.37085, 24.924086 ], [ 121.369869828596705, 24.924134152733277 ], [ 121.368899096779842, 24.924278147195967 ], [ 121.367947153227462, 24.924516596642679 ], [ 121.367023165676358, 24.924847204674887 ], [ 121.366136032631744, 24.925266787356517 ], [ 121.365294297669806, 24.925771303876974 ], [ 121.364506067158374, 24.926355895466372 ], [ 121.36377893218814, 24.927014932188136 ], [ 121.363119895466383, 24.927742067158363 ], [ 121.362535303876982, 24.928530297669806 ], [ 121.362030787356517, 24.92937203263174 ], [ 121.361611204674887, 24.93025916567635 ], [ 121.361280596642686, 24.931183153227455 ], [ 121.361042147195974, 24.932135096779838 ], [ 121.360898152733284, 24.933105828596705 ], [ 121.36085, 24.934086 ], [ 121.360898152733284, 24.935066171403296 ], [ 121.361042147195974, 24.936036903220163 ], [ 121.361280596642686, 24.936988846772547 ], [ 121.361611204674887, 24.937912834323651 ], [ 121.362030787356517, 24.938799967368261 ], [ 121.362535303876982, 24.939641702330196 ], [ 121.363119895466383, 24.940429932841639 ], [ 121.36377893218814, 24.941157067811865 ], [ 121.364506067158374, 24.941816104533629 ], [ 121.365294297669806, 24.942400696123027 ], [ 121.366136032631744, 24.942905212643485 ], [ 121.367023165676358, 24.943324795325115 ], [ 121.367947153227462, 24.943655403357322 ], [ 121.368899096779842, 24.943893852804035 ], [ 121.369869828596705, 24.944037847266724 ], [ 121.37085, 24.944086 ], [ 121.371830171403303, 24.944037847266724 ], [ 121.372800903220167, 24.943893852804035 ], [ 121.373752846772547, 24.943655403357322 ], [ 121.374676834323651, 24.943324795325115 ], [ 121.375563967368265, 24.942905212643485 ], [ 121.376405702330203, 24.942400696123027 ], [ 121.377193932841635, 24.941816104533629 ], [ 121.377921067811869, 24.941157067811865 ], [ 121.378580104533626, 24.940429932841639 ], [ 121.379164696123027, 24.939641702330196 ], [ 121.379669212643492, 24.938799967368261 ], [ 121.380088795325122, 24.937912834323651 ], [ 121.380419403357322, 24.936988846772547 ], [ 121.380657852804035, 24.936036903220163 ], [ 121.380801847266724, 24.935066171403296 ], [ 121.38085, 24.934086 ] ] ] } },
{ "type": "Feature", "properties": { "name": "中和華新街商圈", "address": "新北市中和區華新街92號", "district": "中和區" }, "geometry": { "type": "Polygon", "coordinates": [ [ [ 121.518504, 24.983115 ], [ 121.518455847266722, 24.982134828596706 ], [ 121.518311852804032, 24.981164096779839 ], [ 121.51807340335732, 24.980212153227455 ], [ 121.51774279532512, 24.979288165676351 ], [ 121.51732321264349, 24.978401032631741 ], [ 121.516818696123025, 24.977559297669806 ], [ 121.516234104533623, 24.976771067158364 ], [ 121.515575067811866, 24.976043932188137 ], [ 121.514847932841633, 24.975384895466373 ], [ 121.514059702330201, 24.974800303876975 ], [ 121.513217967368263, 24.974295787356517 ], [ 121.512330834323649, 24.973876204674887 ], [ 121.511406846772545, 24.97354559664268 ], [ 121.510454903220165, 24.973307147195968 ], [ 121.509484171403301, 24.973163152733278 ], [ 121.508504, 24.973115 ], [ 121.507523828596703, 24.973163152733278 ], [ 121.50655309677984, 24.973307147195968 ], [ 121.50560115322746, 24.97354559664268 ], [ 121.504677165676355, 24.973876204674887 ], [ 121.503790032631741, 24.974295787356517 ], [ 121.502948297669803, 24.974800303876975 ], [ 121.502160067158371, 24.975384895466373 ], [ 121.501432932188138, 24.976043932188137 ], [ 121.500773895466381, 24.976771067158364 ], [ 121.500189303876979, 24.977559297669806 ], [ 121.499684787356514, 24.978401032631741 ], [ 121.499265204674884, 24.979288165676351 ], [ 121.498934596642684, 24.980212153227455 ], [ 121.498696147195972, 24.981164096779839 ], [ 121.498552152733282, 24.982134828596706 ], [ 121.498504, 24.983115 ], [ 121.498552152733282, 24.984095171403297 ], [ 121.498696147195972, 24.985065903220164 ], [ 121.498934596642684, 24.986017846772548 ], [ 121.499265204674884, 24.986941834323652 ], [ 121.499684787356514, 24.987828967368262 ], [ 121.500189303876979, 24.988670702330197 ], [ 121.500773895466381, 24.989458932841639 ], [ 121.501432932188138, 24.990186067811866 ], [ 121.502160067158371, 24.99084510453363 ], [ 121.502948297669803, 24.991429696123028 ], [ 121.503790032631741, 24.991934212643486 ], [ 121.504677165676355, 24.992353795325116 ], [ 121.50560115322746, 24.992684403357323 ], [ 121.50655309677984, 24.992922852804035 ], [ 121.507523828596703, 24.993066847266725 ], [ 121.508504, 24.993115 ], [ 121.509484171403301, 24.993066847266725 ], [ 121.510454903220165, 24.992922852804035 ], [ 121.511406846772545, 24.992684403357323 ], [ 121.512330834323649, 24.992353795325116 ], [ 121.513217967368263, 24.991934212643486 ], [ 121.514059702330201, 24.991429696123028 ], [ 121.514847932841633, 24.99084510453363 ], [ 121.515575067811866, 24.990186067811866 ], [ 121.516234104533623, 24.989458932841639 ], [ 121.516818696123025, 24.988670702330197 ], [ 121.51732321264349, 24.987828967368262 ], [ 121.51774279532512, 24.986941834323652 ], [ 121.51807340335732, 24.986017846772548 ], [ 121.518311852804032, 24.985065903220164 ], [ 121.518455847266722, 24.984095171403297 ], [ 121.518504, 24.983115 ] ] ] } },
{ "type": "Feature", "properties": { "name": "林口建城商圈", "address": "新北市林口區信義路206號13樓", "district": "林口區" }, "geometry": { "type": "Polygon", "coordinates": [ [ [ 121.387949, 25.080819 ], [ 121.387900847266721, 25.079838828596706 ], [ 121.387756852804031, 25.078868096779839 ], [ 121.387518403357319, 25.077916153227456 ], [ 121.387187795325119, 25.076992165676351 ], [ 121.386768212643489, 25.076105032631741 ], [ 121.386263696123024, 25.075263297669807 ], [ 121.385679104533622, 25.074475067158364 ], [ 121.385020067811865, 25.073747932188137 ], [ 121.384292932841632, 25.073088895466373 ], [ 121.3835047023302, 25.072504303876975 ], [ 121.382662967368262, 25.071999787356518 ], [ 121.381775834323648, 25.071580204674888 ], [ 121.380851846772543, 25.07124959664268 ], [ 121.379899903220164, 25.071011147195968 ], [ 121.3789291714033, 25.070867152733278 ], [ 121.377949, 25.070819 ], [ 121.376968828596702, 25.070867152733278 ], [ 121.375998096779838, 25.071011147195968 ], [ 121.375046153227458, 25.07124959664268 ], [ 121.374122165676354, 25.071580204674888 ], [ 121.37323503263174, 25.071999787356518 ], [ 121.372393297669802, 25.072504303876975 ], [ 121.37160506715837, 25.073088895466373 ], [ 121.370877932188137, 25.073747932188137 ], [ 121.37021889546638, 25.074475067158364 ], [ 121.369634303876978, 25.075263297669807 ], [ 121.369129787356513, 25.076105032631741 ], [ 121.368710204674883, 25.076992165676351 ], [ 121.368379596642683, 25.077916153227456 ], [ 121.368141147195971, 25.078868096779839 ], [ 121.367997152733281, 25.079838828596706 ], [ 121.367949, 25.080819 ], [ 121.367997152733281, 25.081799171403297 ], [ 121.368141147195971, 25.082769903220164 ], [ 121.368379596642683, 25.083721846772548 ], [ 121.368710204674883, 25.084645834323652 ], [ 121.369129787356513, 25.085532967368263 ], [ 121.369634303876978, 25.086374702330197 ], [ 121.37021889546638, 25.08716293284164 ], [ 121.370877932188137, 25.087890067811866 ], [ 121.37160506715837, 25.08854910453363 ], [ 121.372393297669802, 25.089133696123028 ], [ 121.37323503263174, 25.089638212643486 ], [ 121.374122165676354, 25.090057795325116 ], [ 121.375046153227458, 25.090388403357323 ], [ 121.375998096779838, 25.090626852804036 ], [ 121.376968828596702, 25.090770847266725 ], [ 121.377949, 25.090819 ], [ 121.3789291714033, 25.090770847266725 ], [ 121.379899903220164, 25.090626852804036 ], [ 121.380851846772543, 25.090388403357323 ], [ 121.381775834323648, 25.090057795325116 ], [ 121.382662967368262, 25.089638212643486 ], [ 121.3835047023302, 25.089133696123028 ], [ 121.384292932841632, 25.08854910453363 ], [ 121.385020067811865, 25.087890067811866 ], [ 121.385679104533622, 25.08716293284164 ], [ 121.386263696123024, 25.086374702330197 ], [ 121.386768212643489, 25.085532967368263 ], [ 121.387187795325119, 25.084645834323652 ], [ 121.387518403357319, 25.083721846772548 ], [ 121.387756852804031, 25.082769903220164 ], [ 121.387900847266721, 25.081799171403297 ], [ 121.387949, 25.080819 ] ] ] } },
{ "type": "Feature", "properties": { "name": "野柳商圈", "address": "新北市萬里區瑪鋉路221號", "district": "萬里區" }, "geometry": { "type": "Polygon", "coordinates": [ [ [ 121.699761, 25.179719 ], [ 121.699712847266724, 25.178738828596703 ], [ 121.699568852804035, 25.177768096779836 ], [ 121.699330403357322, 25.176816153227453 ], [ 121.698999795325122, 25.175892165676348 ], [ 121.698580212643492, 25.175005032631738 ], [ 121.698075696123027, 25.174163297669804 ], [ 121.697491104533626, 25.173375067158361 ], [ 121.696832067811869, 25.172647932188134 ], [ 121.696104932841635, 25.17198889546637 ], [ 121.695316702330203, 25.171404303876972 ], [ 121.694474967368265, 25.170899787356515 ], [ 121.693587834323651, 25.170480204674885 ], [ 121.692663846772547, 25.170149596642677 ], [ 121.691711903220167, 25.169911147195965 ], [ 121.690741171403303, 25.169767152733275 ], [ 121.689761, 25.169719 ], [ 121.688780828596705, 25.169767152733275 ], [ 121.687810096779842, 25.169911147195965 ], [ 121.686858153227462, 25.170149596642677 ], [ 121.685934165676358, 25.170480204674885 ], [ 121.685047032631743, 25.170899787356515 ], [ 121.684205297669806, 25.171404303876972 ], [ 121.683417067158373, 25.17198889546637 ], [ 121.68268993218814, 25.172647932188134 ], [ 121.682030895466383, 25.173375067158361 ], [ 121.681446303876982, 25.174163297669804 ], [ 121.680941787356517, 25.175005032631738 ], [ 121.680522204674887, 25.175892165676348 ], [ 121.680191596642686, 25.176816153227453 ], [ 121.679953147195974, 25.177768096779836 ], [ 121.679809152733284, 25.178738828596703 ], [ 121.679761, 25.179719 ], [ 121.679809152733284, 25.180699171403294 ], [ 121.679953147195974, 25.181669903220161 ], [ 121.680191596642686, 25.182621846772545 ], [ 121.680522204674887, 25.183545834323649 ], [ 121.680941787356517, 25.184432967368259 ], [ 121.681446303876982, 25.185274702330194 ], [ 121.682030895466383, 25.186062932841637 ], [ 121.68268993218814, 25.186790067811863 ], [ 121.683417067158373, 25.187449104533627 ], [ 121.684205297669806, 25.188033696123025 ], [ 121.685047032631743, 25.188538212643483 ], [ 121.685934165676358, 25.188957795325113 ], [ 121.686858153227462, 25.18928840335732 ], [ 121.687810096779842, 25.189526852804033 ], [ 121.688780828596705, 25.189670847266722 ], [ 121.689761, 25.189719 ], [ 121.690741171403303, 25.189670847266722 ], [ 121.691711903220167, 25.189526852804033 ], [ 121.692663846772547, 25.18928840335732 ], [ 121.693587834323651, 25.188957795325113 ], [ 121.694474967368265, 25.188538212643483 ], [ 121.695316702330203, 25.188033696123025 ], [ 121.696104932841635, 25.187449104533627 ], [ 121.696832067811869, 25.186790067811863 ], [ 121.697491104533626, 25.186062932841637 ], [ 121.698075696123027, 25.185274702330194 ], [ 121.698580212643492, 25.184432967368259 ], [ 121.698999795325122, 25.183545834323649 ], [ 121.699330403357322, 25.182621846772545 ], [ 121.699568852804035, 25.181669903220161 ], [ 121.699712847266724, 25.180699171403294 ], [ 121.699761, 25.179719 ] ] ] } },
{ "type": "Feature", "properties": { "name": "菁桐商圈", "address": "新北市平溪區菁桐街165號", "district": "平溪區" }, "geometry": { "type": "Polygon", "coordinates": [ [ [ 121.733125, 25.023509 ], [ 121.733076847266716, 25.022528828596705 ], [ 121.732932852804026, 25.021558096779838 ], [ 121.732694403357314, 25.020606153227455 ], [ 121.732363795325114, 25.01968216567635 ], [ 121.731944212643484, 25.01879503263174 ], [ 121.731439696123019, 25.017953297669806 ], [ 121.730855104533617, 25.017165067158363 ], [ 121.73019606781186, 25.016437932188136 ], [ 121.729468932841627, 25.015778895466372 ], [ 121.728680702330195, 25.015194303876974 ], [ 121.727838967368257, 25.014689787356517 ], [ 121.726951834323643, 25.014270204674887 ], [ 121.726027846772539, 25.013939596642679 ], [ 121.725075903220159, 25.013701147195967 ], [ 121.724105171403295, 25.013557152733277 ], [ 121.723125, 25.013509 ], [ 121.722144828596697, 25.013557152733277 ], [ 121.721174096779833, 25.013701147195967 ], [ 121.720222153227454, 25.013939596642679 ], [ 121.719298165676349, 25.014270204674887 ], [ 121.718411032631735, 25.014689787356517 ], [ 121.717569297669797, 25.015194303876974 ], [ 121.716781067158365, 25.015778895466372 ], [ 121.716053932188132, 25.016437932188136 ], [ 121.715394895466375, 25.017165067158363 ], [ 121.714810303876973, 25.017953297669806 ], [ 121.714305787356508, 25.01879503263174 ], [ 121.713886204674878, 25.01968216567635 ], [ 121.713555596642678, 25.020606153227455 ], [ 121.713317147195966, 25.021558096779838 ], [ 121.713173152733276, 25.022528828596705 ], [ 121.713125, 25.023509 ], [ 121.713173152733276, 25.024489171403296 ], [ 121.713317147195966, 25.025459903220163 ], [ 121.713555596642678, 25.026411846772547 ], [ 121.713886204674878, 25.027335834323651 ], [ 121.714305787356508, 25.028222967368261 ], [ 121.714810303876973, 25.029064702330196 ], [ 121.715394895466375, 25.029852932841639 ], [ 121.716053932188132, 25.030580067811865 ], [ 121.716781067158365, 25.031239104533629 ], [ 121.717569297669797, 25.031823696123027 ], [ 121.718411032631735, 25.032328212643485 ], [ 121.719298165676349, 25.032747795325115 ], [ 121.720222153227454, 25.033078403357322 ], [ 121.721174096779833, 25.033316852804035 ], [ 121.722144828596697, 25.033460847266724 ], [ 121.723125, 25.033509 ], [ 121.724105171403295, 25.033460847266724 ], [ 121.725075903220159, 25.033316852804035 ], [ 121.726027846772539, 25.033078403357322 ], [ 121.726951834323643, 25.032747795325115 ], [ 121.727838967368257, 25.032328212643485 ], [ 121.728680702330195, 25.031823696123027 ], [ 121.729468932841627, 25.031239104533629 ], [ 121.73019606781186, 25.030580067811865 ], [ 121.730855104533617, 25.029852932841639 ], [ 121.731439696123019, 25.029064702330196 ], [ 121.731944212643484, 25.028222967368261 ], [ 121.732363795325114, 25.027335834323651 ], [ 121.732694403357314, 25.026411846772547 ], [ 121.732932852804026, 25.025459903220163 ], [ 121.733076847266716, 25.024489171403296 ], [ 121.733125, 25.023509 ] ] ] } },
{ "type": "Feature", "properties": { "name": "猴硐商圈", "address": "新北市蘆洲區中山二路182號3樓", "district": "蘆洲區" }, "geometry": { "type": "Polygon", "coordinates": [ [ [ 121.480533, 25.080674 ], [ 121.480484847266723, 25.079693828596703 ], [ 121.480340852804034, 25.078723096779836 ], [ 121.480102403357321, 25.077771153227452 ], [ 121.479771795325121, 25.076847165676348 ], [ 121.479352212643491, 25.075960032631738 ], [ 121.478847696123026, 25.075118297669803 ], [ 121.478263104533625, 25.07433006715836 ], [ 121.477604067811868, 25.073602932188134 ], [ 121.476876932841634, 25.07294389546637 ], [ 121.476088702330202, 25.072359303876972 ], [ 121.475246967368264, 25.071854787356514 ], [ 121.47435983432365, 25.071435204674884 ], [ 121.473435846772546, 25.071104596642677 ], [ 121.472483903220166, 25.070866147195964 ], [ 121.471513171403302, 25.070722152733275 ], [ 121.470533, 25.070674 ], [ 121.469552828596704, 25.070722152733275 ], [ 121.468582096779841, 25.070866147195964 ], [ 121.467630153227461, 25.071104596642677 ], [ 121.466706165676356, 25.071435204674884 ], [ 121.465819032631742, 25.071854787356514 ], [ 121.464977297669805, 25.072359303876972 ], [ 121.464189067158372, 25.07294389546637 ], [ 121.463461932188139, 25.073602932188134 ], [ 121.462802895466382, 25.07433006715836 ], [ 121.46221830387698, 25.075118297669803 ], [ 121.461713787356516, 25.075960032631738 ], [ 121.461294204674886, 25.076847165676348 ], [ 121.460963596642685, 25.077771153227452 ], [ 121.460725147195973, 25.078723096779836 ], [ 121.460581152733283, 25.079693828596703 ], [ 121.460533, 25.080674 ], [ 121.460581152733283, 25.081654171403294 ], [ 121.460725147195973, 25.082624903220161 ], [ 121.460963596642685, 25.083576846772544 ], [ 121.461294204674886, 25.084500834323649 ], [ 121.461713787356516, 25.085387967368259 ], [ 121.46221830387698, 25.086229702330193 ], [ 121.462802895466382, 25.087017932841636 ], [ 121.463461932188139, 25.087745067811863 ], [ 121.464189067158372, 25.088404104533627 ], [ 121.464977297669805, 25.088988696123025 ], [ 121.465819032631742, 25.089493212643482 ], [ 121.466706165676356, 25.089912795325112 ], [ 121.467630153227461, 25.09024340335732 ], [ 121.468582096779841, 25.090481852804032 ], [ 121.469552828596704, 25.090625847266722 ], [ 121.470533, 25.090674 ], [ 121.471513171403302, 25.090625847266722 ], [ 121.472483903220166, 25.090481852804032 ], [ 121.473435846772546, 25.09024340335732 ], [ 121.47435983432365, 25.089912795325112 ], [ 121.475246967368264, 25.089493212643482 ], [ 121.476088702330202, 25.088988696123025 ], [ 121.476876932841634, 25.088404104533627 ], [ 121.477604067811868, 25.087745067811863 ], [ 121.478263104533625, 25.087017932841636 ], [ 121.478847696123026, 25.086229702330193 ], [ 121.479352212643491, 25.085387967368259 ], [ 121.479771795325121, 25.084500834323649 ], [ 121.480102403357321, 25.083576846772544 ], [ 121.480340852804034, 25.082624903220161 ], [ 121.480484847266723, 25.081654171403294 ], [ 121.480533, 25.080674 ] ] ] } },
{ "type": "Feature", "properties": { "name": "新莊副都心商圈", "address": "新北市新莊區新北大道4段135號22樓", "district": "新莊區" }, "geometry": { "type": "Polygon", "coordinates": [ [ [ 121.461069, 25.060369 ], [ 121.461020847266724, 25.059388828596706 ], [ 121.460876852804034, 25.058418096779839 ], [ 121.460638403357322, 25.057466153227455 ], [ 121.460307795325122, 25.056542165676351 ], [ 121.459888212643492, 25.055655032631741 ], [ 121.459383696123027, 25.054813297669806 ], [ 121.458799104533625, 25.054025067158364 ], [ 121.458140067811868, 25.053297932188137 ], [ 121.457412932841635, 25.052638895466373 ], [ 121.456624702330203, 25.052054303876975 ], [ 121.455782967368265, 25.051549787356517 ], [ 121.454895834323651, 25.051130204674887 ], [ 121.453971846772546, 25.05079959664268 ], [ 121.453019903220166, 25.050561147195967 ], [ 121.452049171403303, 25.050417152733278 ], [ 121.451069, 25.050369 ], [ 121.450088828596705, 25.050417152733278 ], [ 121.449118096779841, 25.050561147195967 ], [ 121.448166153227461, 25.05079959664268 ], [ 121.447242165676357, 25.051130204674887 ], [ 121.446355032631743, 25.051549787356517 ], [ 121.445513297669805, 25.052054303876975 ], [ 121.444725067158373, 25.052638895466373 ], [ 121.44399793218814, 25.053297932188137 ], [ 121.443338895466383, 25.054025067158364 ], [ 121.442754303876981, 25.054813297669806 ], [ 121.442249787356516, 25.055655032631741 ], [ 121.441830204674886, 25.056542165676351 ], [ 121.441499596642686, 25.057466153227455 ], [ 121.441261147195974, 25.058418096779839 ], [ 121.441117152733284, 25.059388828596706 ], [ 121.441069, 25.060369 ], [ 121.441117152733284, 25.061349171403297 ], [ 121.441261147195974, 25.062319903220164 ], [ 121.441499596642686, 25.063271846772547 ], [ 121.441830204674886, 25.064195834323652 ], [ 121.442249787356516, 25.065082967368262 ], [ 121.442754303876981, 25.065924702330197 ], [ 121.443338895466383, 25.066712932841639 ], [ 121.44399793218814, 25.067440067811866 ], [ 121.444725067158373, 25.06809910453363 ], [ 121.445513297669805, 25.068683696123028 ], [ 121.446355032631743, 25.069188212643486 ], [ 121.447242165676357, 25.069607795325116 ], [ 121.448166153227461, 25.069938403357323 ], [ 121.449118096779841, 25.070176852804035 ], [ 121.450088828596705, 25.070320847266725 ], [ 121.451069, 25.070369 ], [ 121.452049171403303, 25.070320847266725 ], [ 121.453019903220166, 25.070176852804035 ], [ 121.453971846772546, 25.069938403357323 ], [ 121.454895834323651, 25.069607795325116 ], [ 121.455782967368265, 25.069188212643486 ], [ 121.456624702330203, 25.068683696123028 ], [ 121.457412932841635, 25.06809910453363 ], [ 121.458140067811868, 25.067440067811866 ], [ 121.458799104533625, 25.066712932841639 ], [ 121.459383696123027, 25.065924702330197 ], [ 121.459888212643492, 25.065082967368262 ], [ 121.460307795325122, 25.064195834323652 ], [ 121.460638403357322, 25.063271846772547 ], [ 121.460876852804034, 25.062319903220164 ], [ 121.461020847266724, 25.061349171403297 ], [ 121.461069, 25.060369 ] ] ] } },
{ "type": "Feature", "properties": { "name": "亞東商圈", "address": "新北市板橋區四川路二段16巷10號5樓", "district": "板橋區" }, "geometry": { "type": "Polygon", "coordinates": [ [ [ 121.466114, 24.997376 ], [ 121.466065847266719, 24.996395828596704 ], [ 121.46592185280403, 24.995425096779837 ], [ 121.465683403357318, 24.994473153227453 ], [ 121.465352795325117, 24.993549165676349 ], [ 121.464933212643487, 24.992662032631738 ], [ 121.464428696123022, 24.991820297669804 ], [ 121.463844104533621, 24.991032067158361 ], [ 121.463185067811864, 24.990304932188135 ], [ 121.46245793284163, 24.989645895466371 ], [ 121.461669702330198, 24.989061303876973 ], [ 121.46082796736826, 24.988556787356515 ], [ 121.459940834323646, 24.988137204674885 ], [ 121.459016846772542, 24.987806596642677 ], [ 121.458064903220162, 24.987568147195965 ], [ 121.457094171403298, 24.987424152733276 ], [ 121.456114, 24.987376 ], [ 121.455133828596701, 24.987424152733276 ], [ 121.454163096779837, 24.987568147195965 ], [ 121.453211153227457, 24.987806596642677 ], [ 121.452287165676353, 24.988137204674885 ], [ 121.451400032631739, 24.988556787356515 ], [ 121.450558297669801, 24.989061303876973 ], [ 121.449770067158369, 24.989645895466371 ], [ 121.449042932188135, 24.990304932188135 ], [ 121.448383895466378, 24.991032067158361 ], [ 121.447799303876977, 24.991820297669804 ], [ 121.447294787356512, 24.992662032631738 ], [ 121.446875204674882, 24.993549165676349 ], [ 121.446544596642681, 24.994473153227453 ], [ 121.446306147195969, 24.995425096779837 ], [ 121.44616215273328, 24.996395828596704 ], [ 121.446114, 24.997376 ], [ 121.44616215273328, 24.998356171403294 ], [ 121.446306147195969, 24.999326903220162 ], [ 121.446544596642681, 25.000278846772545 ], [ 121.446875204674882, 25.001202834323649 ], [ 121.447294787356512, 25.00208996736826 ], [ 121.447799303876977, 25.002931702330194 ], [ 121.448383895466378, 25.003719932841637 ], [ 121.449042932188135, 25.004447067811864 ], [ 121.449770067158369, 25.005106104533628 ], [ 121.450558297669801, 25.005690696123025 ], [ 121.451400032631739, 25.006195212643483 ], [ 121.452287165676353, 25.006614795325113 ], [ 121.453211153227457, 25.006945403357321 ], [ 121.454163096779837, 25.007183852804033 ], [ 121.455133828596701, 25.007327847266723 ], [ 121.456114, 25.007376 ], [ 121.457094171403298, 25.007327847266723 ], [ 121.458064903220162, 25.007183852804033 ], [ 121.459016846772542, 25.006945403357321 ], [ 121.459940834323646, 25.006614795325113 ], [ 121.46082796736826, 25.006195212643483 ], [ 121.461669702330198, 25.005690696123025 ], [ 121.46245793284163, 25.005106104533628 ], [ 121.463185067811864, 25.004447067811864 ], [ 121.463844104533621, 25.003719932841637 ], [ 121.464428696123022, 25.002931702330194 ], [ 121.464933212643487, 25.00208996736826 ], [ 121.465352795325117, 25.001202834323649 ], [ 121.465683403357318, 25.000278846772545 ], [ 121.46592185280403, 24.999326903220162 ], [ 121.466065847266719, 24.998356171403294 ], [ 121.466114, 24.997376 ] ] ] } },
{ "type": "Feature", "properties": { "name": "瑞芳老街商圈", "address": "新北市瑞芳區瑞芳街50號", "district": "瑞芳區" }, "geometry": { "type": "Polygon", "coordinates": [ [ [ 121.815895, 25.109722 ], [ 121.815846847266727, 25.108741828596706 ], [ 121.815702852804037, 25.107771096779839 ], [ 121.815464403357325, 25.106819153227455 ], [ 121.815133795325124, 25.105895165676351 ], [ 121.814714212643494, 25.105008032631741 ], [ 121.814209696123029, 25.104166297669806 ], [ 121.813625104533628, 25.103378067158364 ], [ 121.812966067811871, 25.102650932188137 ], [ 121.812238932841638, 25.101991895466373 ], [ 121.811450702330205, 25.101407303876975 ], [ 121.810608967368267, 25.100902787356517 ], [ 121.809721834323653, 25.100483204674887 ], [ 121.808797846772549, 25.10015259664268 ], [ 121.807845903220169, 25.099914147195967 ], [ 121.806875171403306, 25.099770152733278 ], [ 121.805895, 25.099722 ], [ 121.804914828596708, 25.099770152733278 ], [ 121.803944096779844, 25.099914147195967 ], [ 121.802992153227464, 25.10015259664268 ], [ 121.80206816567636, 25.100483204674887 ], [ 121.801181032631746, 25.100902787356517 ], [ 121.800339297669808, 25.101407303876975 ], [ 121.799551067158376, 25.101991895466373 ], [ 121.798823932188142, 25.102650932188137 ], [ 121.798164895466385, 25.103378067158364 ], [ 121.797580303876984, 25.104166297669806 ], [ 121.797075787356519, 25.105008032631741 ], [ 121.796656204674889, 25.105895165676351 ], [ 121.796325596642689, 25.106819153227455 ], [ 121.796087147195976, 25.107771096779839 ], [ 121.795943152733287, 25.108741828596706 ], [ 121.795895, 25.109722 ], [ 121.795943152733287, 25.110702171403297 ], [ 121.796087147195976, 25.111672903220164 ], [ 121.796325596642689, 25.112624846772547 ], [ 121.796656204674889, 25.113548834323652 ], [ 121.797075787356519, 25.114435967368262 ], [ 121.797580303876984, 25.115277702330197 ], [ 121.798164895466385, 25.116065932841639 ], [ 121.798823932188142, 25.116793067811866 ], [ 121.799551067158376, 25.11745210453363 ], [ 121.800339297669808, 25.118036696123028 ], [ 121.801181032631746, 25.118541212643485 ], [ 121.80206816567636, 25.118960795325115 ], [ 121.802992153227464, 25.119291403357323 ], [ 121.803944096779844, 25.119529852804035 ], [ 121.804914828596708, 25.119673847266725 ], [ 121.805895, 25.119722 ], [ 121.806875171403306, 25.119673847266725 ], [ 121.807845903220169, 25.119529852804035 ], [ 121.808797846772549, 25.119291403357323 ], [ 121.809721834323653, 25.118960795325115 ], [ 121.810608967368267, 25.118541212643485 ], [ 121.811450702330205, 25.118036696123028 ], [ 121.812238932841638, 25.11745210453363 ], [ 121.812966067811871, 25.116793067811866 ], [ 121.813625104533628, 25.116065932841639 ], [ 121.814209696123029, 25.115277702330197 ], [ 121.814714212643494, 25.114435967368262 ], [ 121.815133795325124, 25.113548834323652 ], [ 121.815464403357325, 25.112624846772547 ], [ 121.815702852804037, 25.111672903220164 ], [ 121.815846847266727, 25.110702171403297 ], [ 121.815895, 25.109722 ] ] ] } },
{ "type": "Feature", "properties": { "name": "八里渡船頭商圈", "address": "新北市八里區渡船頭街20號", "district": "八里區" }, "geometry": { "type": "Polygon", "coordinates": [ [ [ 121.444797, 25.158445 ], [ 121.444748847266723, 25.157464828596705 ], [ 121.444604852804034, 25.156494096779838 ], [ 121.444366403357321, 25.155542153227454 ], [ 121.444035795325121, 25.15461816567635 ], [ 121.443616212643491, 25.15373103263174 ], [ 121.443111696123026, 25.152889297669805 ], [ 121.442527104533625, 25.152101067158362 ], [ 121.441868067811868, 25.151373932188136 ], [ 121.441140932841634, 25.150714895466372 ], [ 121.440352702330202, 25.150130303876974 ], [ 121.439510967368264, 25.149625787356516 ], [ 121.43862383432365, 25.149206204674886 ], [ 121.437699846772546, 25.148875596642679 ], [ 121.436747903220166, 25.148637147195966 ], [ 121.435777171403302, 25.148493152733277 ], [ 121.434797, 25.148445 ], [ 121.433816828596704, 25.148493152733277 ], [ 121.432846096779841, 25.148637147195966 ], [ 121.431894153227461, 25.148875596642679 ], [ 121.430970165676356, 25.149206204674886 ], [ 121.430083032631742, 25.149625787356516 ], [ 121.429241297669805, 25.150130303876974 ], [ 121.428453067158372, 25.150714895466372 ], [ 121.427725932188139, 25.151373932188136 ], [ 121.427066895466382, 25.152101067158362 ], [ 121.42648230387698, 25.152889297669805 ], [ 121.425977787356516, 25.15373103263174 ], [ 121.425558204674886, 25.15461816567635 ], [ 121.425227596642685, 25.155542153227454 ], [ 121.424989147195973, 25.156494096779838 ], [ 121.424845152733283, 25.157464828596705 ], [ 121.424797, 25.158445 ], [ 121.424845152733283, 25.159425171403296 ], [ 121.424989147195973, 25.160395903220163 ], [ 121.425227596642685, 25.161347846772546 ], [ 121.425558204674886, 25.162271834323651 ], [ 121.425977787356516, 25.163158967368261 ], [ 121.42648230387698, 25.164000702330195 ], [ 121.427066895466382, 25.164788932841638 ], [ 121.427725932188139, 25.165516067811865 ], [ 121.428453067158372, 25.166175104533629 ], [ 121.429241297669805, 25.166759696123027 ], [ 121.430083032631742, 25.167264212643484 ], [ 121.430970165676356, 25.167683795325114 ], [ 121.431894153227461, 25.168014403357322 ], [ 121.432846096779841, 25.168252852804034 ], [ 121.433816828596704, 25.168396847266724 ], [ 121.434797, 25.168445 ], [ 121.435777171403302, 25.168396847266724 ], [ 121.436747903220166, 25.168252852804034 ], [ 121.437699846772546, 25.168014403357322 ], [ 121.43862383432365, 25.167683795325114 ], [ 121.439510967368264, 25.167264212643484 ], [ 121.440352702330202, 25.166759696123027 ], [ 121.441140932841634, 25.166175104533629 ], [ 121.441868067811868, 25.165516067811865 ], [ 121.442527104533625, 25.164788932841638 ], [ 121.443111696123026, 25.164000702330195 ], [ 121.443616212643491, 25.163158967368261 ], [ 121.444035795325121, 25.162271834323651 ], [ 121.444366403357321, 25.161347846772546 ], [ 121.444604852804034, 25.160395903220163 ], [ 121.444748847266723, 25.159425171403296 ], [ 121.444797, 25.158445 ] ] ] } },
{ "type": "Feature", "properties": { "name": "中和興南商圈", "address": "新北市中和區景新街418巷18弄10號1樓", "district": "中和區" }, "geometry": { "type": "Polygon", "coordinates": [ [ [ 121.521803, 24.988451 ], [ 121.52175484726672, 24.987470828596706 ], [ 121.521610852804031, 24.986500096779839 ], [ 121.521372403357319, 24.985548153227455 ], [ 121.521041795325118, 24.984624165676351 ], [ 121.520622212643488, 24.983737032631741 ], [ 121.520117696123023, 24.982895297669806 ], [ 121.519533104533622, 24.982107067158363 ], [ 121.518874067811865, 24.981379932188137 ], [ 121.518146932841631, 24.980720895466373 ], [ 121.517358702330199, 24.980136303876975 ], [ 121.516516967368261, 24.979631787356517 ], [ 121.515629834323647, 24.979212204674887 ], [ 121.514705846772543, 24.97888159664268 ], [ 121.513753903220163, 24.978643147195967 ], [ 121.512783171403299, 24.978499152733278 ], [ 121.511803, 24.978451 ], [ 121.510822828596702, 24.978499152733278 ], [ 121.509852096779838, 24.978643147195967 ], [ 121.508900153227458, 24.97888159664268 ], [ 121.507976165676354, 24.979212204674887 ], [ 121.50708903263174, 24.979631787356517 ], [ 121.506247297669802, 24.980136303876975 ], [ 121.50545906715837, 24.980720895466373 ], [ 121.504731932188136, 24.981379932188137 ], [ 121.504072895466379, 24.982107067158363 ], [ 121.503488303876978, 24.982895297669806 ], [ 121.502983787356513, 24.983737032631741 ], [ 121.502564204674883, 24.984624165676351 ], [ 121.502233596642682, 24.985548153227455 ], [ 121.50199514719597, 24.986500096779839 ], [ 121.501851152733281, 24.987470828596706 ], [ 121.501803, 24.988451 ], [ 121.501851152733281, 24.989431171403297 ], [ 121.50199514719597, 24.990401903220164 ], [ 121.502233596642682, 24.991353846772547 ], [ 121.502564204674883, 24.992277834323652 ], [ 121.502983787356513, 24.993164967368262 ], [ 121.503488303876978, 24.994006702330196 ], [ 121.504072895466379, 24.994794932841639 ], [ 121.504731932188136, 24.995522067811866 ], [ 121.50545906715837, 24.99618110453363 ], [ 121.506247297669802, 24.996765696123028 ], [ 121.50708903263174, 24.997270212643485 ], [ 121.507976165676354, 24.997689795325115 ], [ 121.508900153227458, 24.998020403357323 ], [ 121.509852096779838, 24.998258852804035 ], [ 121.510822828596702, 24.998402847266725 ], [ 121.511803, 24.998451 ], [ 121.512783171403299, 24.998402847266725 ], [ 121.513753903220163, 24.998258852804035 ], [ 121.514705846772543, 24.998020403357323 ], [ 121.515629834323647, 24.997689795325115 ], [ 121.516516967368261, 24.997270212643485 ], [ 121.517358702330199, 24.996765696123028 ], [ 121.518146932841631, 24.99618110453363 ], [ 121.518874067811865, 24.995522067811866 ], [ 121.519533104533622, 24.994794932841639 ], [ 121.520117696123023, 24.994006702330196 ], [ 121.520622212643488, 24.993164967368262 ], [ 121.521041795325118, 24.992277834323652 ], [ 121.521372403357319, 24.991353846772547 ], [ 121.521610852804031, 24.990401903220164 ], [ 121.52175484726672, 24.989431171403297 ], [ 121.521803, 24.988451 ] ] ] } }
]
}
