{
"type": "FeatureCollection",
"name": "business_districts_tpe",
"crs": { "type": "name", "properties": { "name": "urn:ogc:def:crs:OGC:1.3:CRS84" } },
"features": [
{ "type": "Feature", "properties": { "name": "新北投溫泉商圈", "cord": "25.137218400000000,121.503849900000000;25.138437400000000,121.505008600000000;25.138539400000000,121.504944200000000;25.139816600000000,121.506494500000000;25.140025400000000,121.506558900000000;25.140681000000000,121.506266500000000;25.141307400000000,121.506781500000000;25.141511400000000,121.507607600000000;25.141118000000000,121.508165500000000;25.141079200000000,121.508884400000000;25.141093800000000,121.509302800000000;25.141045200000000,121.510311300000000;25.141200600000000,121.510788700000000;25.141239500000000,121.511555800000000;25.141501700000000,121.512392700000000;25.141492000000000,121.512778900000000;25.141856200000000,121.513969700000000;25.142050400000000,121.514270200000000;25.142128100000000,121.514710100000000;25.141695900000000,121.515643500000000;25.141579400000000,121.515745500000000;25.141215200000000,121.515589900000000;25.140637300000000,121.514876400000000;25.139792300000000,121.514157600000000;25.139515500000000,121.513900100000000;25.138957000000000,121.513975200000000;25.138626800000000,121.513953700000000;25.138320800000000,121.515316300000000;25.138097400000000,121.516614500000000;25.137922600000000,121.517011500000000;25.137553500000000,121.516775400000000;25.136980500000000,121.516174600000000;25.136630800000000,121.516196100000000;25.135980100000000,121.516367700000000;25.135640100000000,121.516153200000000;25.135912100000000,121.514747700000000;25.135834400000000,121.513546000000000;25.135640100000000,121.512462400000000;25.135902400000000,121.511679200000000;25.136048100000000,121.511014000000000;25.135892600000000,121.510134300000000;25.136018900000000,121.509157900000000;25.135659500000000,121.508310400000000;25.135416700000000,121.507537900000000;25.135251600000000,121.506658100000000;25.135305000000000,121.505199000000000;25.135664400000000,121.504115400000000;25.136208300000000,121.503836400000000;25.137218400000000,121.503849900000000", "district": "北投區" }, "geometry": { "type": "Polygon", "coordinates": [ [ [ 121.5038499, 25.1372184 ], [ 121.5050086, 25.1384374 ], [ 121.5049442, 25.1385394 ], [ 121.5064945, 25.1398166 ], [ 121.5065589, 25.1400254 ], [ 121.5062665, 25.140681 ], [ 121.5067815, 25.1413074 ], [ 121.5076076, 25.1415114 ], [ 121.5081655, 25.141118 ], [ 121.5088844, 25.1410792 ], [ 121.5093028, 25.1410938 ], [ 121.5103113, 25.1410452 ], [ 121.5107887, 25.1412006 ], [ 121.5115558, 25.1412395 ], [ 121.5123927, 25.1415017 ], [ 121.5127789, 25.141492 ], [ 121.5139697, 25.1418562 ], [ 121.5142702, 25.1420504 ], [ 121.5147101, 25.1421281 ], [ 121.5156435, 25.1416959 ], [ 121.5157455, 25.1415794 ], [ 121.5155899, 25.1412152 ], [ 121.5148764, 25.1406373 ], [ 121.5141576, 25.1397923 ], [ 121.5139001, 25.1395155 ], [ 121.5139752, 25.138957 ], [ 121.5139537, 25.1386268 ], [ 121.5153163, 25.1383208 ], [ 121.5166145, 25.1380974 ], [ 121.5170115, 25.1379226 ], [ 121.5167754, 25.1375535 ], [ 121.5161746, 25.1369805 ], [ 121.5161961, 25.1366308 ], [ 121.5163677, 25.1359801 ], [ 121.5161532, 25.1356401 ], [ 121.5147477, 25.1359121 ], [ 121.513546, 25.1358344 ], [ 121.5124624, 25.1356401 ], [ 121.5116792, 25.1359024 ], [ 121.511014, 25.1360481 ], [ 121.5101343, 25.1358926 ], [ 121.5091579, 25.1360189 ], [ 121.5083104, 25.1356595 ], [ 121.5075379, 25.1354167 ], [ 121.5066581, 25.1352516 ], [ 121.505199, 25.135305 ], [ 121.5041154, 25.1356644 ], [ 121.5038364, 25.1362083 ], [ 121.5038499, 25.1372184 ] ] ] } },
{ "type": "Feature", "properties": { "name": "行義路溫泉美食商圈", "cord": "25.144648000000000,121.525801000000000;25.144568000000000,121.528661000000000;25.126109000000000,121.529238000000000;25.118723000000000,121.523362000000000;25.120184000000000,121.521546000000000;25.128499000000000,121.527356000000000;25.144097000000000,121.525680000000000", "district": "北投區" }, "geometry": { "type": "Polygon", "coordinates": [ [ [ 121.525801, 25.144648 ], [ 121.528661, 25.144568 ], [ 121.529238, 25.126109 ], [ 121.523362, 25.118723 ], [ 121.521546, 25.120184 ], [ 121.527356, 25.128499 ], [ 121.52568, 25.144097 ], [ 121.525801, 25.144648 ] ] ] } },
{ "type": "Feature", "properties": { "name": "石牌捷運商圈", "cord": "25.112927000000000,121.516956000000000;25.118749000000000,121.519406000000000;25.119049000000000,121.512663000000000;25.118928000000000,121.512172000000000;25.112967000000000,121.516363000000000", "district": "北投區" }, "geometry": { "type": "Polygon", "coordinates": [ [ [ 121.516956, 25.112927 ], [ 121.519406, 25.118749 ], [ 121.512663, 25.119049 ], [ 121.512172, 25.118928 ], [ 121.516363, 25.112967 ], [ 121.516956, 25.112927 ] ] ] } },
{ "type": "Feature", "properties": { "name": "士林捷運站周邊", "cord": "25.097329600000000,121.523984600000000;25.097446100000000,121.524445900000000;25.097436400000000,121.525298800000000;25.097426700000000,121.525942600000000;25.097606500000000,121.526575600000000;25.097732800000000,121.526977900000000;25.097907600000000,121.527702100000000;25.095983900000000,121.528260000000000;25.095060900000000,121.528469200000000;25.093836600000000,121.528404800000000;25.093457700000000,121.528345800000000;25.092738700000000,121.527047600000000;25.092442300000000,121.526489700000000;25.092209200000000,121.526082000000000;25.092908700000000,121.525540200000000;25.093559700000000,121.525089600000000;25.093943500000000,121.524891100000000;25.094633400000000,121.524719500000000;25.095702100000000,121.524424400000000;25.097329600000000,121.523984600000000", "district": "士林區" }, "geometry": { "type": "Polygon", "coordinates": [ [ [ 121.5239846, 25.0973296 ], [ 121.5244459, 25.0974461 ], [ 121.5252988, 25.0974364 ], [ 121.5259426, 25.0974267 ], [ 121.5265756, 25.0976065 ], [ 121.5269779, 25.0977328 ], [ 121.5277021, 25.0979076 ], [ 121.52826, 25.0959839 ], [ 121.5284692, 25.0950609 ], [ 121.5284048, 25.0938366 ], [ 121.5283458, 25.0934577 ], [ 121.5270476, 25.0927387 ], [ 121.5264897, 25.0924423 ], [ 121.526082, 25.0922092 ], [ 121.5255402, 25.0929087 ], [ 121.5250896, 25.0935597 ], [ 121.5248911, 25.0939435 ], [ 121.5247195, 25.0946334 ], [ 121.5244244, 25.0957021 ], [ 121.5239846, 25.0973296 ] ] ] } },
{ "type": "Feature", "properties": { "name": "士林觀光夜市商圈", "cord": "25.089844000000000,121.522691000000000;25.091214000000000,121.524236000000000;25.091748000000000,121.527433000000000;25.088202000000000,121.527368000000000;25.085588000000000,121.525587000000000;25.089455000000000,121.522937000000000", "district": "士林區" }, "geometry": { "type": "Polygon", "coordinates": [ [ [ 121.522691, 25.089844 ], [ 121.524236, 25.091214 ], [ 121.527433, 25.091748 ], [ 121.527368, 25.088202 ], [ 121.525587, 25.085588 ], [ 121.522937, 25.089455 ], [ 121.522691, 25.089844 ] ] ] } },
{ "type": "Feature", "properties": { "name": "天母商圈", "cord": "25.099821900000000,121.524068500000000;25.099666500000000,121.523338900000000;25.100540900000000,121.522459100000000;25.101648500000000,121.521064400000000;25.103377800000000,121.519154700000000;25.103533300000000,121.519004500000000;25.104019100000000,121.519970100000000;25.106583900000000,121.521450600000000;25.108721200000000,121.521450600000000;25.109420700000000,121.522781000000000;25.110625300000000,121.522866800000000;25.111200000000000,121.525255900000000;25.112268600000000,121.525942500000000;25.113065200000000,121.526092700000000;25.114969300000000,121.525255900000000;25.115843600000000,121.525384600000000;25.117397900000000,121.523925500000000;25.118194400000000,121.524054200000000;25.120001300000000,121.524805200000000;25.120108100000000,121.525127100000000;25.120234400000000,121.525609900000000;25.120613300000000,121.525974700000000;25.120943500000000,121.525921000000000;25.121293200000000,121.525631400000000;25.122760000000000,121.526049800000000;25.123517700000000,121.526693500000000;25.123673100000000,121.527680600000000;25.123682900000000,121.528721300000000;25.124243200000000,121.529790900000000;25.124932800000000,121.529978700000000;25.125661400000000,121.529946500000000;25.125758500000000,121.531008600000000;25.125394200000000,121.531877700000000;25.124903700000000,121.532655500000000;25.124498800000000,121.533111700000000;25.124251100000000,121.533261900000000;25.123386500000000,121.533331600000000;25.122896000000000,121.533176000000000;25.122604600000000,121.533165300000000;25.122089700000000,121.533347700000000;25.120899800000000,121.532843400000000;25.120190700000000,121.533165300000000;25.119743800000000,121.533562300000000;25.119229000000000,121.534206000000000;25.118286700000000,121.534667300000000;25.118345000000000,121.538261500000000;25.118306100000000,121.539184200000000;25.114060900000000,121.539388000000000;25.110816200000000,121.540053200000000;25.109728200000000,121.534324000000000;25.109469500000000,121.534044100000000;25.108867200000000,121.533700800000000;25.107137900000000,121.533207300000000;25.106283000000000,121.533035600000000;25.104825700000000,121.533250200000000;25.104106800000000,121.533250200000000;25.103096400000000,121.533722300000000;25.101464200000000,121.533615000000000;25.101056100000000,121.533700800000000;25.100939500000000,121.532306100000000;25.100065100000000,121.529859900000000;25.100648100000000,121.527542500000000;25.100589800000000,121.525868800000000;25.099821900000000,121.524068500000000", "district": "士林區" }, "geometry": { "type": "Polygon", "coordinates": [ [ [ 121.5240685, 25.0998219 ], [ 121.5233389, 25.0996665 ], [ 121.5224591, 25.1005409 ], [ 121.5210644, 25.1016485 ], [ 121.5191547, 25.1033778 ], [ 121.5190045, 25.1035333 ], [ 121.5199701, 25.1040191 ], [ 121.5214506, 25.1065839 ], [ 121.5214506, 25.1087212 ], [ 121.522781, 25.1094207 ], [ 121.5228668, 25.1106253 ], [ 121.5252559, 25.1112 ], [ 121.5259425, 25.1122686 ], [ 121.5260927, 25.1130652 ], [ 121.5252559, 25.1149693 ], [ 121.5253846, 25.1158436 ], [ 121.5239255, 25.1173979 ], [ 121.5240542, 25.1181944 ], [ 121.5248052, 25.1200013 ], [ 121.5251271, 25.1201081 ], [ 121.5256099, 25.1202344 ], [ 121.5259747, 25.1206133 ], [ 121.525921, 25.1209435 ], [ 121.5256314, 25.1212932 ], [ 121.5260498, 25.12276 ], [ 121.5266935, 25.1235177 ], [ 121.5276806, 25.1236731 ], [ 121.5287213, 25.1236829 ], [ 121.5297909, 25.1242432 ], [ 121.5299787, 25.1249328 ], [ 121.5299465, 25.1256614 ], [ 121.5310086, 25.1257585 ], [ 121.5318777, 25.1253942 ], [ 121.5326555, 25.1249037 ], [ 121.5331117, 25.1244988 ], [ 121.5332619, 25.1242511 ], [ 121.5333316, 25.1233865 ], [ 121.533176, 25.122896 ], [ 121.5331653, 25.1226046 ], [ 121.5333477, 25.1220897 ], [ 121.5328434, 25.1208998 ], [ 121.5331653, 25.1201907 ], [ 121.5335623, 25.1197438 ], [ 121.534206, 25.119229 ], [ 121.5346673, 25.1182867 ], [ 121.5382615, 25.118345 ], [ 121.5391842, 25.1183061 ], [ 121.539388, 25.1140609 ], [ 121.5400532, 25.1108162 ], [ 121.534324, 25.1097282 ], [ 121.5340441, 25.1094695 ], [ 121.5337008, 25.1088672 ], [ 121.5332073, 25.1071379 ], [ 121.5330356, 25.106283 ], [ 121.5332502, 25.1048257 ], [ 121.5332502, 25.1041068 ], [ 121.5337223, 25.1030964 ], [ 121.533615, 25.1014642 ], [ 121.5337008, 25.1010561 ], [ 121.5323061, 25.1009395 ], [ 121.5298599, 25.1000651 ], [ 121.5275425, 25.1006481 ], [ 121.5258688, 25.1005898 ], [ 121.5240685, 25.0998219 ] ] ] } },
{ "type": "Feature", "properties": { "name": "承德路中古汽車商圈", "cord": "25.120603000000000,121.499882000000000;25.110940000000000,121.510322000000000;25.098992000000000,121.512337000000000;25.091321000000000,121.515597000000000;25.088796000000000,121.521173000000000;25.085014000000000,121.522952000000000;25.078958000000000,121.521076000000000;25.078548000000000,121.521784000000000;25.083835000000000,121.523870000000000;25.086181000000000,121.523457000000000;25.089620000000000,121.520732000000000;25.091574000000000,121.516398000000000;25.097549000000000,121.513834000000000;25.099667000000000,121.513008000000000;25.110723000000000,121.511731000000000;25.121253000000000,121.500112000000000", "district": "士林區" }, "geometry": { "type": "Polygon", "coordinates": [ [ [ 121.499882, 25.120603 ], [ 121.510322, 25.11094 ], [ 121.512337, 25.098992 ], [ 121.515597, 25.091321 ], [ 121.521173, 25.088796 ], [ 121.522952, 25.085014 ], [ 121.521076, 25.078958 ], [ 121.521784, 25.078548 ], [ 121.52387, 25.083835 ], [ 121.523457, 25.086181 ], [ 121.520732, 25.08962 ], [ 121.516398, 25.091574 ], [ 121.513834, 25.097549 ], [ 121.513008, 25.099667 ], [ 121.511731, 25.110723 ], [ 121.500112, 25.121253 ], [ 121.499882, 25.120603 ] ] ] } },
{ "type": "Feature", "properties": { "name": "朝陽服飾材料商圈", "cord": "25.055465900000000,121.511697800000000;25.053913300000000,121.511799700000000;25.054056600000000,121.513964200000000;25.054095500000000,121.514245900000000;25.054158700000000,121.514291500000000;25.055937300000000,121.513862300000000;25.055645700000000,121.512545300000000;25.055592300000000,121.512566800000000;25.055465900000000,121.511697800000000", "district": "大同區" }, "geometry": { "type": "Polygon", "coordinates": [ [ [ 121.5116978, 25.0554659 ], [ 121.5117997, 25.0539133 ], [ 121.5139642, 25.0540566 ], [ 121.5142459, 25.0540955 ], [ 121.5142915, 25.0541587 ], [ 121.5138623, 25.0559373 ], [ 121.5125453, 25.0556457 ], [ 121.5125668, 25.0555923 ], [ 121.5116978, 25.0554659 ] ] ] } },
{ "type": "Feature", "properties": { "name": "迪化街商圈", "cord": "25.053707500000000,121.507585000000000;25.053386700000000,121.508722200000000;25.053260400000000,121.510331500000000;25.053785200000000,121.510267200000000;25.053901800000000,121.511779900000000;25.060520500000000,121.511383000000000;25.062765600000000,121.511275700000000;25.063202900000000,121.508840200000000;25.061997800000000,121.508593500000000;25.060744100000000,121.508464700000000;25.059422300000000,121.508486200000000;25.057634000000000,121.508454000000000;25.053707500000000,121.507499100000000", "district": "大同區" }, "geometry": { "type": "Polygon", "coordinates": [ [ [ 121.507585, 25.0537075 ], [ 121.5087222, 25.0533867 ], [ 121.5103315, 25.0532604 ], [ 121.5102672, 25.0537852 ], [ 121.5117799, 25.0539018 ], [ 121.511383, 25.0605205 ], [ 121.5112757, 25.0627656 ], [ 121.5088402, 25.0632029 ], [ 121.5085935, 25.0619978 ], [ 121.5084647, 25.0607441 ], [ 121.5084862, 25.0594223 ], [ 121.508454, 25.057634 ], [ 121.5074991, 25.0537075 ], [ 121.507585, 25.0537075 ] ] ] } },
{ "type": "Feature", "properties": { "name": "後站商圈", "cord": "25.051671400000000,121.513882000000000;25.049523400000000,121.513431400000000;25.049270700000000,121.514590100000000;25.048911100000000,121.516456900000000;25.050942500000000,121.516982600000000;25.051671400000000,121.513882000000000", "district": "大同區" }, "geometry": { "type": "Polygon", "coordinates": [ [ [ 121.513882, 25.0516714 ], [ 121.5134314, 25.0495234 ], [ 121.5145901, 25.0492707 ], [ 121.5164569, 25.0489111 ], [ 121.5169826, 25.0509425 ], [ 121.513882, 25.0516714 ] ] ] } },
{ "type": "Feature", "properties": { "name": "華陰街商圈", "cord": "25.050711000000000,121.513729100000000;25.050545800000000,121.513691600000000;25.049875100000000,121.516666100000000;25.050062200000000,121.516711700000000;25.050711000000000,121.513729100000000", "district": "大同區" }, "geometry": { "type": "Polygon", "coordinates": [ [ [ 121.5137291, 25.050711 ], [ 121.5136916, 25.0505458 ], [ 121.5166661, 25.0498751 ], [ 121.5167117, 25.0500622 ], [ 121.5137291, 25.050711 ] ] ] } },
{ "type": "Feature", "properties": { "name": "大龍峒商圈", "cord": "25.072995000000000,121.513903700000000;25.071950300000000,121.513893000000000;25.071867700000000,121.516269400000000;25.071663600000000,121.516602000000000;25.070643200000000,121.518345400000000;25.071479000000000,121.518425900000000;25.071882300000000,121.518522400000000;25.072436200000000,121.518753100000000;25.073063000000000,121.519085700000000;25.073451700000000,121.519327100000000;25.073762700000000,121.518565400000000;25.073806400000000,121.517294000000000;25.073437100000000,121.517310100000000;25.073417700000000,121.516376700000000;25.073155300000000,121.516097700000000;25.073106700000000,121.515781200000000;25.073067800000000,121.514949700000000;25.072995000000000,121.513903700000000", "district": "大同區" }, "geometry": { "type": "Polygon", "coordinates": [ [ [ 121.5139037, 25.072995 ], [ 121.513893, 25.0719503 ], [ 121.5162694, 25.0718677 ], [ 121.516602, 25.0716636 ], [ 121.5183454, 25.0706432 ], [ 121.5184259, 25.071479 ], [ 121.5185224, 25.0718823 ], [ 121.5187531, 25.0724362 ], [ 121.5190857, 25.073063 ], [ 121.5193271, 25.0734517 ], [ 121.5185654, 25.0737627 ], [ 121.517294, 25.0738064 ], [ 121.5173101, 25.0734371 ], [ 121.5163767, 25.0734177 ], [ 121.5160977, 25.0731553 ], [ 121.5157812, 25.0731067 ], [ 121.5149497, 25.0730678 ], [ 121.5139037, 25.072995 ] ] ] } },
{ "type": "Feature", "properties": { "name": "臺北大橋頭延三商圈", "cord": "25.063538000000000,121.508887000000000;25.063115000000000,121.511207000000000;25.068635000000000,121.510853000000000;25.068691000000000,121.509914000000000;25.068713000000000,121.509182000000000;25.067146000000000,121.508994000000000", "district": "大同區" }, "geometry": { "type": "Polygon", "coordinates": [ [ [ 121.508887, 25.063538 ], [ 121.511207, 25.063115 ], [ 121.510853, 25.068635 ], [ 121.509914, 25.068691 ], [ 121.509182, 25.068713 ], [ 121.508994, 25.067146 ], [ 121.508887, 25.063538 ] ] ] } },
{ "type": "Feature", "properties": { "name": "寧夏夜市商圈", "cord": "25.057052000000000,121.513918000000000;25.057367000000000,121.518103000000000;25.054807000000000,121.518109000000000;25.053371000000000,121.517644000000000;25.053958000000000,121.515070000000000;25.054235000000000,121.514763000000000", "district": "大同區" }, "geometry": { "type": "Polygon", "coordinates": [ [ [ 121.513918, 25.057052 ], [ 121.518103, 25.057367 ], [ 121.518109, 25.054807 ], [ 121.517644, 25.053371 ], [ 121.51507, 25.053958 ], [ 121.514763, 25.054235 ], [ 121.513918, 25.057052 ] ] ] } },
{ "type": "Feature", "properties": { "name": "圓山商圈", "cord": "25.071927000000000,121.518556100000000;25.068525700000000,121.518464900000000;25.068350700000000,121.522842200000000;25.071722900000000,121.523695200000000;25.071961000000000,121.520551600000000;25.071888100000000,121.520476500000000;25.071897800000000,121.520020600000000;25.071927000000000,121.518556100000000", "district": "大同區" }, "geometry": { "type": "Polygon", "coordinates": [ [ [ 121.5185561, 25.071927 ], [ 121.5184649, 25.0685257 ], [ 121.5228422, 25.0683507 ], [ 121.5236952, 25.0717229 ], [ 121.5205516, 25.071961 ], [ 121.5204765, 25.0718881 ], [ 121.5200206, 25.0718978 ], [ 121.5185561, 25.071927 ] ] ] } },
{ "type": "Feature", "properties": { "name": "愛國東路婚紗商圈", "cord": "25.034916700000000,121.516850600000000;25.034566800000000,121.517108100000000;25.033001700000000,121.520562800000000;25.033453700000000,121.520809600000000;25.035077100000000,121.517016900000000;25.034916700000000,121.516850600000000", "district": "中正區" }, "geometry": { "type": "Polygon", "coordinates": [ [ [ 121.5168506, 25.0349167 ], [ 121.5171081, 25.0345668 ], [ 121.5205628, 25.0330017 ], [ 121.5208096, 25.0334537 ], [ 121.5170169, 25.0350771 ], [ 121.5168506, 25.0349167 ] ] ] } },
{ "type": "Feature", "properties": { "name": "沅陵街商圈", "cord": "25.042879000000000,121.511515000000000;25.042857000000000,121.513176000000000;25.042727000000000,121.513168000000000;25.042748000000000,121.512246000000000;25.042756000000000,121.511527000000000", "district": "中正區" }, "geometry": { "type": "Polygon", "coordinates": [ [ [ 121.511515, 25.042879 ], [ 121.513176, 25.042857 ], [ 121.513168, 25.042727 ], [ 121.512246, 25.042748 ], [ 121.511527, 25.042756 ], [ 121.511515, 25.042879 ] ] ] } },
{ "type": "Feature", "properties": { "name": "中華路影音商圈", "cord": "25.046984600000000,121.509903600000000;25.046347900000000,121.509595200000000;25.046197200000000,121.509608600000000;25.045655400000000,121.509485200000000;25.045069700000000,121.509318900000000;25.045067300000000,121.511400300000000;25.045990700000000,121.511335900000000;25.045976100000000,121.510702900000000;25.047028300000000,121.511008700000000;25.046948100000000,121.510040400000000;25.046984600000000,121.509903600000000", "district": "中正區" }, "geometry": { "type": "Polygon", "coordinates": [ [ [ 121.5099036, 25.0469846 ], [ 121.5095952, 25.0463479 ], [ 121.5096086, 25.0461972 ], [ 121.5094852, 25.0456554 ], [ 121.5093189, 25.0450697 ], [ 121.5114003, 25.0450673 ], [ 121.5113359, 25.0459907 ], [ 121.5107029, 25.0459761 ], [ 121.5110087, 25.0470283 ], [ 121.5100404, 25.0469481 ], [ 121.5099036, 25.0469846 ] ] ] } },
{ "type": "Feature", "properties": { "name": "北門相機商圈", "cord": "25.047691000000000,121.511099000000000;25.045064000000000,121.511223000000000;25.045053000000000,121.514974000000000;25.046755000000000,121.515000000000000;25.047275000000000,121.512984000000000", "district": "中正區" }, "geometry": { "type": "Polygon", "coordinates": [ [ [ 121.511099, 25.047691 ], [ 121.511223, 25.045064 ], [ 121.514974, 25.045053 ], [ 121.515, 25.046755 ], [ 121.512984, 25.047275 ], [ 121.511099, 25.047691 ] ] ] } },
{ "type": "Feature", "properties": { "name": "重慶南路書店商圈", "cord": "25.047230200000000,121.513038600000000;25.042486800000000,121.512963500000000;25.040824600000000,121.512738200000000;25.040766300000000,121.513253200000000;25.042399300000000,121.513446300000000;25.047113500000000,121.513521400000000;25.047230200000000,121.513038600000000", "district": "中正區" }, "geometry": { "type": "Polygon", "coordinates": [ [ [ 121.5130386, 25.0472302 ], [ 121.5129635, 25.0424868 ], [ 121.5127382, 25.0408246 ], [ 121.5132532, 25.0407663 ], [ 121.5134463, 25.0423993 ], [ 121.5135214, 25.0471135 ], [ 121.5130386, 25.0472302 ] ] ] } },
{ "type": "Feature", "properties": { "name": "南昌家具商圈", "cord": "25.029006700000000,121.518981800000000;25.028865700000000,121.518729700000000;25.027840100000000,121.519577300000000;25.026780500000000,121.520875500000000;25.026902000000000,121.521175900000000;25.027383200000000,121.520725300000000;25.027888700000000,121.520612600000000;25.028656700000000,121.519791900000000;25.028438000000000,121.519421700000000;25.029006700000000,121.518981800000000", "district": "中正區" }, "geometry": { "type": "Polygon", "coordinates": [ [ [ 121.5189818, 25.0290067 ], [ 121.5187297, 25.0288657 ], [ 121.5195773, 25.0278401 ], [ 121.5208755, 25.0267805 ], [ 121.5211759, 25.026902 ], [ 121.5207253, 25.0273832 ], [ 121.5206126, 25.0278887 ], [ 121.5197919, 25.0286567 ], [ 121.5194217, 25.028438 ], [ 121.5189818, 25.0290067 ] ] ] } },
{ "type": "Feature", "properties": { "name": "大光華商圈", "cord": "25.045974700000000,121.530772900000000;25.043141300000000,121.529834100000000;25.042319900000000,121.532891900000000;25.045372100000000,121.533009900000000;25.045974700000000,121.530772900000000", "district": "中正區" }, "geometry": { "type": "Polygon", "coordinates": [ [ [ 121.5307729, 25.0459747 ], [ 121.5298341, 25.0431413 ], [ 121.5328919, 25.0423199 ], [ 121.5330099, 25.0453721 ], [ 121.5307729, 25.0459747 ] ] ] } },
{ "type": "Feature", "properties": { "name": "臺大公館商圈", "cord": "25.011381400000000,121.535588600000000;25.010866100000000,121.535867600000000;25.010982800000000,121.536768800000000;25.011595300000000,121.537573500000000;25.011770300000000,121.537594900000000;25.013277400000000,121.536565000000000;25.014035700000000,121.535899800000000;25.014978800000000,121.534762500000000;25.016301000000000,121.533346300000000;25.016680200000000,121.533786200000000;25.016913500000000,121.534097300000000;25.022114900000000,121.534869800000000;25.022406500000000,121.534912700000000;25.022406500000000,121.533893500000000;25.022338500000000,121.532949400000000;25.022153700000000,121.532455800000000;25.021852400000000,121.531737000000000;25.021142700000000,121.530814300000000;25.019178800000000,121.528657800000000;25.018245500000000,121.527584900000000;25.017973300000000,121.527348900000000;25.017146900000000,121.528454000000000;25.014531600000000,121.532209100000000;25.013744000000000,121.533400000000000;25.013121800000000,121.534462100000000;25.011381400000000,121.535588600000000", "district": "中正區" }, "geometry": { "type": "Polygon", "coordinates": [ [ [ 121.5355886, 25.0113814 ], [ 121.5358676, 25.0108661 ], [ 121.5367688, 25.0109828 ], [ 121.5375735, 25.0115953 ], [ 121.5375949, 25.0117703 ], [ 121.536565, 25.0132774 ], [ 121.5358998, 25.0140357 ], [ 121.5347625, 25.0149788 ], [ 121.5333463, 25.016301 ], [ 121.5337862, 25.0166802 ], [ 121.5340973, 25.0169135 ], [ 121.5348698, 25.0221149 ], [ 121.5349127, 25.0224065 ], [ 121.5338935, 25.0224065 ], [ 121.5329494, 25.0223385 ], [ 121.5324558, 25.0221537 ], [ 121.531737, 25.0218524 ], [ 121.5308143, 25.0211427 ], [ 121.5286578, 25.0191788 ], [ 121.5275849, 25.0182455 ], [ 121.5273489, 25.0179733 ], [ 121.528454, 25.0171469 ], [ 121.5322091, 25.0145316 ], [ 121.5334, 25.013744 ], [ 121.5344621, 25.0131218 ], [ 121.5355886, 25.0113814 ] ] ] } },
{ "type": "Feature", "properties": { "name": "萬華街區商圈", "cord": "25.035222400000000,121.503236400000000;25.035420700000000,121.494495200000000;25.038572900000000,121.497238700000000;25.040117800000000,121.497895700000000;25.040669500000000,121.498438900000000;25.041452000000000,121.499511800000000;25.040499400000000,121.501695100000000;25.040373000000000,121.504259300000000;25.040659800000000,121.506029600000000;25.040495400000000,121.507538400000000;25.035857800000000,121.506341700000000;25.035297900000000,121.506107800000000;25.034738100000000,121.505702300000000;25.033968400000000,121.504655300000000;25.035222400000000,121.503236400000000", "district": "萬華區" }, "geometry": { "type": "Polygon", "coordinates": [ [ [ 121.5032364, 25.0352224 ], [ 121.4944952, 25.0354207 ], [ 121.4972387, 25.0385729 ], [ 121.4978957, 25.0401178 ], [ 121.4984389, 25.0406695 ], [ 121.4995118, 25.041452 ], [ 121.5016951, 25.0404994 ], [ 121.5042593, 25.040373 ], [ 121.5060296, 25.0406598 ], [ 121.5075384, 25.0404954 ], [ 121.5063417, 25.0358578 ], [ 121.5061078, 25.0352979 ], [ 121.5057023, 25.0347381 ], [ 121.5046553, 25.0339684 ], [ 121.5032364, 25.0352224 ] ] ] } },
{ "type": "Feature", "properties": { "name": "艋舺商圈", "cord": "25.035246500000000,121.499350200000000;25.033180800000000,121.498062700000000;25.033088400000000,121.498899600000000;25.032986300000000,121.499570100000000;25.033020400000000,121.500530400000000;25.033428600000000,121.500659100000000;25.033754300000000,121.500900500000000;25.034235500000000,121.501061400000000;25.035149200000000,121.501227700000000;25.035246500000000,121.499350200000000", "district": "萬華區" }, "geometry": { "type": "Polygon", "coordinates": [ [ [ 121.4993502, 25.0352465 ], [ 121.4980627, 25.0331808 ], [ 121.4988996, 25.0330884 ], [ 121.4995701, 25.0329863 ], [ 121.5005304, 25.0330204 ], [ 121.5006591, 25.0334286 ], [ 121.5009005, 25.0337543 ], [ 121.5010614, 25.0342355 ], [ 121.5012277, 25.0351492 ], [ 121.4993502, 25.0352465 ] ] ] } },
{ "type": "Feature", "properties": { "name": "艋舺夜市商圈", "cord": "25.038482000000000,121.497647000000000;25.038456000000000,121.500581000000000;25.036654000000000,121.500570000000000;25.036722000000000,121.497610000000000;25.036722000000000,121.497610000000000", "district": "萬華區" }, "geometry": { "type": "Polygon", "coordinates": [ [ [ 121.497647, 25.038482 ], [ 121.500581, 25.038456 ], [ 121.50057, 25.036654 ], [ 121.49761, 25.036722 ], [ 121.49761, 25.036722 ], [ 121.497647, 25.038482 ] ] ] } },
{ "type": "Feature", "properties": { "name": "西門町商圈", "cord": "25.046252000000000,121.503240000000000;25.043575000000000,121.502409000000000;25.042097000000000,121.508068000000000;25.045178000000000,121.509018000000000;25.045368000000000,121.509002000000000;25.046602000000000,121.503696000000000", "district": "萬華區" }, "geometry": { "type": "Polygon", "coordinates": [ [ [ 121.50324, 25.046252 ], [ 121.502409, 25.043575 ], [ 121.508068, 25.042097 ], [ 121.509018, 25.045178 ], [ 121.509002, 25.045368 ], [ 121.503696, 25.046602 ], [ 121.50324, 25.046252 ] ] ] } },
{ "type": "Feature", "properties": { "name": "晴光商圈", "cord": "25.062916000000000,121.522651000000000;25.062862000000000,121.525650000000000;25.065035000000000,121.525670000000000;25.065183000000000,121.522379000000000;25.064220000000000,121.522442000000000", "district": "中山區" }, "geometry": { "type": "Polygon", "coordinates": [ [ [ 121.522651, 25.062916 ], [ 121.52565, 25.062862 ], [ 121.52567, 25.065035 ], [ 121.522379, 25.065183 ], [ 121.522442, 25.06422 ], [ 121.522651, 25.062916 ] ] ] } },
{ "type": "Feature", "properties": { "name": "四平陽光商圈", "cord": "25.052112000000000,121.534856000000000;25.054770000000000,121.534890000000000;25.054819000000000,121.533178000000000;25.053624000000000,121.533151000000000;25.052110000000000,121.533088000000000", "district": "中山區" }, "geometry": { "type": "Polygon", "coordinates": [ [ [ 121.534856, 25.052112 ], [ 121.53489, 25.05477 ], [ 121.533178, 25.054819 ], [ 121.533151, 25.053624 ], [ 121.533088, 25.05211 ], [ 121.534856, 25.052112 ] ] ] } },
{ "type": "Feature", "properties": { "name": "中山北路婚紗商圈", "cord": "25.068443100000000,121.522526500000000;25.066655000000000,121.522118800000000;25.065974700000000,121.522054500000000;25.064662700000000,121.521979400000000;25.063963000000000,121.522054500000000;25.063107700000000,121.522344100000000;25.061824900000000,121.522569400000000;25.060726600000000,121.522687500000000;25.057888700000000,121.522548000000000;25.057830400000000,121.523223900000000;25.058695400000000,121.523266800000000;25.060648900000000,121.523341900000000;25.061640200000000,121.523213200000000;25.062709300000000,121.523041500000000;25.063778300000000,121.522773300000000;25.064361400000000,121.522644500000000;25.065226400000000,121.522580200000000;25.067014600000000,121.522784000000000;25.068414000000000,121.523138100000000;25.068443100000000,121.522526500000000", "district": "中山區" }, "geometry": { "type": "Polygon", "coordinates": [ [ [ 121.5225265, 25.0684431 ], [ 121.5221188, 25.066655 ], [ 121.5220545, 25.0659747 ], [ 121.5219794, 25.0646627 ], [ 121.5220545, 25.063963 ], [ 121.5223441, 25.0631077 ], [ 121.5225694, 25.0618249 ], [ 121.5226875, 25.0607266 ], [ 121.522548, 25.0578887 ], [ 121.5232239, 25.0578304 ], [ 121.5232668, 25.0586954 ], [ 121.5233419, 25.0606489 ], [ 121.5232132, 25.0616402 ], [ 121.5230415, 25.0627093 ], [ 121.5227733, 25.0637783 ], [ 121.5226445, 25.0643614 ], [ 121.5225802, 25.0652264 ], [ 121.522784, 25.0670146 ], [ 121.5231381, 25.068414 ], [ 121.5225265, 25.0684431 ] ] ] } },
{ "type": "Feature", "properties": { "name": "中山商圈", "cord": "25.068526300000000,121.522211600000000;25.052315300000000,121.522383300000000;25.052159800000000,121.527876500000000;25.068468000000000,121.528091100000000;25.068526300000000,121.522211600000000", "district": "中山區" }, "geometry": { "type": "Polygon", "coordinates": [ [ [ 121.5222116, 25.0685263 ], [ 121.5223833, 25.0523153 ], [ 121.5278765, 25.0521598 ], [ 121.5280911, 25.068468 ], [ 121.5222116, 25.0685263 ] ] ] } },
{ "type": "Feature", "properties": { "name": "條通商圈", "cord": "25.052126000000000,121.522513000000000;25.052022000000000,121.527547000000000;25.049526000000000,121.528459000000000;25.048185000000000,121.529460000000000;25.048324000000000,121.528153000000000;25.049855000000000,121.521741000000000;25.051884000000000,121.522583000000000", "district": "中山區" }, "geometry": { "type": "Polygon", "coordinates": [ [ [ 121.522513, 25.052126 ], [ 121.527547, 25.052022 ], [ 121.528459, 25.049526 ], [ 121.52946, 25.048185 ], [ 121.528153, 25.048324 ], [ 121.521741, 25.049855 ], [ 121.522583, 25.051884 ], [ 121.522513, 25.052126 ] ] ] } },
{ "type": "Feature", "properties": { "name": "南西心中山", "cord": "25.057310870807573,121.518248249646590;25.057935001632487,121.522777626330440;25.052144332432185,121.522535209002870;25.049867287757202,121.521514504382600;25.050919125835200,121.517112715717540;25.054895223406090,121.518235490796400", "district": "中山區" }, "geometry": { "type": "Polygon", "coordinates": [ [ [ 121.518248249646589, 25.057310870807573 ], [ 121.522777626330438, 25.057935001632487 ], [ 121.522535209002868, 25.052144332432185 ], [ 121.521514504382594, 25.049867287757202 ], [ 121.517112715717545, 25.0509191258352 ], [ 121.5182354907964, 25.054895223406088 ], [ 121.518248249646589, 25.057310870807573 ] ] ] } },
{ "type": "Feature", "properties": { "name": "吉林路美食", "cord": "25.062556000000000,121.529498000000000;25.062503000000000,121.530855000000000;25.058975000000000,121.530817000000000;25.054694000000000,121.530608000000000;25.052113000000000,121.530678000000000;25.052128000000000,121.529685000000000;25.056866000000000,121.529648000000000;25.062415000000000,121.529669000000000", "district": "中山區" }, "geometry": { "type": "Polygon", "coordinates": [ [ [ 121.529498, 25.062556 ], [ 121.530855, 25.062503 ], [ 121.530817, 25.058975 ], [ 121.530608, 25.054694 ], [ 121.530678, 25.052113 ], [ 121.529685, 25.052128 ], [ 121.529648, 25.056866 ], [ 121.529669, 25.062415 ], [ 121.529498, 25.062556 ] ] ] } },
{ "type": "Feature", "properties": { "name": "中山國中捷運站周邊", "cord": "25.057897000000000,121.540504000000000;25.057862000000000,121.544105000000000;25.062112000000000,121.544134000000000;25.062283000000000,121.543653000000000;25.062283000000000,121.540782000000000;25.059700000000000,121.540721000000000", "district": "中山區" }, "geometry": { "type": "Polygon", "coordinates": [ [ [ 121.540504, 25.057897 ], [ 121.544105, 25.057862 ], [ 121.544134, 25.062112 ], [ 121.543653, 25.062283 ], [ 121.540782, 25.062283 ], [ 121.540721, 25.0597 ], [ 121.540504, 25.057897 ] ] ] } },
{ "type": "Feature", "properties": { "name": "民族濱江汽車", "cord": "25.068040000000000,121.533523000000000;25.067797000000000,121.541779000000000;25.066252000000000,121.544037000000000;25.067273000000000,121.544107000000000;25.068424000000000,121.541880000000000;25.068565000000000,121.533673000000000", "district": "中山區" }, "geometry": { "type": "Polygon", "coordinates": [ [ [ 121.533523, 25.06804 ], [ 121.541779, 25.067797 ], [ 121.544037, 25.066252 ], [ 121.544107, 25.067273 ], [ 121.54188, 25.068424 ], [ 121.533673, 25.068565 ], [ 121.533523, 25.06804 ] ] ] } },
{ "type": "Feature", "properties": { "name": "大直商圈", "cord": "25.084809000000000,121.549527000000000;25.080348000000000,121.548101000000000;25.079923000000000,121.548661000000000;25.080054000000000,121.562987000000000;25.084442000000000,121.560687000000000;25.084956000000000,121.558973000000000;25.084393000000000,121.557105000000000;25.085953000000000,121.551836000000000", "district": "中山區" }, "geometry": { "type": "Polygon", "coordinates": [ [ [ 121.549527, 25.084809 ], [ 121.548101, 25.080348 ], [ 121.548661, 25.079923 ], [ 121.562987, 25.080054 ], [ 121.560687, 25.084442 ], [ 121.558973, 25.084956 ], [ 121.557105, 25.084393 ], [ 121.551836, 25.085953 ], [ 121.549527, 25.084809 ] ] ] } },
{ "type": "Feature", "properties": { "name": "東湖哈拉影城周邊", "cord": "25.067731000000000,121.611861000000000;25.067023000000000,121.615938000000000;25.069837000000000,121.617239000000000;25.071218000000000,121.613530000000000;25.070013000000000,121.611756000000000;25.069329000000000,121.612088000000000;25.068436000000000,121.612101000000000", "district": "內湖區" }, "geometry": { "type": "Polygon", "coordinates": [ [ [ 121.611861, 25.067731 ], [ 121.615938, 25.067023 ], [ 121.617239, 25.069837 ], [ 121.61353, 25.071218 ], [ 121.611756, 25.070013 ], [ 121.612088, 25.069329 ], [ 121.612101, 25.068436 ], [ 121.611861, 25.067731 ] ] ] } },
{ "type": "Feature", "properties": { "name": "內湖量販店區", "cord": "25.060590000000000,121.583017000000000;25.055821000000000,121.574505000000000;25.056975000000000,121.573777000000000;25.064837000000000,121.572472000000000;25.066734000000000,121.578784000000000;25.063738000000000,121.580847000000000", "district": "內湖區" }, "geometry": { "type": "Polygon", "coordinates": [ [ [ 121.583017, 25.06059 ], [ 121.574505, 25.055821 ], [ 121.573777, 25.056975 ], [ 121.572472, 25.064837 ], [ 121.578784, 25.066734 ], [ 121.580847, 25.063738 ], [ 121.583017, 25.06059 ] ] ] } },
{ "type": "Feature", "properties": { "name": "內湖737商圈", "cord": "25.079510800000000,121.576947700000000;25.078621600000000,121.579120200000000;25.078837900000000,121.579766700000000;25.079335900000000,121.579554800000000;25.079588500000000,121.579715700000000;25.080261400000000,121.579707600000000;25.080361100000000,121.579699600000000;25.080519000000000,121.578953900000000;25.080769200000000,121.577958800000000;25.079510800000000,121.576947700000000", "district": "內湖區" }, "geometry": { "type": "Polygon", "coordinates": [ [ [ 121.5769477, 25.0795108 ], [ 121.5791202, 25.0786216 ], [ 121.5797667, 25.0788379 ], [ 121.5795548, 25.0793359 ], [ 121.5797157, 25.0795885 ], [ 121.5797076, 25.0802614 ], [ 121.5796996, 25.0803611 ], [ 121.5789539, 25.080519 ], [ 121.5779588, 25.0807692 ], [ 121.5769477, 25.0795108 ] ] ] } },
{ "type": "Feature", "properties": { "name": "西湖商圈", "cord": "25.084985400000000,121.559447000000000;25.084519000000000,121.559704500000000;25.084285800000000,121.560455500000000;25.080496100000000,121.562150600000000;25.079174500000000,121.563330800000000;25.078474900000000,121.564103300000000;25.077367100000000,121.567665300000000;25.076881200000000,121.569253100000000;25.076337000000000,121.570733700000000;25.074743300000000,121.571763700000000;25.074199100000000,121.572192800000000;25.074723900000000,121.573544700000000;25.075287500000000,121.574596100000000;25.078183400000000,121.576420000000000;25.080476600000000,121.577986400000000;25.081428900000000,121.578522800000000;25.083897100000000,121.578479900000000;25.084266300000000,121.578158100000000;25.084072000000000,121.577621600000000;25.085646100000000,121.573694900000000;25.086637200000000,121.570991200000000;25.086656700000000,121.568073000000000;25.086617800000000,121.565583900000000;25.086753800000000,121.563760000000000;25.086909300000000,121.562579800000000;25.086617800000000,121.561270900000000;25.086015400000000,121.560240900000000;25.084985400000000,121.559447000000000", "district": "內湖區" }, "geometry": { "type": "Polygon", "coordinates": [ [ [ 121.559447, 25.0849854 ], [ 121.5597045, 25.084519 ], [ 121.5604555, 25.0842858 ], [ 121.5621506, 25.0804961 ], [ 121.5633308, 25.0791745 ], [ 121.5641033, 25.0784749 ], [ 121.5676653, 25.0773671 ], [ 121.5692531, 25.0768812 ], [ 121.5707337, 25.076337 ], [ 121.5717637, 25.0747433 ], [ 121.5721928, 25.0741991 ], [ 121.5735447, 25.0747239 ], [ 121.5745961, 25.0752875 ], [ 121.57642, 25.0781834 ], [ 121.5779864, 25.0804766 ], [ 121.5785228, 25.0814289 ], [ 121.5784799, 25.0838971 ], [ 121.5781581, 25.0842663 ], [ 121.5776216, 25.084072 ], [ 121.5736949, 25.0856461 ], [ 121.5709912, 25.0866372 ], [ 121.568073, 25.0866567 ], [ 121.5655839, 25.0866178 ], [ 121.56376, 25.0867538 ], [ 121.5625798, 25.0869093 ], [ 121.5612709, 25.0866178 ], [ 121.5602409, 25.0860154 ], [ 121.559447, 25.0849854 ] ] ] } },
{ "type": "Feature", "properties": { "name": "民權水族聚集區", "cord": "25.062874000000000,121.562643000000000;25.063279000000000,121.566224000000000;25.061740000000000,121.566808000000000;25.060998000000000,121.567309000000000;25.060063000000000,121.565268000000000;25.059775000000000,121.563440000000000;25.062853000000000,121.562962000000000", "district": "松山區" }, "geometry": { "type": "Polygon", "coordinates": [ [ [ 121.562643, 25.062874 ], [ 121.566224, 25.063279 ], [ 121.566808, 25.06174 ], [ 121.567309, 25.060998 ], [ 121.565268, 25.060063 ], [ 121.56344, 25.059775 ], [ 121.562962, 25.062853 ], [ 121.562643, 25.062874 ] ] ] } },
{ "type": "Feature", "properties": { "name": "南京復興捷運站周邊", "cord": "25.057961000000000,121.544186000000000;25.057947000000000,121.548859000000000;25.051828000000000,121.548746000000000;25.051916000000000,121.544154000000000;25.056518000000000,121.544186000000000", "district": "松山區" }, "geometry": { "type": "Polygon", "coordinates": [ [ [ 121.544186, 25.057961 ], [ 121.548859, 25.057947 ], [ 121.548746, 25.051828 ], [ 121.544154, 25.051916 ], [ 121.544186, 25.056518 ], [ 121.544186, 25.057961 ] ] ] } },
{ "type": "Feature", "properties": { "name": "民生社區周邊", "cord": "25.058071000000000,121.549344000000000;25.058524000000000,121.554965000000000;25.060449000000000,121.554465000000000;25.061296000000000,121.565259000000000;25.061853000000000,121.566306000000000;25.058438000000000,121.569045000000000;25.057324000000000,121.569197000000000;25.056190000000000,121.555647000000000;25.055957000000000,121.549237000000000", "district": "松山區" }, "geometry": { "type": "Polygon", "coordinates": [ [ [ 121.549344, 25.058071 ], [ 121.554965, 25.058524 ], [ 121.554465, 25.060449 ], [ 121.565259, 25.061296 ], [ 121.566306, 25.061853 ], [ 121.569045, 25.058438 ], [ 121.569197, 25.057324 ], [ 121.555647, 25.05619 ], [ 121.549237, 25.055957 ], [ 121.549344, 25.058071 ] ] ] } },
{ "type": "Feature", "properties": { "name": "吳興街商圈", "cord": "25.029038000000000,121.561457000000000;25.026933000000000,121.563122000000000;25.027312000000000,121.563978000000000;25.029446000000000,121.562015000000000;25.029325000000000,121.561824000000000", "district": "信義區" }, "geometry": { "type": "Polygon", "coordinates": [ [ [ 121.561457, 25.029038 ], [ 121.563122, 25.026933 ], [ 121.563978, 25.027312 ], [ 121.562015, 25.029446 ], [ 121.561824, 25.029325 ], [ 121.561457, 25.029038 ] ] ] } },
{ "type": "Feature", "properties": { "name": "五分埔商圈", "cord": "25.045492000000000,121.577554000000000;25.045329000000000,121.580705000000000;25.047459000000000,121.580594000000000;25.048343000000000,121.580096000000000;25.047985000000000,121.577851000000000;25.046912000000000,121.577857000000000", "district": "信義區" }, "geometry": { "type": "Polygon", "coordinates": [ [ [ 121.577554, 25.045492 ], [ 121.580705, 25.045329 ], [ 121.580594, 25.047459 ], [ 121.580096, 25.048343 ], [ 121.577851, 25.047985 ], [ 121.577857, 25.046912 ], [ 121.577554, 25.045492 ] ] ] } },
{ "type": "Feature", "properties": { "name": "信義計畫區百貨", "cord": "25.032988600000000,121.563447800000000;25.032891400000000,121.568404600000000;25.041192900000000,121.568511900000000;25.041290100000000,121.564606600000000;25.039540400000000,121.563533700000000;25.032988600000000,121.563447800000000", "district": "信義區" }, "geometry": { "type": "Polygon", "coordinates": [ [ [ 121.5634478, 25.0329886 ], [ 121.5684046, 25.0328914 ], [ 121.5685119, 25.0411929 ], [ 121.5646066, 25.0412901 ], [ 121.5635337, 25.0395404 ], [ 121.5634478, 25.0329886 ] ] ] } },
{ "type": "Feature", "properties": { "name": "永春捷運站周邊", "cord": "25.042423000000000,121.571975000000000;25.042228000000000,121.577720000000000;25.040226000000000,121.577790000000000;25.040338000000000,121.571921000000000;25.041781000000000,121.571969000000000", "district": "信義區" }, "geometry": { "type": "Polygon", "coordinates": [ [ [ 121.571975, 25.042423 ], [ 121.57772, 25.042228 ], [ 121.57779, 25.040226 ], [ 121.571921, 25.040338 ], [ 121.571969, 25.041781 ], [ 121.571975, 25.042423 ] ] ] } },
{ "type": "Feature", "properties": { "name": "東區商圈", "cord": "25.044820800000000,121.543942300000000;25.037880500000000,121.543813600000000;25.037588800000000,121.557632300000000;25.045092900000000,121.557739600000000;25.044315300000000,121.554199100000000;25.044295900000000,121.553083300000000;25.044509700000000,121.551345200000000;25.044956900000000,121.547761800000000;25.045112400000000,121.546646000000000;25.044995700000000,121.545766200000000;25.044820800000000,121.543942300000000", "district": "大安區" }, "geometry": { "type": "Polygon", "coordinates": [ [ [ 121.5439423, 25.0448208 ], [ 121.5438136, 25.0378805 ], [ 121.5576323, 25.0375888 ], [ 121.5577396, 25.0450929 ], [ 121.5541991, 25.0443153 ], [ 121.5530833, 25.0442959 ], [ 121.5513452, 25.0445097 ], [ 121.5477618, 25.0449569 ], [ 121.546646, 25.0451124 ], [ 121.5457662, 25.0449957 ], [ 121.5439423, 25.0448208 ] ] ] } },
{ "type": "Feature", "properties": { "name": "永康商圈", "cord": "25.034247500000000,121.526889500000000;25.030028500000000,121.526288700000000;25.029834100000000,121.527919500000000;25.029620200000000,121.529121100000000;25.029600800000000,121.530279800000000;25.029756300000000,121.531202500000000;25.030417400000000,121.533283900000000;25.030436800000000,121.533777400000000;25.033567000000000,121.532597300000000;25.033567000000000,121.531374200000000;25.033742000000000,121.529335700000000;25.034169700000000,121.527039700000000", "district": "大安區" }, "geometry": { "type": "Polygon", "coordinates": [ [ [ 121.5268895, 25.0342475 ], [ 121.5262887, 25.0300285 ], [ 121.5279195, 25.0298341 ], [ 121.5291211, 25.0296202 ], [ 121.5302798, 25.0296008 ], [ 121.5312025, 25.0297563 ], [ 121.5332839, 25.0304174 ], [ 121.5337774, 25.0304368 ], [ 121.5325973, 25.033567 ], [ 121.5313742, 25.033567 ], [ 121.5293357, 25.033742 ], [ 121.5270397, 25.0341697 ], [ 121.5268895, 25.0342475 ] ] ] } },
{ "type": "Feature", "properties": { "name": "建國南路藝品古玩", "cord": "25.036248000000000,121.538010000000000;25.036215000000000,121.539741000000000;25.035118000000000,121.539731000000000;25.035124000000000,121.538068000000000;25.035571000000000,121.538151000000000", "district": "大安區" }, "geometry": { "type": "Polygon", "coordinates": [ [ [ 121.53801, 25.036248 ], [ 121.539741, 25.036215 ], [ 121.539731, 25.035118 ], [ 121.538068, 25.035124 ], [ 121.538151, 25.035571 ], [ 121.53801, 25.036248 ] ] ] } },
{ "type": "Feature", "properties": { "name": "龍泉商圈", "cord": "25.024709000000000,121.528546000000000;25.024717000000000,121.529518000000000;25.023524000000000,121.529499000000000;25.023605000000000,121.528505000000000;25.024254000000000,121.528559000000000", "district": "大安區" }, "geometry": { "type": "Polygon", "coordinates": [ [ [ 121.528546, 25.024709 ], [ 121.529518, 25.024717 ], [ 121.529499, 25.023524 ], [ 121.528505, 25.023605 ], [ 121.528559, 25.024254 ], [ 121.528546, 25.024709 ] ] ] } },
{ "type": "Feature", "properties": { "name": "文昌家具商圈", "cord": "25.032692500000000,121.552522500000000;25.032507800000000,121.552533200000000;25.032328000000000,121.554625300000000;25.032167600000000,121.555928900000000;25.032036300000000,121.557377300000000;25.032230800000000,121.557382700000000;25.032342500000000,121.555912800000000;25.032498100000000,121.554534100000000;25.032561300000000,121.553826000000000;25.032692500000000,121.552522500000000", "district": "大安區" }, "geometry": { "type": "Polygon", "coordinates": [ [ [ 121.5525225, 25.0326925 ], [ 121.5525332, 25.0325078 ], [ 121.5546253, 25.032328 ], [ 121.5559289, 25.0321676 ], [ 121.5573773, 25.0320363 ], [ 121.5573827, 25.0322308 ], [ 121.5559128, 25.0323425 ], [ 121.5545341, 25.0324981 ], [ 121.553826, 25.0325613 ], [ 121.5525225, 25.0326925 ] ] ] } },
{ "type": "Feature", "properties": { "name": "景美夜市周邊", "cord": "24.993201000000000,121.541344000000000;24.992804000000000,121.543379000000000;24.991293000000000,121.542498000000000;24.990469000000000,121.542202000000000;24.989804000000000,121.541710000000000;24.989029000000000,121.542163000000000;24.988339000000000,121.542156000000000;24.988385000000000,121.540849000000000;24.989929000000000,121.540979000000000;24.991526201607120,121.541349114345280", "district": "文山區" }, "geometry": { "type": "Polygon", "coordinates": [ [ [ 121.541344, 24.993201 ], [ 121.543379, 24.992804 ], [ 121.542498, 24.991293 ], [ 121.542202, 24.990469 ], [ 121.54171, 24.989804 ], [ 121.542163, 24.989029 ], [ 121.542156, 24.988339 ], [ 121.540849, 24.988385 ], [ 121.540979, 24.989929 ], [ 121.54134911434528, 24.991526201607119 ], [ 121.541344, 24.993201 ] ] ] } },
{ "type": "Feature", "properties": { "name": "貓空商圈", "cord": "24.982064770000000,121.587959100000000;24.981925980000000,121.588093600000000;24.981443980000000,121.588560500000000;24.981263940000000,121.588903500000000;24.981083900000000,121.589247500000000;24.980522870000000,121.589950300000000;24.980277910000000,121.590387200000000;24.979975870000000,121.590667200000000;24.979802840000000,121.591042200000000;24.979626350000000,121.591329600000000;24.979514860000000,121.591511100000000;24.979351440000000,121.591842900000000;24.979044460000000,121.591913200000000;24.978573200000000,121.592107600000000;24.978340450000000,121.592274400000000;24.978251020000000,121.592446600000000;24.978071350000000,121.592792700000000;24.977896990000000,121.593128500000000;24.977498120000000,121.593896800000000;24.976945020000000,121.594008800000000;24.976675550000000,121.594163200000000;24.976596000000000,121.594442900000000;24.976545190000000,121.595014700000000;24.976456350000000,121.596014400000000;24.976466090000000,121.596120400000000;24.976490050000000,121.596381300000000;24.976687570000000,121.596760500000000;24.976807290000000,121.596990400000000;24.976834560000000,121.597351200000000;24.976871940000000,121.597845700000000;24.976831400000000,121.598137700000000;24.976742970000000,121.598774800000000;24.976722670000000,121.599177700000000;24.976698320000000,121.599661000000000;24.976926220000000,121.600059400000000;24.975900420000000,121.602254400000000;24.975344230000000,121.604033300000000;24.974260190000000,121.605267200000000;24.974482120000000,121.606355300000000;24.974390110000000,121.607905200000000;24.974574140000000,121.608219200000000;24.974873030000000,121.608729100000000;24.974207960000000,121.610365000000000;24.974909870000000,121.611308100000000;24.974081910000000,121.611775000000000;24.973315720000000,121.613593900000000;24.973608680000000,121.614147900000000;24.973356370000000,121.614422400000000;24.973210000000000,121.614581600000000;24.972858630000000,121.614963800000000;24.971601600000000,121.616330400000000;24.970694570000000,121.617816400000000;24.970889520000000,121.618463300000000;24.970110460000000,121.619805200000000;24.969445470000000,121.619988200000000;24.969241720000000,121.619843200000000;24.968751510000000,121.619494200000000;24.968205540000000,121.619105200000000;24.966797650000000,121.618100000000000;24.967522720000000,121.617036200000000;24.966571820000000,121.615402100000000;24.966453840000000,121.615200200000000;24.965810880000000,121.614989100000000;24.966434920000000,121.614315200000000;24.966295930000000,121.613383200000000;24.965533160000000,121.612061200000000;24.964891340000000,121.610384200000000;24.964631330000000,121.610072200000000;24.963947790000000,121.609258200000000;24.963934380000000,121.609242200000000;24.963078480000000,121.608218300000000;24.963086790000000,121.607948400000000;24.963153590000000,121.606721300000000;24.962937610000000,121.606459200000000;24.963137670000000,121.605729300000000;24.962381760000000,121.604651200000000;24.962574780000000,121.604477300000000;24.962402810000000,121.603580300000000;24.961398920000000,121.602468300000000;24.961015060000000,121.601406200000000;24.961227140000000,121.599681300000000;24.960450280000000,121.598683300000000;24.960348360000000,121.597151400000000;24.960686730000000,121.596770300000000;24.961140300000000,121.596259500000000;24.961524430000000,121.594754600000000;24.961988340000000,121.594545500000000;24.964329320000000,121.593488900000000;24.963901490000000,121.592105900000000;24.964046490000000,121.591493000000000;24.964558480000000,121.591202000000000;24.964163510000000,121.590351000000000;24.964045730000000,121.590097500000000;24.963544640000000,121.589019000000000;24.963274720000000,121.588440000000000;24.963682720000000,121.587984100000000;24.963648700000000,121.587521100000000;24.963590810000000,121.586518100000000;24.963192820000000,121.585719200000000;24.964108780000000,121.585255200000000;24.964212830000000,121.585060200000000;24.964645880000000,121.584246300000000;24.964662910000000,121.583219300000000;24.964675910000000,121.582435300000000;24.964682010000000,121.582098400000000;24.964940380000000,121.581435500000000;24.965205030000000,121.580756500000000;24.966642030000000,121.578665600000000;24.968017980000000,121.579034700000000;24.968653950000000,121.579314700000000;24.969205880000000,121.579470800000000;24.969748810000000,121.579575800000000;24.970300770000000,121.579609800000000;24.970352180000000,121.579616300000000;24.970408830000000,121.579752700000000;24.970628150000000,121.579912800000000;24.971128820000000,121.579997300000000;24.971265070000000,121.579928800000000;24.971366080000000,121.579921300000000;24.971426980000000,121.579950400000000;24.971606230000000,121.580140300000000;24.971674240000000,121.580147800000000;24.971769250000000,121.580132000000000;24.971892240000000,121.580139800000000;24.972067020000000,121.580183500000000;24.972125040000000,121.580189900000000;24.972183070000000,121.580174000000000;24.972334540000000,121.580055800000000;24.972701810000000,121.579731400000000;24.972829020000000,121.579668800000000;24.972967660000000,121.579547200000000;24.973411550000000,121.579451100000000;24.973665380000000,121.579396100000000;24.973814550000000,121.579363700000000;24.974050770000000,121.579312600000000;24.974256460000000,121.579314700000000;24.974414380000000,121.579282700000000;24.974593780000000,121.579208600000000;24.974653740000000,121.579143400000000;24.974741090000000,121.579048400000000;24.974776090000000,121.579010300000000;24.974893180000000,121.578980800000000;24.975001240000000,121.578953500000000;24.975126410000000,121.578922000000000;24.975277660000000,121.578809500000000;24.975403950000000,121.578715600000000;24.975758600000000,121.578749600000000;24.975875300000000,121.578749600000000;24.976001800000000,121.578738900000000;24.976146000000000,121.578712000000000;24.976244900000000,121.578685300000000;24.976371300000000,121.578556500000000;24.976458900000000,121.578438500000000;24.976564000000000,121.578315000000000;24.976595000000000,121.578417000000000;24.976624200000000,121.578620900000000;24.976672800000000,121.578835500000000;24.976744000000000,121.579046000000000;24.976828400000000,121.579243100000000;24.976896500000000,121.579447000000000;24.976997000000000,121.579729000000000;24.977091000000000,121.580026400000000;24.977159100000000,121.580294600000000;24.977246600000000,121.580498400000000;24.977353600000000,121.580788100000000;24.977470300000000,121.581077800000000;24.977594000000000,121.581305000000000;24.977674500000000,121.581582000000000;24.977791200000000,121.581882400000000;24.977976000000000,121.582236500000000;24.978131600000000,121.582547600000000;24.978267800000000,121.582848000000000;24.978472000000000,121.583202100000000;24.978695700000000,121.583599100000000;24.978899900000000,121.583985300000000;24.979065300000000,121.584339300000000;24.979279200000000,121.584639800000000;24.979541800000000,121.585036700000000;24.979794700000000,121.585358600000000;24.980008600000000,121.585626800000000;24.980387000000000,121.586110000000000;24.980650500000000,121.586431500000000;24.981039500000000,121.586882100000000;24.981584100000000,121.587397100000000", "district": "文山區" }, "geometry": { "type": "Polygon", "coordinates": [ [ [ 121.5879591, 24.98206477 ], [ 121.5880936, 24.98192598 ], [ 121.5885605, 24.98144398 ], [ 121.5889035, 24.98126394 ], [ 121.5892475, 24.9810839 ], [ 121.5899503, 24.98052287 ], [ 121.5903872, 24.98027791 ], [ 121.5906672, 24.97997587 ], [ 121.5910422, 24.97980284 ], [ 121.5913296, 24.97962635 ], [ 121.5915111, 24.97951486 ], [ 121.5918429, 24.97935144 ], [ 121.5919132, 24.97904446 ], [ 121.5921076, 24.9785732 ], [ 121.5922744, 24.97834045 ], [ 121.5924466, 24.97825102 ], [ 121.5927927, 24.97807135 ], [ 121.5931285, 24.97789699 ], [ 121.5938968, 24.97749812 ], [ 121.5940088, 24.97694502 ], [ 121.5941632, 24.97667555 ], [ 121.5944429, 24.976596 ], [ 121.5950147, 24.97654519 ], [ 121.5960144, 24.97645635 ], [ 121.5961204, 24.97646609 ], [ 121.5963813, 24.97649005 ], [ 121.5967605, 24.97668757 ], [ 121.5969904, 24.97680729 ], [ 121.5973512, 24.97683456 ], [ 121.5978457, 24.97687194 ], [ 121.5981377, 24.9768314 ], [ 121.5987748, 24.97674297 ], [ 121.5991777, 24.97672267 ], [ 121.599661, 24.97669832 ], [ 121.6000594, 24.97692622 ], [ 121.6022544, 24.97590042 ], [ 121.6040333, 24.97534423 ], [ 121.6052672, 24.97426019 ], [ 121.6063553, 24.97448212 ], [ 121.6079052, 24.97439011 ], [ 121.6082192, 24.97457414 ], [ 121.6087291, 24.97487303 ], [ 121.610365, 24.97420796 ], [ 121.6113081, 24.97490987 ], [ 121.611775, 24.97408191 ], [ 121.6135939, 24.97331572 ], [ 121.6141479, 24.97360868 ], [ 121.6144224, 24.97335637 ], [ 121.6145816, 24.97321 ], [ 121.6149638, 24.97285863 ], [ 121.6163304, 24.9716016 ], [ 121.6178164, 24.97069457 ], [ 121.6184633, 24.97088952 ], [ 121.6198052, 24.97011046 ], [ 121.6199882, 24.96944547 ], [ 121.6198432, 24.96924172 ], [ 121.6194942, 24.96875151 ], [ 121.6191052, 24.96820554 ], [ 121.6181, 24.96679765 ], [ 121.6170362, 24.96752272 ], [ 121.6154021, 24.96657182 ], [ 121.6152002, 24.96645384 ], [ 121.6149891, 24.96581088 ], [ 121.6143152, 24.96643492 ], [ 121.6133832, 24.96629593 ], [ 121.6120612, 24.96553316 ], [ 121.6103842, 24.96489134 ], [ 121.6100722, 24.96463133 ], [ 121.6092582, 24.96394779 ], [ 121.6092422, 24.96393438 ], [ 121.6082183, 24.96307848 ], [ 121.6079484, 24.96308679 ], [ 121.6067213, 24.96315359 ], [ 121.6064592, 24.96293761 ], [ 121.6057293, 24.96313767 ], [ 121.6046512, 24.96238176 ], [ 121.6044773, 24.96257478 ], [ 121.6035803, 24.96240281 ], [ 121.6024683, 24.96139892 ], [ 121.6014062, 24.96101506 ], [ 121.5996813, 24.96122714 ], [ 121.5986833, 24.96045028 ], [ 121.5971514, 24.96034836 ], [ 121.5967703, 24.96068673 ], [ 121.5962595, 24.9611403 ], [ 121.5947546, 24.96152443 ], [ 121.5945455, 24.96198834 ], [ 121.5934889, 24.96432932 ], [ 121.5921059, 24.96390149 ], [ 121.591493, 24.96404649 ], [ 121.591202, 24.96455848 ], [ 121.590351, 24.96416351 ], [ 121.5900975, 24.96404573 ], [ 121.589019, 24.96354464 ], [ 121.58844, 24.96327472 ], [ 121.5879841, 24.96368272 ], [ 121.5875211, 24.9636487 ], [ 121.5865181, 24.96359081 ], [ 121.5857192, 24.96319282 ], [ 121.5852552, 24.96410878 ], [ 121.5850602, 24.96421283 ], [ 121.5842463, 24.96464588 ], [ 121.5832193, 24.96466291 ], [ 121.5824353, 24.96467591 ], [ 121.5820984, 24.96468201 ], [ 121.5814355, 24.96494038 ], [ 121.5807565, 24.96520503 ], [ 121.5786656, 24.96664203 ], [ 121.5790347, 24.96801798 ], [ 121.5793147, 24.96865395 ], [ 121.5794708, 24.96920588 ], [ 121.5795758, 24.96974881 ], [ 121.5796098, 24.97030077 ], [ 121.5796163, 24.97035218 ], [ 121.5797527, 24.97040883 ], [ 121.5799128, 24.97062815 ], [ 121.5799973, 24.97112882 ], [ 121.5799288, 24.97126507 ], [ 121.5799213, 24.97136608 ], [ 121.5799504, 24.97142698 ], [ 121.5801403, 24.97160623 ], [ 121.5801478, 24.97167424 ], [ 121.580132, 24.97176925 ], [ 121.5801398, 24.97189224 ], [ 121.5801835, 24.97206702 ], [ 121.5801899, 24.97212504 ], [ 121.580174, 24.97218307 ], [ 121.5800558, 24.97233454 ], [ 121.5797314, 24.97270181 ], [ 121.5796688, 24.97282902 ], [ 121.5795472, 24.97296766 ], [ 121.5794511, 24.97341155 ], [ 121.5793961, 24.97366538 ], [ 121.5793637, 24.97381455 ], [ 121.5793126, 24.97405077 ], [ 121.5793147, 24.97425646 ], [ 121.5792827, 24.97441438 ], [ 121.5792086, 24.97459378 ], [ 121.5791434, 24.97465374 ], [ 121.5790484, 24.97474109 ], [ 121.5790103, 24.97477609 ], [ 121.5789808, 24.97489318 ], [ 121.5789535, 24.97500124 ], [ 121.578922, 24.97512641 ], [ 121.5788095, 24.97527766 ], [ 121.5787156, 24.97540395 ], [ 121.5787496, 24.9757586 ], [ 121.5787496, 24.9758753 ], [ 121.5787389, 24.9760018 ], [ 121.578712, 24.976146 ], [ 121.5786853, 24.9762449 ], [ 121.5785565, 24.9763713 ], [ 121.5784385, 24.9764589 ], [ 121.578315, 24.976564 ], [ 121.578417, 24.976595 ], [ 121.5786209, 24.9766242 ], [ 121.5788355, 24.9766728 ], [ 121.579046, 24.976744 ], [ 121.5792431, 24.9768284 ], [ 121.579447, 24.9768965 ], [ 121.579729, 24.976997 ], [ 121.5800264, 24.977091 ], [ 121.5802946, 24.9771591 ], [ 121.5804984, 24.9772466 ], [ 121.5807881, 24.9773536 ], [ 121.5810778, 24.9774703 ], [ 121.581305, 24.977594 ], [ 121.581582, 24.9776745 ], [ 121.5818824, 24.9777912 ], [ 121.5822365, 24.977976 ], [ 121.5825476, 24.9781316 ], [ 121.582848, 24.9782678 ], [ 121.5832021, 24.978472 ], [ 121.5835991, 24.9786957 ], [ 121.5839853, 24.9788999 ], [ 121.5843393, 24.9790653 ], [ 121.5846398, 24.9792792 ], [ 121.5850367, 24.9795418 ], [ 121.5853586, 24.9797947 ], [ 121.5856268, 24.9800086 ], [ 121.58611, 24.980387 ], [ 121.5864315, 24.9806505 ], [ 121.5868821, 24.9810395 ], [ 121.5873971, 24.9815841 ], [ 121.5879591, 24.98206477 ] ] ] } },
{ "type": "Feature", "properties": { "name": "萬芳商圈", "cord": "25.000613200000000,121.554303200000000;25.000068700000000,121.553992000000000;24.999796400000000,121.553874000000000;24.999621400000000,121.554356800000000;24.998814300000000,121.556030500000000;24.998260100000000,121.556352400000000;24.998055900000000,121.556545500000000;24.997200200000000,121.558584000000000;24.996947400000000,121.558777100000000;24.996577900000000,121.558959500000000;24.996539000000000,121.559732000000000;24.996937600000000,121.561030200000000;24.997112700000000,121.560761900000000;24.997384900000000,121.559914400000000;24.997861400000000,121.559463800000000;24.998493500000000,121.559152600000000;24.999008800000000,121.558905900000000;24.999290800000000,121.558476700000000;24.999796400000000,121.557757900000000;25.000175700000000,121.557189200000000;25.000535400000000,121.556567800000000;25.000846600000000,121.555752400000000;25.001186900000000,121.555248200000000;25.001468900000000,121.555076500000000;25.001546700000000,121.554786800000000;25.000613200000000,121.554303200000000", "district": "文山區" }, "geometry": { "type": "Polygon", "coordinates": [ [ [ 121.5543032, 25.0006132 ], [ 121.553992, 25.0000687 ], [ 121.553874, 24.9997964 ], [ 121.5543568, 24.9996214 ], [ 121.5560305, 24.9988143 ], [ 121.5563524, 24.9982601 ], [ 121.5565455, 24.9980559 ], [ 121.558584, 24.9972002 ], [ 121.5587771, 24.9969474 ], [ 121.5589595, 24.9965779 ], [ 121.559732, 24.996539 ], [ 121.5610302, 24.9969376 ], [ 121.5607619, 24.9971127 ], [ 121.5599144, 24.9973849 ], [ 121.5594638, 24.9978614 ], [ 121.5591526, 24.9984935 ], [ 121.5589059, 24.9990088 ], [ 121.5584767, 24.9992908 ], [ 121.5577579, 24.9997964 ], [ 121.5571892, 25.0001757 ], [ 121.5565678, 25.0005354 ], [ 121.5557524, 25.0008466 ], [ 121.5552482, 25.0011869 ], [ 121.5550765, 25.0014689 ], [ 121.5547868, 25.0015467 ], [ 121.5543032, 25.0006132 ] ] ] } },
{ "type": "Feature", "properties": { "name": "南港車站CITYLINK周邊", "cord": "25.053650000000000,121.607859000000000;25.052032000000000,121.608240000000000;25.050554000000000,121.595806000000000;25.052190000000000,121.595244000000000;25.053489000000000,121.605183000000000", "district": "南港區" }, "geometry": { "type": "Polygon", "coordinates": [ [ [ 121.607859, 25.05365 ], [ 121.60824, 25.052032 ], [ 121.595806, 25.050554 ], [ 121.595244, 25.05219 ], [ 121.605183, 25.053489 ], [ 121.607859, 25.05365 ] ] ] } },
{ "type": "Feature", "properties": { "name": "中國信託金融園區", "cord": "25.061163000000000,121.614766000000000;25.059693000000000,121.617429000000000;25.055075000000000,121.616928000000000;25.055391000000000,121.613954000000000;25.058875000000000,121.614182000000000", "district": "南港區" }, "geometry": { "type": "Polygon", "coordinates": [ [ [ 121.614766, 25.061163 ], [ 121.617429, 25.059693 ], [ 121.616928, 25.055075 ], [ 121.613954, 25.055391 ], [ 121.614182, 25.058875 ], [ 121.614766, 25.061163 ] ] ] } },
{ "type": "Feature", "properties": { "name": "至聖花博商圈", "cord": "25.068331800000000,121.523012500000000;25.068239500000000,121.525008000000000;25.068453300000000,121.525072400000000;25.070100500000000,121.525093800000000;25.070090800000000,121.525694700000000;25.071446500000000,121.525716100000000;25.071606800000000,121.524911500000000;25.071772000000000,121.524042400000000;25.072549500000000,121.524187300000000;25.072753500000000,121.523527400000000;25.072821600000000,121.523237800000000;25.072821600000000,121.523007100000000;25.072787600000000,121.522808600000000;25.072734100000000,121.522470600000000;25.072773000000000,121.521950300000000;25.072938200000000,121.521419200000000;25.072734100000000,121.521424600000000;25.072355100000000,121.521456800000000;25.072024700000000,121.520319500000000;25.072102400000000,121.518983800000000;25.072335700000000,121.518479500000000;25.072515500000000,121.518146900000000;25.072549500000000,121.517347600000000;25.072287100000000,121.517310100000000;25.072277400000000,121.517149100000000;25.072345400000000,121.513914400000000;25.070829400000000,121.513898300000000;25.068453300000000,121.513791000000000;25.068433900000000,121.516532200000000;25.068380400000000,121.518356100000000;25.068409600000000,121.520008400000000;25.068331800000000,121.523012500000000", "district": "大同區" }, "geometry": { "type": "Polygon", "coordinates": [ [ [ 121.5230125, 25.0683318 ], [ 121.525008, 25.0682395 ], [ 121.5250724, 25.0684533 ], [ 121.5250938, 25.0701005 ], [ 121.5256947, 25.0700908 ], [ 121.5257161, 25.0714465 ], [ 121.5249115, 25.0716068 ], [ 121.5240424, 25.071772 ], [ 121.5241873, 25.0725495 ], [ 121.5235274, 25.0727535 ], [ 121.5232378, 25.0728216 ], [ 121.5230071, 25.0728216 ], [ 121.5228086, 25.0727876 ], [ 121.5224706, 25.0727341 ], [ 121.5219503, 25.072773 ], [ 121.5214192, 25.0729382 ], [ 121.5214246, 25.0727341 ], [ 121.5214568, 25.0723551 ], [ 121.5203195, 25.0720247 ], [ 121.5189838, 25.0721024 ], [ 121.5184795, 25.0723357 ], [ 121.5181469, 25.0725155 ], [ 121.5173476, 25.0725495 ], [ 121.5173101, 25.0722871 ], [ 121.5171491, 25.0722774 ], [ 121.5139144, 25.0723454 ], [ 121.5138983, 25.0708294 ], [ 121.513791, 25.0684533 ], [ 121.5165322, 25.0684339 ], [ 121.5183561, 25.0683804 ], [ 121.5200084, 25.0684096 ], [ 121.5230125, 25.0683318 ] ] ] } },
{ "type": "Feature", "properties": { "name": "加蚋商圈", "cord": "25.033359700000000,121.497741900000000;25.029417800000000,121.495596100000000;25.028499100000000,121.495193800000000;25.027954700000000,121.494635900000000;25.025616700000000,121.491798100000000;25.024746600000000,121.490693000000000;25.021805800000000,121.492007300000000;25.019671800000000,121.492978200000000;25.018369000000000,121.493552200000000;25.017639900000000,121.494035000000000;25.017003100000000,121.494829000000000;25.016619000000000,121.495982300000000;25.017912100000000,121.496770900000000;25.020644000000000,121.498417800000000;25.022238400000000,121.499469200000000;25.023774400000000,121.500456200000000;25.024916700000000,121.500724500000000;25.026938800000000,121.500724500000000;25.028601200000000,121.500735200000000;25.029743400000000,121.500762000000000;25.031843200000000,121.500751300000000;25.032640400000000,121.500751300000000;25.033165300000000,121.500778100000000;25.033160400000000,121.500300700000000;25.033145800000000,121.499608700000000;25.033194500000000,121.499050800000000;25.033325700000000,121.498396300000000;25.033359700000000,121.497741900000000", "district": "萬華區" }, "geometry": { "type": "Polygon", "coordinates": [ [ [ 121.4977419, 25.0333597 ], [ 121.4955961, 25.0294178 ], [ 121.4951938, 25.0284991 ], [ 121.4946359, 25.0279547 ], [ 121.4917981, 25.0256167 ], [ 121.490693, 25.0247466 ], [ 121.4920073, 25.0218058 ], [ 121.4929782, 25.0196718 ], [ 121.4935522, 25.018369 ], [ 121.494035, 25.0176399 ], [ 121.494829, 25.0170031 ], [ 121.4959823, 25.016619 ], [ 121.4967709, 25.0179121 ], [ 121.4984178, 25.020644 ], [ 121.4994692, 25.0222384 ], [ 121.5004562, 25.0237744 ], [ 121.5007245, 25.0249167 ], [ 121.5007245, 25.0269388 ], [ 121.5007352, 25.0286012 ], [ 121.500762, 25.0297434 ], [ 121.5007513, 25.0318432 ], [ 121.5007513, 25.0326404 ], [ 121.5007781, 25.0331653 ], [ 121.5003007, 25.0331604 ], [ 121.4996087, 25.0331458 ], [ 121.4990508, 25.0331945 ], [ 121.4983963, 25.0333257 ], [ 121.4977419, 25.0333597 ] ] ] } },
{ "type": "Feature", "properties": { "name": "赤峰街商圈", "cord": "25.057350000000000,121.518270000000000;25.054750000000000,121.518280000000000;25.053290000000000,121.517810000000000;25.052720000000000,121.520330000000000;25.057670000000000,121.520550000000000;25.057350000000000,121.518270000000000", "district": "大同區" }, "geometry": { "type": "Polygon", "coordinates": [ [ [ 121.51827, 25.05735 ], [ 121.51828, 25.05475 ], [ 121.51781, 25.05329 ], [ 121.52033, 25.05272 ], [ 121.52055, 25.05767 ], [ 121.51827, 25.05735 ] ] ] } },
{ "type": "Feature", "properties": { "name": "榮町商圈", "cord": "25.046016000000000,121.510968000000000;25.045997000000000,121.514204000000000;25.040994000000000,121.513963000000000;25.041317000000000,121.510686000000000", "district": "中正區" }, "geometry": { "type": "Polygon", "coordinates": [ [ [ 121.510968, 25.046016 ], [ 121.514204, 25.045997 ], [ 121.513963, 25.040994 ], [ 121.510686, 25.041317 ], [ 121.510968, 25.046016 ] ] ] } },
{ "type": "Feature", "properties": { "name": "蘭雅商圈", "cord": "25.112400000000000,121.531019000000000;25.111711000000000,121.525973000000000;25.110906000000000,121.525649000000000;25.106476000000000,121.524933000000000;25.108362000000000,121.530223000000000", "district": "士林區" }, "geometry": { "type": "Polygon", "coordinates": [ [ [ 121.531019, 25.1124 ], [ 121.525973, 25.111711 ], [ 121.525649, 25.110906 ], [ 121.524933, 25.106476 ], [ 121.530223, 25.108362 ], [ 121.531019, 25.1124 ] ] ] } }
]
}
