{
"type": "FeatureCollection",
"name": "cultural_assets_metrotaipei",
"crs": { "type": "name", "properties": { "name": "urn:ogc:def:crs:OGC:1.3:CRS84" } },
"features": [
{ "type": "Feature", "properties": { "name": "淡水紅毛城", "affection": "古蹟", "category": "衙署", "rank": "國定", "district": "淡水區", "address": "淡水區中正路28巷1號", "new_address": "新北市淡水區中正路28巷1號" }, "geometry": { "type": "Point", "coordinates": [ 121.444231, 25.169277 ] } },
{ "type": "Feature", "properties": { "name": "廣福宮", "affection": "古蹟", "category": "寺廟", "rank": "國定", "district": "新莊區", "address": "新北市新莊區新莊路150號", "new_address": "新北市新北市新莊區新莊路150號" }, "geometry": { "type": "Point", "coordinates": [ 121.45658, 25.036209 ] } },
{ "type": "Feature", "properties": { "name": "鄞山寺", "affection": "古蹟", "category": "寺廟", "rank": "國定", "district": "淡水區", "address": "淡水區鄧公路15號", "new_address": "新北市淡水區鄧公路15號" }, "geometry": { "type": "Point", "coordinates": [ 121.449075, 25.16995 ] } },
{ "type": "Feature", "properties": { "name": "理學堂大書院", "affection": "古蹟", "category": "書院", "rank": "國定", "district": "淡水區", "address": "淡水區真理街32號", "new_address": "新北市淡水區真理街32號" }, "geometry": { "type": "Point", "coordinates": [ 121.434601, 25.175558 ] } },
{ "type": "Feature", "properties": { "name": "滬尾砲台", "affection": "古蹟", "category": "關塞", "rank": "國定", "district": "淡水區", "address": "淡水區中正路1段6巷34-1號", "new_address": "新北市淡水區中正路1段6巷34-1號" }, "geometry": { "type": "Point", "coordinates": [ 121.445554, 25.168232 ] } },
{ "type": "Feature", "properties": { "name": "蘆洲李宅", "affection": "古蹟", "category": "宅第", "rank": "國定", "district": "蘆洲區", "address": "新北市蘆洲區中正路243巷19號", "new_address": "新北市新北市蘆洲區中正路243巷19號" }, "geometry": { "type": "Point", "coordinates": [ 121.466562, 25.086074 ] } },
{ "type": "Feature", "properties": { "name": "淡水龍山寺", "affection": "古蹟", "category": "寺廟", "rank": "市定", "district": "淡水區", "address": "淡水區中正路95巷22號", "new_address": "新北市淡水區中正路95巷22號" }, "geometry": { "type": "Point", "coordinates": [ 121.440328, 25.16976 ] } },
{ "type": "Feature", "properties": { "name": "淡水福佑宮", "affection": "古蹟", "category": "寺廟", "rank": "市定", "district": "淡水區", "address": "淡水區中正路200號", "new_address": "新北市淡水區中正路200號" }, "geometry": { "type": "Point", "coordinates": [ 121.439859, 25.170169 ] } },
{ "type": "Feature", "properties": { "name": "新莊武聖廟", "affection": "古蹟", "category": "寺廟", "rank": "市定", "district": "新莊區", "address": "新北市新莊區新莊路340號", "new_address": "新北市新北市新莊區新莊路340號" }, "geometry": { "type": "Point", "coordinates": [ 121.450164, 25.033658 ] } },
{ "type": "Feature", "properties": { "name": "新莊文昌祠", "affection": "古蹟", "category": "寺廟", "rank": "市定", "district": "新莊區", "address": "新北市新莊區碧江街20號", "new_address": "新北市新北市新莊區碧江街20號" }, "geometry": { "type": "Point", "coordinates": [ 121.455099, 25.034565 ] } },
{ "type": "Feature", "properties": { "name": "頂泰山巖", "affection": "古蹟", "category": "寺廟", "rank": "市定", "district": "泰山區", "address": "泰山區應化街32號", "new_address": "新北市泰山區應化街32號" }, "geometry": { "type": "Point", "coordinates": [ 121.423781, 25.043719 ] } },
{ "type": "Feature", "properties": { "name": "五股西雲寺", "affection": "古蹟", "category": "寺廟", "rank": "市定", "district": "五股區", "address": "新北市五股區西雲路185巷3號", "new_address": "新北市新北市五股區西雲路185巷3號" }, "geometry": { "type": "Point", "coordinates": [ 121.855846, 25.108481 ] } },
{ "type": "Feature", "properties": { "name": "新莊慈祐宮", "affection": "古蹟", "category": "寺廟", "rank": "市定", "district": "新莊區", "address": "新北市新莊區新莊路218號", "new_address": "新北市新北市新莊區新莊路218號" }, "geometry": { "type": "Point", "coordinates": [ 121.452952, 25.034411 ] } },
{ "type": "Feature", "properties": { "name": "大觀義學", "affection": "古蹟", "category": "書院", "rank": "市定", "district": "板橋區", "address": "板橋區西門街5號", "new_address": "新北市板橋區西門街5號" }, "geometry": { "type": "Point", "coordinates": [ 121.456145, 25.011402 ] } },
{ "type": "Feature", "properties": { "name": "馬偕墓", "affection": "古蹟", "category": "墓葬", "rank": "市定", "district": "淡水區", "address": "淡水區真理街26號", "new_address": "新北市淡水區真理街26號" }, "geometry": { "type": "Point", "coordinates": [ 121.43583, 25.17506 ] } },
{ "type": "Feature", "properties": { "name": "吳沙墓", "affection": "古蹟", "category": "墓葬", "rank": "市定", "district": "貢寮區", "address": "貢寮區澳底段澳底小段237-4地號", "new_address": "新北市貢寮區澳底段澳底小段237-4地號" }, "geometry": { "type": "Point", "coordinates": [ 121.90755, 25.018816 ] } },
{ "type": "Feature", "properties": { "name": "虎字碑", "affection": "古蹟", "category": "碑碣", "rank": "市定", "district": "貢寮區", "address": "貢寮區遠望坑段草嶺小段109地號", "new_address": "新北市貢寮區遠望坑段草嶺小段109地號" }, "geometry": { "type": "Point", "coordinates": [ 121.927424, 24.996744 ] } },
{ "type": "Feature", "properties": { "name": "雄鎮蠻煙碑", "affection": "古蹟", "category": "碑碣", "rank": "市定", "district": "貢寮區", "address": "貢寮區遠望坑段草嶺小段103地號", "new_address": "新北市貢寮區遠望坑段草嶺小段103地號" }, "geometry": { "type": "Point", "coordinates": [ 121.927424, 24.996744 ] } },
{ "type": "Feature", "properties": { "name": "金字碑", "affection": "古蹟", "category": "碑碣", "rank": "市定", "district": "瑞芳區", "address": "瑞芳區猴硐里三貂嶺頭", "new_address": "新北市瑞芳區猴硐里三貂嶺頭" }, "geometry": { "type": "Point", "coordinates": [ 121.83082, 25.089075 ] } },
{ "type": "Feature", "properties": { "name": "深坑黃氏永安居", "affection": "古蹟", "category": "宅第", "rank": "市定", "district": "深坑區", "address": "深坑區北深路三段８號", "new_address": "新北市深坑區北深路三段８號" }, "geometry": { "type": "Point", "coordinates": [ 121.610809, 25.001159 ] } },
{ "type": "Feature", "properties": { "name": "枋橋建學碑", "affection": "古蹟", "category": "碑碣", "rank": "市定", "district": "板橋區", "address": "板橋區文化路1段23號", "new_address": "新北市板橋區文化路1段23號" }, "geometry": { "type": "Point", "coordinates": [ 121.457692, 25.009668 ] } },
{ "type": "Feature", "properties": { "name": "前清淡水關稅務司官邸", "affection": "古蹟", "category": "衙署", "rank": "市定", "district": "淡水區", "address": "淡水區真理街15號", "new_address": "新北市淡水區真理街15號" }, "geometry": { "type": "Point", "coordinates": [ 121.436337, 25.174054 ] } },
{ "type": "Feature", "properties": { "name": "永和網溪別墅", "affection": "古蹟", "category": "宅第", "rank": "市定", "district": "永和區", "address": "永和區博愛街7號", "new_address": "新北市永和區博愛街7號" }, "geometry": { "type": "Point", "coordinates": [ 121.51683, 25.01592 ] } },
{ "type": "Feature", "properties": { "name": "三重先嗇宮", "affection": "古蹟", "category": "寺廟", "rank": "市定", "district": "三重區", "address": "新北市三重區五谷王北街77號", "new_address": "新北市新北市三重區五谷王北街77號" }, "geometry": { "type": "Point", "coordinates": [ 121.474456, 25.051415 ] } },
{ "type": "Feature", "properties": { "name": "淡水外僑墓園", "affection": "古蹟", "category": "墓葬", "rank": "市定", "district": "淡水區", "address": "淡水區真理街3巷", "new_address": "新北市淡水區真理街3巷" }, "geometry": { "type": "Point", "coordinates": [ 121.437419, 25.175919 ] } },
{ "type": "Feature", "properties": { "name": "淡水禮拜堂", "affection": "古蹟", "category": "教堂", "rank": "市定", "district": "淡水區", "address": "淡水區馬偕街8號", "new_address": "新北市淡水區馬偕街8號" }, "geometry": { "type": "Point", "coordinates": [ 121.438471, 25.171947 ] } },
{ "type": "Feature", "properties": { "name": "滬尾偕醫館", "affection": "古蹟", "category": "其他", "rank": "市定", "district": "淡水區", "address": "淡水區馬偕街6號", "new_address": "新北市淡水區馬偕街6號" }, "geometry": { "type": "Point", "coordinates": [ 121.438713, 25.171925 ] } },
{ "type": "Feature", "properties": { "name": "滬尾湖南勇古墓", "affection": "古蹟", "category": "墓葬", "rank": "市定", "district": "淡水區", "address": "淡水區中正東路與竿蓁一街交叉口", "new_address": "新北市淡水區中正東路與竿蓁一街交叉口" }, "geometry": { "type": "Point", "coordinates": [ 121.454558, 25.16633 ] } },
{ "type": "Feature", "properties": { "name": "原英商嘉士洋行倉庫", "affection": "古蹟", "category": "其他", "rank": "市定", "district": "淡水區", "address": "淡水區鼻頭街22號", "new_address": "新北市淡水區鼻頭街22號" }, "geometry": { "type": "Point", "coordinates": [ 121.447054, 25.166015 ] } },
{ "type": "Feature", "properties": { "name": "淡水海關碼頭", "affection": "古蹟", "category": "其他", "rank": "市定", "district": "淡水區", "address": "淡水區中正路259號", "new_address": "新北市淡水區中正路259號" }, "geometry": { "type": "Point", "coordinates": [ 121.43184, 25.174682 ] } },
{ "type": "Feature", "properties": { "name": "淡水氣候觀測所", "affection": "古蹟", "category": "其他", "rank": "市定", "district": "淡水區", "address": "淡水區中正東路42巷6號", "new_address": "新北市淡水區中正東路42巷6號" }, "geometry": { "type": "Point", "coordinates": [ 121.448853, 25.164683 ] } },
{ "type": "Feature", "properties": { "name": "淡水水上機場", "affection": "古蹟", "category": "其他", "rank": "市定", "district": "淡水區", "address": "淡水區中正東路42巷7號", "new_address": "新北市淡水區中正東路42巷7號" }, "geometry": { "type": "Point", "coordinates": [ 121.449838, 25.164732 ] } },
{ "type": "Feature", "properties": { "name": "瑞芳四腳亭砲台", "affection": "古蹟", "category": "關塞", "rank": "市定", "district": "瑞芳區", "address": "瑞芳區瑞亭段1、66、76地號", "new_address": "新北市瑞芳區瑞亭段1、66、76地號" }, "geometry": { "type": "Point", "coordinates": [ 121.761474, 25.099849 ] } },
{ "type": "Feature", "properties": { "name": "安坑孝女廖氏嬌紀念碑", "affection": "古蹟", "category": "碑碣", "rank": "市定", "district": "新店區", "address": "新店區安忠路36號", "new_address": "新北市新店區安忠路36號" }, "geometry": { "type": "Point", "coordinates": [ 121.514157, 24.961301 ] } },
{ "type": "Feature", "properties": { "name": "關渡媽祖石", "affection": "古蹟", "category": "碑碣", "rank": "市定", "district": "淡水區", "address": "淡水區自強路33號", "new_address": "新北市淡水區自強路33號" }, "geometry": { "type": "Point", "coordinates": [ 121.46285, 25.127008 ] } },
{ "type": "Feature", "properties": { "name": "?公圳引水石硿", "affection": "古蹟", "category": "其他", "rank": "市定", "district": "新店區", "address": "新店路65號「開天宮」下方", "new_address": "新北市新店路65號「開天宮」下方" }, "geometry": { "type": "Point", "coordinates": [ 121.871782, 25.031628 ] } },
{ "type": "Feature", "properties": { "name": "淡水公司田溪橋遺蹟", "affection": "古蹟", "category": "橋樑", "rank": "市定", "district": "淡水區", "address": "淡水區新市段50地號（淡海新市鎮）", "new_address": "新北市淡水區新市段50地號（淡海新市鎮）" }, "geometry": { "type": "Point", "coordinates": [ 121.420965, 25.183175 ] } },
{ "type": "Feature", "properties": { "name": "山佳車站", "affection": "古蹟", "category": "車站", "rank": "市定", "district": "樹林區", "address": "樹林區山佳街28號", "new_address": "新北市樹林區山佳街28號" }, "geometry": { "type": "Point", "coordinates": [ 121.393682, 24.973234 ] } },
{ "type": "Feature", "properties": { "name": "菁桐車站", "affection": "古蹟", "category": "車站", "rank": "市定", "district": "平溪區", "address": "平溪區菁桐村菁桐街52號", "new_address": "新北市平溪區菁桐村菁桐街52號" }, "geometry": { "type": "Point", "coordinates": [ 121.722025, 25.023605 ] } },
{ "type": "Feature", "properties": { "name": "台陽礦業公司平溪招待所", "affection": "古蹟", "category": "宅第", "rank": "市定", "district": "平溪區", "address": "平溪區菁桐村菁桐街167號", "new_address": "新北市平溪區菁桐村菁桐街167號" }, "geometry": { "type": "Point", "coordinates": [ 121.722198, 25.022536 ] } },
{ "type": "Feature", "properties": { "name": "汐止茄苳腳臺灣鐵路遺蹟", "affection": "古蹟", "category": "其他", "rank": "市定", "district": "汐止區", "address": "汐止區大同路2段607號前", "new_address": "新北市汐止區大同路2段607號前" }, "geometry": { "type": "Point", "coordinates": [ 121.621075, 25.054734 ] } },
{ "type": "Feature", "properties": { "name": "滬尾水道", "affection": "古蹟", "category": "其他", "rank": "市定", "district": "淡水區", "address": "淡水區庄子內段四、二四七-六地號", "new_address": "新北市淡水區庄子內段四、二四七-六地號" }, "geometry": { "type": "Point", "coordinates": [ 121.44501, 25.172283 ] } },
{ "type": "Feature", "properties": { "name": "淡水街長多田榮吉故居", "affection": "古蹟", "category": "宅第", "rank": "市定", "district": "淡水區", "address": "淡水區馬偕街19號", "new_address": "新北市淡水區馬偕街19號" }, "geometry": { "type": "Point", "coordinates": [ 121.437331, 25.173309 ] } },
{ "type": "Feature", "properties": { "name": "金瓜石礦業圳道及圳橋", "affection": "古蹟", "category": "其他", "rank": "市定", "district": "瑞芳區", "address": "瑞芳區金瓜石段15-5、20-8地號", "new_address": "新北市瑞芳區金瓜石段15-5、20-8地號" }, "geometry": { "type": "Point", "coordinates": [ 121.80583, 25.108543 ] } },
{ "type": "Feature", "properties": { "name": "海山神社殘蹟", "affection": "古蹟", "category": "其他", "rank": "市定", "district": "中和區", "address": "中和區員山路455巷員山公園內", "new_address": "新北市中和區員山路455巷員山公園內" }, "geometry": { "type": "Point", "coordinates": [ 121.47901, 25.005919 ] } },
{ "type": "Feature", "properties": { "name": "中和瑞穗配水池", "affection": "古蹟", "category": "其他", "rank": "市定", "district": "中和區", "address": "中和區莒光路自強公園內", "new_address": "新北市中和區莒光路自強公園內" }, "geometry": { "type": "Point", "coordinates": [ 121.4727, 24.999348 ] } },
{ "type": "Feature", "properties": { "name": "淡水崎仔頂施家古厝", "affection": "古蹟", "category": "宅第", "rank": "市定", "district": "淡水區", "address": "淡水區中正路8巷9號", "new_address": "新北市淡水區中正路8巷9號" }, "geometry": { "type": "Point", "coordinates": [ 121.441502, 25.169969 ] } },
{ "type": "Feature", "properties": { "name": "鶯歌汪洋居", "affection": "古蹟", "category": "宅第", "rank": "市定", "district": "鶯歌區", "address": "鶯歌區文化路275、277、279號", "new_address": "新北市鶯歌區文化路275、277、279號" }, "geometry": { "type": "Point", "coordinates": [ 121.354824, 24.953685 ] } },
{ "type": "Feature", "properties": { "name": "滬尾小學校禮堂", "affection": "古蹟", "category": "其他", "rank": "市定", "district": "淡水區", "address": "淡水區建設街1巷7號", "new_address": "新北市淡水區建設街1巷7號" }, "geometry": { "type": "Point", "coordinates": [ 121.439466, 25.172851 ] } },
{ "type": "Feature", "properties": { "name": "新莊水道記碑", "affection": "古蹟", "category": "碑碣", "rank": "市定", "district": "新莊區", "address": "新莊區十八份坑段十八份坑小段126-1地號", "new_address": "新北市新莊區十八份坑段十八份坑小段126-1地號" }, "geometry": { "type": "Point", "coordinates": [ 121.418985, 25.02786 ] } },
{ "type": "Feature", "properties": { "name": "金瓜石太子賓館", "affection": "古蹟", "category": "宅第", "rank": "市定", "district": "瑞芳區", "address": "新北市瑞芳區金瓜石金光路6號", "new_address": "新北市新北市瑞芳區金瓜石金光路6號" }, "geometry": { "type": "Point", "coordinates": [ 121.855969, 25.108387 ] } },
{ "type": "Feature", "properties": { "name": "金瓜石神社", "affection": "古蹟", "category": "其他", "rank": "市定", "district": "瑞芳區", "address": "瑞芳區金瓜石段36-3、37-1、39-14、39-24、39-67地號", "new_address": "新北市瑞芳區金瓜石段36-3、37-1、39-14、39-24、39-67地號" }, "geometry": { "type": "Point", "coordinates": [ 121.80583, 25.108543 ] } },
{ "type": "Feature", "properties": { "name": "三峽拱橋", "affection": "古蹟", "category": "橋樑", "rank": "市定", "district": "三峽區", "address": "三峽區礁溪段264-8地號", "new_address": "新北市三峽區礁溪段264-8地號" }, "geometry": { "type": "Point", "coordinates": [ 121.37548, 24.933075 ] } },
{ "type": "Feature", "properties": { "name": "新店臺北菸廠鍋爐間及煙囪", "affection": "古蹟", "category": "產業設施", "rank": "市定", "district": "新店區", "address": "新店區安康路2段235號", "new_address": "新北市新店區安康路2段235號" }, "geometry": { "type": "Point", "coordinates": [ 121.516442, 24.963869 ] } },
{ "type": "Feature", "properties": { "name": "淡水日商中野宅", "affection": "古蹟", "category": "宅第", "rank": "市定", "district": "淡水區", "address": "淡水區中正路20巷1號", "new_address": "新北市淡水區中正路20巷1號" }, "geometry": { "type": "Point", "coordinates": [ 121.442689, 25.169653 ] } },
{ "type": "Feature", "properties": { "name": "樹林抗日先烈十三公紀念墓園", "affection": "古蹟", "category": "碑碣", "rank": "市定", "district": "樹林區", "address": "新北市樹林區樹新路、俊英街交叉口", "new_address": "新北市新北市樹林區樹新路、俊英街交叉口" }, "geometry": { "type": "Point", "coordinates": [ 121.426838, 25.006391 ] } },
{ "type": "Feature", "properties": { "name": "淡水重建街14號街屋", "affection": "古蹟", "category": "宅第", "rank": "市定", "district": "淡水區", "address": "新北市淡水區重建街14號", "new_address": "新北市新北市淡水區重建街14號" }, "geometry": { "type": "Point", "coordinates": [ 121.440509, 25.174377 ] } },
{ "type": "Feature", "properties": { "name": "淡水重建街16號街屋", "affection": "古蹟", "category": "宅第", "rank": "市定", "district": "淡水區", "address": "新北市淡水區重建街16號", "new_address": "新北市新北市淡水區重建街16號" }, "geometry": { "type": "Point", "coordinates": [ 121.439696, 25.173971 ] } },
{ "type": "Feature", "properties": { "name": "泰山大窠坑新築道路記念碑", "affection": "古蹟", "category": "碑碣", "rank": "市定", "district": "泰山區", "address": "新北市泰山區大科路38號", "new_address": "新北市新北市泰山區大科路38號" }, "geometry": { "type": "Point", "coordinates": [ 121.412247, 25.060478 ] } },
{ "type": "Feature", "properties": { "name": "淡水臺銀日式宿舍", "affection": "古蹟", "category": "宅第", "rank": "市定", "district": "淡水區", "address": "新北市淡水區中正路235號", "new_address": "新北市新北市淡水區中正路235號" }, "geometry": { "type": "Point", "coordinates": [ 121.861737, 25.047416 ] } },
{ "type": "Feature", "properties": { "name": "于右任墓", "affection": "古蹟", "category": "墓葬", "rank": "市定", "district": "淡水區", "address": "新北市淡水區草麓段2地號", "new_address": "新北市新北市淡水區草麓段2地號" }, "geometry": { "type": "Point", "coordinates": [ 121.46311, 25.016165 ] } },
{ "type": "Feature", "properties": { "name": "平溪南無大悲救苦觀世音菩薩碣", "affection": "古蹟", "category": "碑碣", "rank": "市定", "district": "平溪區", "address": "新北市平溪區石底段嶺腳寮小段207地號", "new_address": "新北市新北市平溪區石底段嶺腳寮小段207地號" }, "geometry": { "type": "Point", "coordinates": [ 121.747071, 25.035297 ] } },
{ "type": "Feature", "properties": { "name": "深坑黃氏興順居", "affection": "古蹟", "category": "宅第", "rank": "市定", "district": "深坑區", "address": "深坑區北深路二段133號", "new_address": "新北市深坑區北深路二段133號" }, "geometry": { "type": "Point", "coordinates": [ 121.615144, 25.002388 ] } },
{ "type": "Feature", "properties": { "name": "板橋迪毅堂", "affection": "古蹟", "category": "寺廟", "rank": "市定", "district": "板橋區", "address": "新北市板橋區館前西路92號", "new_address": "新北市新北市板橋區館前西路92號" }, "geometry": { "type": "Point", "coordinates": [ 121.457402, 25.007305 ] } },
{ "type": "Feature", "properties": { "name": "桂永清墓園", "affection": "古蹟", "category": "墓葬", "rank": "市定", "district": "中和區", "address": "新北市中和區圓通段823、823-1、790、788、787、786地號", "new_address": "新北市新北市中和區圓通段823、823-1、790、788、787、786地號" }, "geometry": { "type": "Point", "coordinates": [ 121.493916, 24.991238 ] } },
{ "type": "Feature", "properties": { "name": "樹林太平橋碑", "affection": "古蹟", "category": "碑碣", "rank": "市定", "district": "樹林區", "address": "新北市樹林區太平段2、43地號", "new_address": "新北市新北市樹林區太平段2、43地號" }, "geometry": { "type": "Point", "coordinates": [ 121.864741, 25.035515 ] } },
{ "type": "Feature", "properties": { "name": "三峽宰樞廟", "affection": "古蹟", "category": "寺廟、祠堂", "rank": "市定", "district": "三峽區", "address": "新北市三峽區秀川街28號", "new_address": "新北市新北市三峽區秀川街28號" }, "geometry": { "type": "Point", "coordinates": [ 121.855101, 25.110148 ] } },
{ "type": "Feature", "properties": { "name": "金瓜石?山事務所所長宿舍", "affection": "古蹟", "category": "宅第", "rank": "市定", "district": "瑞芳區", "address": "新北市瑞芳區金光路38、38-1號。", "new_address": "新北市新北市瑞芳區金光路38、38-1號。" }, "geometry": { "type": "Point", "coordinates": [ 121.853051, 25.107532 ] } },
{ "type": "Feature", "properties": { "name": "台北放送局板橋放送所", "affection": "古蹟", "category": "衙署", "rank": "市定", "district": "板橋區", "address": "新北市板橋區民族路130巷67號", "new_address": "新北市新北市板橋區民族路130巷67號" }, "geometry": { "type": "Point", "coordinates": [ 121.46744, 25.007965 ] } },
{ "type": "Feature", "properties": { "name": "板橋浮洲劉氏古厝", "affection": "古蹟", "category": "宅第", "rank": "市定", "district": "板橋區", "address": "新北市板橋區大觀路一段38巷156弄13、15號", "new_address": "新北市新北市板橋區大觀路一段38巷156弄13、15號" }, "geometry": { "type": "Point", "coordinates": [ 121.443259, 25.007639 ] } },
{ "type": "Feature", "properties": { "name": "泰山李石樵故居", "affection": "古蹟", "category": "宅第", "rank": "市定", "district": "泰山區", "address": "新北市泰山區民生路166號", "new_address": "新北市新北市泰山區民生路166號" }, "geometry": { "type": "Point", "coordinates": [ 121.434812, 25.046919 ] } },
{ "type": "Feature", "properties": { "name": "蘆洲保和宮", "affection": "古蹟", "category": "寺廟", "rank": "市定", "district": "蘆洲區", "address": "新北市蘆洲區成功路182號", "new_address": "新北市新北市蘆洲區成功路182號" }, "geometry": { "type": "Point", "coordinates": [ 121.471346, 25.084058 ] } },
{ "type": "Feature", "properties": { "name": "中和太武山莊", "affection": "古蹟", "category": "宅第", "rank": "市定", "district": "中和區", "address": "新北市中和區民有街55號、57號、59號", "new_address": "新北市新北市中和區民有街55號、57號、59號" }, "geometry": { "type": "Point", "coordinates": [ 121.476375, 25.003932 ] } },
{ "type": "Feature", "properties": { "name": "中和區圓通禪寺", "affection": "古蹟", "category": "寺廟", "rank": "市定", "district": "中和區", "address": "新北市中和區圓通路367巷64號", "new_address": "新北市新北市中和區圓通路367巷64號" }, "geometry": { "type": "Point", "coordinates": [ 121.491213, 24.989584 ] } },
{ "type": "Feature", "properties": { "name": "貢寮新社慈仁宮暨奉憲示禁碑", "affection": "古蹟", "category": "寺廟、碑謁", "rank": "市定", "district": "貢寮區", "address": "新北市貢寮區田寮洋街13號", "new_address": "新北市新北市貢寮區田寮洋街13號" }, "geometry": { "type": "Point", "coordinates": [ 121.46311, 25.016165 ] } },
{ "type": "Feature", "properties": { "name": "林口謙益居", "affection": "古蹟", "category": "宅第", "rank": "市定", "district": "林口區", "address": "新北市林口區頂福90號", "new_address": "新北市新北市林口區頂福90號" }, "geometry": { "type": "Point", "coordinates": [ 121.323073, 25.107206 ] } },
{ "type": "Feature", "properties": { "name": "蘆洲陳頭北古厝", "affection": "古蹟", "category": "宅第", "rank": "市定", "district": "蘆洲區", "address": "新北市蘆洲區中正路485號", "new_address": "新北市新北市蘆洲區中正路485號" }, "geometry": { "type": "Point", "coordinates": [ 121.461977, 25.095897 ] } },
{ "type": "Feature", "properties": { "name": "雙溪雙貢生莊厝", "affection": "古蹟", "category": "宅第", "rank": "市定", "district": "雙溪區", "address": "新北市雙溪區梅竹蹊67號", "new_address": "新北市新北市雙溪區梅竹蹊67號" }, "geometry": { "type": "Point", "coordinates": [ 121.665332, 25.006587 ] } },
{ "type": "Feature", "properties": { "name": "三峽庄役場", "affection": "古蹟", "category": "衙署", "rank": "市定", "district": "三峽區", "address": "新北市三峽區中山路18號", "new_address": "新北市新北市三峽區中山路18號" }, "geometry": { "type": "Point", "coordinates": [ 121.865271, 25.032831 ] } },
{ "type": "Feature", "properties": { "name": "淡水忠寮李舉人宅", "affection": "古蹟", "category": "宅第", "rank": "市定", "district": "淡水區", "address": "新北市淡水區忠寮里5鄰竹圍子8號", "new_address": "新北市新北市淡水區忠寮里5鄰竹圍子8號" }, "geometry": { "type": "Point", "coordinates": [ 121.485227, 25.188863 ] } },
{ "type": "Feature", "properties": { "name": "三峽長福巖清水祖師廟", "affection": "古蹟", "category": "廟宇", "rank": "市定", "district": "三峽區", "address": "新北市三峽區長福街1號", "new_address": "新北市新北市三峽區長福街1號" }, "geometry": { "type": "Point", "coordinates": [ 121.989758, 25.012067 ] } },
{ "type": "Feature", "properties": { "name": "雙溪保我黎民碑", "affection": "古蹟", "category": "碑碣", "rank": "市定", "district": "雙溪區", "address": "新北市雙溪區雙平段968、970、1326地號", "new_address": "新北市新北市雙溪區雙平段968、970、1326地號" }, "geometry": { "type": "Point", "coordinates": [ 121.665332, 25.006587 ] } },
{ "type": "Feature", "properties": { "name": "樹林後村圳分汴及十二股圳取入口", "affection": "古蹟", "category": "碑碣、堤閘", "rank": "市定", "district": "樹林區", "address": "新北市樹林區佳園段737-7、737-8、737-9、737-17、772地號", "new_address": "新北市新北市樹林區佳園段737-7、737-8、737-9、737-17、772地號" }, "geometry": { "type": "Point", "coordinates": [ 121.39112, 24.961109 ] } },
{ "type": "Feature", "properties": { "name": "平溪嶺腳蔡家紅磚洋樓", "affection": "古蹟", "category": "宅第", "rank": "市定", "district": "平溪區", "address": "新北市平溪區嶺腳寮69號", "new_address": "新北市新北市平溪區嶺腳寮69號" }, "geometry": { "type": "Point", "coordinates": [ 121.73821, 25.026903 ] } },
{ "type": "Feature", "properties": { "name": "公司田溪程氏古厝", "affection": "歷史建築", "category": "建築物類", "rank": "市定", "district": "淡水區", "address": "新北市淡水區新民街1段138巷7號", "new_address": "新北市新北市淡水區新民街1段138巷7號" }, "geometry": { "type": "Point", "coordinates": [ 121.438806, 25.176068 ] } },
{ "type": "Feature", "properties": { "name": "明志書院", "affection": "歷史建築", "category": "建築物類", "rank": "市定", "district": "泰山區", "address": "泰山區明志路二段276號", "new_address": "新北市泰山區明志路二段276號" }, "geometry": { "type": "Point", "coordinates": [ 121.426579, 25.046988 ] } },
{ "type": "Feature", "properties": { "name": "蘆洲八角樓", "affection": "歷史建築", "category": "建築物類", "rank": "市定", "district": "蘆洲區", "address": "新北市蘆洲區中山二路195巷12號", "new_address": "新北市新北市蘆洲區中山二路195巷12號" }, "geometry": { "type": "Point", "coordinates": [ 121.47082, 25.080703 ] } },
{ "type": "Feature", "properties": { "name": "瑞芳翁山英故居", "affection": "歷史建築", "category": "建築物類", "rank": "市定", "district": "瑞芳區", "address": "瑞芳區基山街142號", "new_address": "新北市瑞芳區基山街142號" }, "geometry": { "type": "Point", "coordinates": [ 121.843494, 25.108196 ] } },
{ "type": "Feature", "properties": { "name": "八里大眾廟", "affection": "歷史建築", "category": "建築物類", "rank": "市定", "district": "八里區", "address": "八里區龍米路2段200巷5號", "new_address": "新北市八里區龍米路2段200巷5號" }, "geometry": { "type": "Point", "coordinates": [ 121.458458, 25.114582 ] } },
{ "type": "Feature", "properties": { "name": "五股守讓堂", "affection": "歷史建築", "category": "建築物類", "rank": "市定", "district": "五股區", "address": "新北市五股區新五路二段169號", "new_address": "新北市新北市五股區新五路二段169號" }, "geometry": { "type": "Point", "coordinates": [ 121.671283, 25.066722 ] } },
{ "type": "Feature", "properties": { "name": "鶯歌成發居", "affection": "歷史建築", "category": "宅第", "rank": "市定", "district": "鶯歌區", "address": "鶯歌區文化路233號", "new_address": "新北市鶯歌區文化路233號" }, "geometry": { "type": "Point", "coordinates": [ 121.354012, 24.953229 ] } },
{ "type": "Feature", "properties": { "name": "新店區屈尺道碣", "affection": "歷史建築", "category": "碑碣類", "rank": "市定", "district": "新店區", "address": "新店區灣潭路2-9號後方", "new_address": "新北市新店區灣潭路2-9號後方" }, "geometry": { "type": "Point", "coordinates": [ 121.540564, 24.975211 ] } },
{ "type": "Feature", "properties": { "name": "空軍三重一村", "affection": "歷史建築", "category": "其他", "rank": "市定", "district": "三重區", "address": "新北市三重區正義南路86巷", "new_address": "新北市新北市三重區正義南路86巷" }, "geometry": { "type": "Point", "coordinates": [ 121.499419, 25.057882 ] } },
{ "type": "Feature", "properties": { "name": "深坑國小禮堂", "affection": "歷史建築", "category": "其他", "rank": "市定", "district": "深坑區", "address": "深坑區文化街45號", "new_address": "新北市深坑區文化街45號" }, "geometry": { "type": "Point", "coordinates": [ 121.616875, 25.001803 ] } },
{ "type": "Feature", "properties": { "name": "水湳洞選煉廠", "affection": "歷史建築", "category": "產業設施", "rank": "市定", "district": "瑞芳區", "address": "瑞芳區水南洞段20-25、22-1、22-3、180地號", "new_address": "新北市瑞芳區水南洞段20-25、22-1、22-3、180地號" }, "geometry": { "type": "Point", "coordinates": [ 121.887793, 25.120771 ] } },
{ "type": "Feature", "properties": { "name": "八里國民小學紅磚教室", "affection": "歷史建築", "category": "其他", "rank": "市定", "district": "八里區", "address": "新北市八里區中山路2段338號", "new_address": "新北市新北市八里區中山路2段338號" }, "geometry": { "type": "Point", "coordinates": [ 121.865213, 25.032341 ] } },
{ "type": "Feature", "properties": { "name": "安坑國小宿舍", "affection": "歷史建築", "category": "宅第", "rank": "市定", "district": "新店區", "address": "新店區安忠路36號", "new_address": "新北市新店區安忠路36號" }, "geometry": { "type": "Point", "coordinates": [ 121.514157, 24.961301 ] } },
{ "type": "Feature", "properties": { "name": "新店臺北菸廠", "affection": "歷史建築", "category": "產業設施", "rank": "市定", "district": "新店區", "address": "新店區安康路2段235號", "new_address": "新北市新店區安康路2段235號" }, "geometry": { "type": "Point", "coordinates": [ 121.516442, 24.963869 ] } },
{ "type": "Feature", "properties": { "name": "新店二十張景美軍事看守所", "affection": "歷史建築", "category": "衙署", "rank": "市定", "district": "新店區", "address": "新店區復興路131號", "new_address": "新北市新店區復興路131號" }, "geometry": { "type": "Point", "coordinates": [ 121.531589, 24.988489 ] } },
{ "type": "Feature", "properties": { "name": "淡水日本警官宿舍", "affection": "歷史建築", "category": "宅第", "rank": "市定", "district": "淡水區", "address": "淡水區中正路12巷五號", "new_address": "新北市淡水區中正路12巷五號" }, "geometry": { "type": "Point", "coordinates": [ 121.440232, 25.170635 ] } },
{ "type": "Feature", "properties": { "name": "新莊樂生療養院", "affection": "歷史建築", "category": "產業設施", "rank": "市定", "district": "新莊區", "address": "新北市新莊區中正路794號", "new_address": "新北市新北市新莊區中正路794號" }, "geometry": { "type": "Point", "coordinates": [ 121.409851, 25.021622 ] } },
{ "type": "Feature", "properties": { "name": "新莊武德殿", "affection": "歷史建築", "category": "其他", "rank": "市定", "district": "新莊區", "address": "新北市新莊區大觀街31巷11號", "new_address": "新北市新北市新莊區大觀街31巷11號" }, "geometry": { "type": "Point", "coordinates": [ 121.453189, 25.035449 ] } },
{ "type": "Feature", "properties": { "name": "淡水木下靜涯舊居", "affection": "歷史建築", "category": "宅第", "rank": "市定", "district": "淡水區", "address": "新北市淡水區三民街2巷2號", "new_address": "新北市新北市淡水區三民街2巷2號" }, "geometry": { "type": "Point", "coordinates": [ 121.439438, 25.171935 ] } },
{ "type": "Feature", "properties": { "name": "樹林柑園國小育英堂", "affection": "歷史建築", "category": "其他", "rank": "市定", "district": "樹林區", "address": "新北市樹林區柑園街一段535號", "new_address": "新北市新北市樹林區柑園街一段535號" }, "geometry": { "type": "Point", "coordinates": [ 121.399966, 24.957759 ] } },
{ "type": "Feature", "properties": { "name": "平溪臺陽?業?長宿舍", "affection": "歷史建築", "category": "宅第", "rank": "市定", "district": "平溪區", "address": "新北市平溪區白石村白石腳5號", "new_address": "新北市新北市平溪區白石村白石腳5號" }, "geometry": { "type": "Point", "coordinates": [ 121.721655, 25.021761 ] } },
{ "type": "Feature", "properties": { "name": "猴硐鳥居神社", "affection": "歷史建築", "category": "牌坊", "rank": "市定", "district": "瑞芳區", "address": "新北市瑞芳區猴硐段106地號", "new_address": "新北市新北市瑞芳區猴硐段106地號" }, "geometry": { "type": "Point", "coordinates": [ 121.46311, 25.016165 ] } },
{ "type": "Feature", "properties": { "name": "猴硐介壽橋紀念碑", "affection": "歷史建築", "category": "碑碣", "rank": "市定", "district": "瑞芳區", "address": "新北市瑞芳區猴硐段106地號", "new_address": "新北市新北市瑞芳區猴硐段106地號" }, "geometry": { "type": "Point", "coordinates": [ 121.46311, 25.016165 ] } },
{ "type": "Feature", "properties": { "name": "新店劉氏家廟（啟文堂）", "affection": "歷史建築", "category": "宗祠", "rank": "市定", "district": "新店區", "address": "新北市新店區央北二路206巷6號", "new_address": "新北市新北市新店區央北二路206巷6號" }, "geometry": { "type": "Point", "coordinates": [ 121.52739, 24.980467 ] } },
{ "type": "Feature", "properties": { "name": "粗坑發電廠", "affection": "歷史建築", "category": "產業設施", "rank": "市定", "district": "新店區", "address": "新店區永興路45號", "new_address": "新北市新店區永興路45號" }, "geometry": { "type": "Point", "coordinates": [ 121.543478, 24.938735 ] } },
{ "type": "Feature", "properties": { "name": "桂山發電廠", "affection": "歷史建築", "category": "產業設施", "rank": "市定", "district": "新店區", "address": "新店區桂山路37號", "new_address": "新北市新店區桂山路37號" }, "geometry": { "type": "Point", "coordinates": [ 121.559398, 24.902967 ] } },
{ "type": "Feature", "properties": { "name": "烏來發電廠", "affection": "歷史建築", "category": "產業設施", "rank": "市定", "district": "烏來區", "address": "烏來區啦卡路9巷9號", "new_address": "新北市烏來區啦卡路9巷9號" }, "geometry": { "type": "Point", "coordinates": [ 121.554548, 24.862084 ] } },
{ "type": "Feature", "properties": { "name": "平溪灰窯", "affection": "歷史建築", "category": "產業設施", "rank": "市定", "district": "平溪區", "address": "平溪區十分寮段平溪子小段146地號", "new_address": "新北市平溪區十分寮段平溪子小段146地號" }, "geometry": { "type": "Point", "coordinates": [ 121.77849, 25.04378 ] } },
{ "type": "Feature", "properties": { "name": "新店劉氏利記公厝", "affection": "歷史建築", "category": "宅第", "rank": "市定", "district": "新店區", "address": "新北市新店區央北二路206巷6號", "new_address": "新北市新北市新店區央北二路206巷6號" }, "geometry": { "type": "Point", "coordinates": [ 121.52739, 24.980467 ] } },
{ "type": "Feature", "properties": { "name": "平溪頌德碑", "affection": "歷史建築", "category": "碑碣類", "rank": "市定", "district": "平溪區", "address": "平溪區石底段平溪子小段152地號", "new_address": "新北市平溪區石底段平溪子小段152地號" }, "geometry": { "type": "Point", "coordinates": [ 121.738981, 25.025255 ] } },
{ "type": "Feature", "properties": { "name": "新莊潮江寺", "affection": "歷史建築", "category": "寺廟", "rank": "市定", "district": "新莊區", "address": "新莊區碧江街47號", "new_address": "新北市新莊區碧江街47號" }, "geometry": { "type": "Point", "coordinates": [ 121.451504, 25.033095 ] } },
{ "type": "Feature", "properties": { "name": "基隆港務局淡水宿舍", "affection": "歷史建築", "category": "宅第", "rank": "市定", "district": "淡水區", "address": "淡水區中正路251-1號", "new_address": "新北市淡水區中正路251-1號" }, "geometry": { "type": "Point", "coordinates": [ 121.445006, 25.172283 ] } },
{ "type": "Feature", "properties": { "name": "新店大坪林劉氏文記堂", "affection": "歷史建築", "category": "宅第", "rank": "市定", "district": "新店區", "address": "新北市新店區央北二路206巷6號", "new_address": "新北市新北市新店區央北二路206巷6號" }, "geometry": { "type": "Point", "coordinates": [ 121.52739, 24.980467 ] } },
{ "type": "Feature", "properties": { "name": "樹林日式警察宿舍", "affection": "歷史建築", "category": "宅第", "rank": "市定", "district": "樹林區", "address": "新北市樹林區鎮前街31之1號", "new_address": "新北市新北市樹林區鎮前街31之1號" }, "geometry": { "type": "Point", "coordinates": [ 121.42486, 24.989564 ] } },
{ "type": "Feature", "properties": { "name": "新店國小宿舍", "affection": "歷史建築", "category": "宅第", "rank": "市定", "district": "新店區", "address": "新店區國校路7號、9號", "new_address": "新北市新店區國校路7號、9號" }, "geometry": { "type": "Point", "coordinates": [ 121.538047, 24.956705 ] } },
{ "type": "Feature", "properties": { "name": "鶯歌國小舊校舍", "affection": "歷史建築", "category": "其他", "rank": "市定", "district": "鶯歌區", "address": "新北市鶯歌區尖山埔路106號", "new_address": "新北市新北市鶯歌區尖山埔路106號" }, "geometry": { "type": "Point", "coordinates": [ 121.346282, 24.950306 ] } },
{ "type": "Feature", "properties": { "name": "土城普安堂", "affection": "歷史建築", "category": "寺廟", "rank": "市定", "district": "土城區", "address": "新北市土城區祖田里龍泉路47號", "new_address": "新北市新北市土城區祖田里龍泉路47號" }, "geometry": { "type": "Point", "coordinates": [ 121.46311, 25.016165 ] } },
{ "type": "Feature", "properties": { "name": "鶯歌烘爐窯", "affection": "歷史建築", "category": "產業設施", "rank": "市定", "district": "鶯歌區", "address": "新北市鶯歌區文化路213巷40號", "new_address": "新北市新北市鶯歌區文化路213巷40號" }, "geometry": { "type": "Point", "coordinates": [ 121.355457, 24.95342 ] } },
{ "type": "Feature", "properties": { "name": "後村圳灌溉改善工程紀念碑及水門", "affection": "歷史建築", "category": "碑碣、堤閘", "rank": "市定", "district": "新莊區", "address": "新北市新莊區新樹段517、522、524地號", "new_address": "新北市新北市新莊區新樹段517、522、524地號" }, "geometry": { "type": "Point", "coordinates": [ 121.432824, 25.017114 ] } },
{ "type": "Feature", "properties": { "name": "汐止忠順廟及神社石燈", "affection": "歷史建築", "category": "寺廟", "rank": "市定", "district": "汐止區", "address": "新北市汐止區公園路10號", "new_address": "新北市新北市汐止區公園路10號" }, "geometry": { "type": "Point", "coordinates": [ 121.658961, 25.068519 ] } },
{ "type": "Feature", "properties": { "name": "三峽挹翠樓", "affection": "歷史建築", "category": "宅第", "rank": "市定", "district": "三峽區", "address": "新北市三峽區民權街84巷7號", "new_address": "新北市新北市三峽區民權街84巷7號" }, "geometry": { "type": "Point", "coordinates": [ 121.36871, 24.933155 ] } },
{ "type": "Feature", "properties": { "name": "新店胡璉將軍故居", "affection": "歷史建築", "category": "宅第", "rank": "市定", "district": "瑞芳區", "address": "新北市瑞芳區金瓜石段20、20-9、20-10、20- 11、20-91地號", "new_address": "新北市新北市瑞芳區金瓜石段20、20-9、20-10、20- 11、20-91地號" }, "geometry": { "type": "Point", "coordinates": [ 121.46311, 25.016165 ] } },
{ "type": "Feature", "properties": { "name": "三瓜子及三貂嶺舊隧道", "affection": "歷史建築", "category": "其他設施-隧道", "rank": "市定", "district": "新店區", "address": "新北市新店區安康路一段195巷10號、12號", "new_address": "新北市新北市新店區安康路一段195巷10號、12號" }, "geometry": { "type": "Point", "coordinates": [ 121.52641, 24.962327 ] } },
{ "type": "Feature", "properties": { "name": "金包里慈護宮", "affection": "歷史建築", "category": "寺廟", "rank": "市定", "district": "樹林區", "address": "新北市樹林區西園段1186、1187、1188、1191、2194地號", "new_address": "新北市新北市樹林區西園段1186、1187、1188、1191、2194地號" }, "geometry": { "type": "Point", "coordinates": [ 121.374886, 24.95248 ] } },
{ "type": "Feature", "properties": { "name": "八里樂山園", "affection": "歷史建築", "category": "其他設施-療養機構設施", "rank": "市定", "district": "八里區", "address": "新北市八里區中華路3段187號", "new_address": "新北市新北市八里區中華路3段187號" }, "geometry": { "type": "Point", "coordinates": [ 121.865865, 25.036533 ] } },
{ "type": "Feature", "properties": { "name": "三芝後厝里石滬", "affection": "歷史建築", "category": "產業設施", "rank": "市定", "district": "三芝區", "address": "新北市三芝區後厝里淺水灣南側大片頭", "new_address": "新北市新北市三芝區後厝里淺水灣南側大片頭" }, "geometry": { "type": "Point", "coordinates": [ 121.475586, 25.256147 ] } },
{ "type": "Feature", "properties": { "name": "新莊嚴禁截流塞狹圳道碑記", "affection": "歷史建築", "category": "碑碣", "rank": "市定", "district": "新莊區", "address": "新北市新莊區中正路143號保元宮旁", "new_address": "新北市新北市新莊區中正路143號保元宮旁" }, "geometry": { "type": "Point", "coordinates": [ 121.861809, 25.047324 ] } },
{ "type": "Feature", "properties": { "name": "擺接義塚大墓公", "affection": "歷史建築", "category": "墓葬", "rank": "市定", "district": "土城區", "address": "新北市土城區忠義路61號", "new_address": "新北市新北市土城區忠義路61號" }, "geometry": { "type": "Point", "coordinates": [ 121.6269, 25.261221 ] } },
{ "type": "Feature", "properties": { "name": "汐止水道布設記碑", "affection": "歷史建築", "category": "碑碣", "rank": "市定", "district": "汐止區", "address": "白雲淨水場上游200公尺處", "new_address": "新北市白雲淨水場上游200公尺處" }, "geometry": { "type": "Point", "coordinates": [ 121.65599, 25.056408 ] } },
{ "type": "Feature", "properties": { "name": "馬崗街11、12號民宅", "affection": "歷史建築", "category": "宅第", "rank": "市定", "district": "貢寮區", "address": "新北市貢寮區馬崗街11、12號", "new_address": "新北市新北市貢寮區馬崗街11、12號" }, "geometry": { "type": "Point", "coordinates": [ 121.999395, 25.013607 ] } },
{ "type": "Feature", "properties": { "name": "烏來加九寮臺車道橋樑遺構", "affection": "歷史建築", "category": "橋樑", "rank": "市定", "district": "烏來區", "address": "新北市烏來區烏沙段2、21地號", "new_address": "新北市新北市烏來區烏沙段2、21地號" }, "geometry": { "type": "Point", "coordinates": [ 121.46311, 25.016165 ] } },
{ "type": "Feature", "properties": { "name": "新莊挑水巷隘門", "affection": "歷史建築", "category": "關塞", "rank": "市定", "district": "新莊區", "address": "新北市新莊區新莊路278巷", "new_address": "新北市新北市新莊區新莊路278巷" }, "geometry": { "type": "Point", "coordinates": [ 121.451595, 25.033866 ] } },
{ "type": "Feature", "properties": { "name": "新店和美煤礦", "affection": "歷史建築", "category": "產業設施", "rank": "市定", "district": "新店區", "address": "新北市新店區直潭段灣潭小段8-23地號", "new_address": "新北市新北市新店區直潭段灣潭小段8-23地號" }, "geometry": { "type": "Point", "coordinates": [ 121.53187, 24.93794 ] } },
{ "type": "Feature", "properties": { "name": "卯澳吳家樓仔厝", "affection": "歷史建築", "category": "宅第", "rank": "市定", "district": "貢寮區", "address": "新北市貢寮區福連街10號", "new_address": "新北市新北市貢寮區福連街10號" }, "geometry": { "type": "Point", "coordinates": [ 121.98809, 25.013052 ] } },
{ "type": "Feature", "properties": { "name": "三峽蘇萬利古厝", "affection": "歷史建築", "category": "宅第", "rank": "市定", "district": "三峽區", "address": "新北市三峽區介壽路2段24-5號", "new_address": "新北市新北市三峽區介壽路2段24-5號" }, "geometry": { "type": "Point", "coordinates": [ 121.498919, 25.06997 ] } },
{ "type": "Feature", "properties": { "name": "新莊原興直公學校舊校舍", "affection": "歷史建築", "category": "學校", "rank": "市定", "district": "新莊區", "address": "新北市新莊區中正路86號", "new_address": "新北市新北市新莊區中正路86號" }, "geometry": { "type": "Point", "coordinates": [ 121.80542, 25.107751 ] } },
{ "type": "Feature", "properties": { "name": "金山朱銘美術館", "affection": "紀念建築", "category": "博物館", "rank": "市定", "district": "金山區", "address": "新北市金山區西勢湖2號", "new_address": "新北市新北市金山區西勢湖2號" }, "geometry": { "type": "Point", "coordinates": [ 121.853896, 25.07772 ] } },
{ "type": "Feature", "properties": { "name": "汐止杜月笙墓園", "affection": "紀念建築", "category": "墓葬", "rank": "市定", "district": "汐止區", "address": "新北市汐止區水源段709、856、857、857-1、862地號", "new_address": "新北市新北市汐止區水源段709、856、857、857-1、862地號" }, "geometry": { "type": "Point", "coordinates": [ 121.46311, 25.016165 ] } },
{ "type": "Feature", "properties": { "name": "三芝源興居", "affection": "紀念建築", "category": "宅第", "rank": "市定", "district": "三芝區", "address": "新北市三芝區埔頭坑154號", "new_address": "新北市新北市三芝區埔頭坑154號" }, "geometry": { "type": "Point", "coordinates": [ 121.506689, 25.257033 ] } },
{ "type": "Feature", "properties": { "name": "十三行考古遺址", "affection": "考古遺址", "category": "考古遺址", "rank": "國定", "district": "八里區", "address": "八里區頂罟村信義路186號", "new_address": "新北市八里區頂罟村信義路186號" }, "geometry": { "type": "Point", "coordinates": [ 121.41085, 25.15937 ] } },
{ "type": "Feature", "properties": { "name": "土地公山考古遺址", "affection": "考古遺址", "category": "考古遺址", "rank": "市定", "district": "土城區", "address": "土城區員仁段", "new_address": "新北市土城區員仁段" }, "geometry": { "type": "Point", "coordinates": [ 121.43993, 24.971373 ] } },
{ "type": "Feature", "properties": { "name": "狗蹄山考古遺址", "affection": "考古遺址", "category": "考古遺址", "rank": "市定", "district": "樹林區", "address": "樹林區樹林國小西側，大安路以西坡地", "new_address": "新北市樹林區樹林國小西側，大安路以西坡地" }, "geometry": { "type": "Point", "coordinates": [ 121.420377, 24.995379 ] } },
{ "type": "Feature", "properties": { "name": "斬龍山考古考古遺址", "affection": "考古遺址", "category": "考古遺址", "rank": "市定", "district": "土城區", "address": "新北市土城區明德段73-1地號", "new_address": "新北市新北市土城區明德段73-1地號" }, "geometry": { "type": "Point", "coordinates": [ 121.46311, 25.016165 ] } },
{ "type": "Feature", "properties": { "name": "鶯歌石", "affection": "文化景觀", "category": "文化景觀", "rank": "市定", "district": "鶯歌區", "address": "鶯歌區中山段56、56-1、59地號", "new_address": "新北市鶯歌區中山段56、56-1、59地號" }, "geometry": { "type": "Point", "coordinates": [ 121.347968, 24.956982 ] } },
{ "type": "Feature", "properties": { "name": "瑞芳區臺金濂洞煉銅廠煙道", "affection": "文化景觀", "category": "文化景觀", "rank": "市定", "district": "瑞芳區", "address": "新北市瑞芳區水湳洞", "new_address": "新北市新北市瑞芳區水湳洞" }, "geometry": { "type": "Point", "coordinates": [ 121.46311, 25.016165 ] } },
{ "type": "Feature", "properties": { "name": "平溪區竿蓁坑古道", "affection": "文化景觀", "category": "文化景觀", "rank": "市定", "district": "平溪區", "address": "新北市平溪區", "new_address": "新北市新北市平溪區" }, "geometry": { "type": "Point", "coordinates": [ 121.73821, 25.026903 ] } },
{ "type": "Feature", "properties": { "name": "D51型煤水蒸氣火車頭", "affection": "古物", "category": "一般古物", "rank": "市定", "district": "板橋區", "address": "新北市藝文中心", "new_address": "新北市新北市藝文中心" }, "geometry": { "type": "Point", "coordinates": [ 121.787849, 24.955901 ] } },
{ "type": "Feature", "properties": { "name": "坪林虎字碑", "affection": "古物", "category": "一般古物", "rank": "市定", "district": "坪林區", "address": "新北市坪林區水德村水聳淒坑19之1號", "new_address": "新北市新北市坪林區水德村水聳淒坑19之1號" }, "geometry": { "type": "Point", "coordinates": [ 121.712761, 24.934336 ] } },
{ "type": "Feature", "properties": { "name": "木雕邢府王爺像（附木椅）", "affection": "古物", "category": "一般古物", "rank": "市定", "district": "樹林區", "address": "新北市樹林區彭興里太平路247巷26號", "new_address": "新北市新北市樹林區彭興里太平路247巷26號" }, "geometry": { "type": "Point", "coordinates": [ 121.420623, 24.974792 ] } },
{ "type": "Feature", "properties": { "name": "皇明「黃公郭氏圓」墓碑", "affection": "古物", "category": "一般古物", "rank": "市定", "district": "淡水區", "address": "新北市淡水區中正路28巷1號", "new_address": "新北市新北市淡水區中正路28巷1號" }, "geometry": { "type": "Point", "coordinates": [ 121.864658, 25.037939 ] } },
{ "type": "Feature", "properties": { "name": "八里坌仔社「給永佃墾批契」", "affection": "古物", "category": "一般古物", "rank": "市定", "district": "八里區", "address": "新北市八里區博物館路200號", "new_address": "新北市新北市八里區博物館路200號" }, "geometry": { "type": "Point", "coordinates": [ 121.405007, 25.156996 ] } },
{ "type": "Feature", "properties": { "name": "聖旨碑", "affection": "古物", "category": "一般古物", "rank": "市定", "district": "板橋區", "address": "新北市板橋區府中路169號9樓", "new_address": "新北市新北市板橋區府中路169號9樓" }, "geometry": { "type": "Point", "coordinates": [ 121.454881, 25.009191 ] } },
{ "type": "Feature", "properties": { "name": "「光祿第」匾額", "affection": "古物", "category": "一般古物", "rank": "市定", "district": "板橋區", "address": "新北市板橋區府中路169號9樓", "new_address": "新北市新北市板橋區府中路169號9樓" }, "geometry": { "type": "Point", "coordinates": [ 121.454881, 25.009191 ] } },
{ "type": "Feature", "properties": { "name": "「尚義可風」匾額", "affection": "古物", "category": "一般古物", "rank": "市定", "district": "板橋區", "address": "新北市板橋區府中路169號9樓", "new_address": "新北市新北市板橋區府中路169號9樓" }, "geometry": { "type": "Point", "coordinates": [ 121.454881, 25.009191 ] } },
{ "type": "Feature", "properties": { "name": "開基金面二媽神像", "affection": "古物", "category": "一般古物", "rank": "市定", "district": "金山區", "address": "新北市金山區金包里街16號", "new_address": "新北市新北市金山區金包里街16號" }, "geometry": { "type": "Point", "coordinates": [ 121.640294, 25.220796 ] } },
{ "type": "Feature", "properties": { "name": "安平縣雜記(抄本)", "affection": "古物", "category": "重要古物", "rank": "國定", "district": "中和區", "address": "新北市中和區中安街85號", "new_address": "新北市新北市中和區中安街85號" }, "geometry": { "type": "Point", "coordinates": [ 121.512296, 25.001618 ] } },
{ "type": "Feature", "properties": { "name": "新竹縣制度考(抄本)", "affection": "古物", "category": "重要古物", "rank": "國定", "district": "中和區", "address": "新北市中和區中安街85號", "new_address": "新北市新北市中和區中安街85號" }, "geometry": { "type": "Point", "coordinates": [ 121.512296, 25.001618 ] } },
{ "type": "Feature", "properties": { "name": "臺灣地輿總圖", "affection": "古物", "category": "重要古物", "rank": "國定", "district": "中和區", "address": "新北市中和區中安街85號", "new_address": "新北市新北市中和區中安街85號" }, "geometry": { "type": "Point", "coordinates": [ 121.512296, 25.001618 ] } },
{ "type": "Feature", "properties": { "name": "番社采風圖考(抄本)", "affection": "古物", "category": "重要古物", "rank": "國定", "district": "中和區", "address": "新北市中和區中安街85號", "new_address": "新北市新北市中和區中安街85號" }, "geometry": { "type": "Point", "coordinates": [ 121.512296, 25.001618 ] } },
{ "type": "Feature", "properties": { "name": "六十七兩采風圖合卷", "affection": "古物", "category": "重要古物", "rank": "國定", "district": "中和區", "address": "新北市中和區中安街85號", "new_address": "新北市新北市中和區中安街85號" }, "geometry": { "type": "Point", "coordinates": [ 121.512296, 25.001618 ] } },
{ "type": "Feature", "properties": { "name": "臺鐵公文檔案(工務處石牌倉庫)", "affection": "古物", "category": "重要古物", "rank": "國定", "district": "新莊區", "address": "新北市新莊區中平路439號(北棟)9樓", "new_address": "新北市新北市新莊區中平路439號(北棟)9樓" }, "geometry": { "type": "Point", "coordinates": [ 121.443855, 25.056184 ] } },
{ "type": "Feature", "properties": { "name": "臺鐵技術檔案（工務處石牌倉庫）", "affection": "古物", "category": "重要古物", "rank": "國定", "district": "新莊區", "address": "新北市新莊區中平路439號(北棟)9樓", "new_address": "新北市新北市新莊區中平路439號(北棟)9樓" }, "geometry": { "type": "Point", "coordinates": [ 121.443855, 25.056184 ] } },
{ "type": "Feature", "properties": { "name": "歌仔戲（廖瓊枝）", "affection": "傳統表演藝術", "category": "戲曲", "rank": "重要傳統表演藝術", "district": "新店區", "address": "新北市新店區", "new_address": "新北市新北市新店區" }, "geometry": { "type": "Point", "coordinates": [ 121.871782, 25.031628 ] } },
{ "type": "Feature", "properties": { "name": "說唱（楊秀卿）", "affection": "傳統表演藝術", "category": "說唱", "rank": "重要傳統表演藝術", "district": "汐止區", "address": "新北市汐止區", "new_address": "新北市新北市汐止區" }, "geometry": { "type": "Point", "coordinates": [ 121.46311, 25.016165 ] } },
{ "type": "Feature", "properties": { "name": "北管音樂（邱火榮）", "affection": "傳統表演藝術", "category": "音樂", "rank": "重要傳統表演藝術", "district": "蘆洲區", "address": "新北市蘆洲區", "new_address": "新北市新北市蘆洲區" }, "geometry": { "type": "Point", "coordinates": [ 121.46311, 25.016165 ] } },
{ "type": "Feature", "properties": { "name": "布袋戲（亦宛然掌中劇團）", "affection": "傳統表演藝術", "category": "戲曲", "rank": "傳統表演藝術", "district": "三芝區", "address": "新北市三芝區", "new_address": "新北市新北市三芝區" }, "geometry": { "type": "Point", "coordinates": [ 121.46311, 25.016165 ] } },
{ "type": "Feature", "properties": { "name": "布袋戲（江賜美）", "affection": "傳統表演藝術", "category": "戲曲", "rank": "重要傳統表演藝術", "district": "新莊區", "address": "新北市新莊區", "new_address": "新北市新北市新莊區" }, "geometry": { "type": "Point", "coordinates": [ 121.445435, 25.0315 ] } },
{ "type": "Feature", "properties": { "name": "北管音樂（板橋潮和社）", "affection": "傳統表演藝術", "category": "音樂", "rank": "傳統表演藝術", "district": "板橋區", "address": "新北市板橋區", "new_address": "新北市新北市板橋區" }, "geometry": { "type": "Point", "coordinates": [ 121.46311, 25.016165 ] } },
{ "type": "Feature", "properties": { "name": "歌仔戲文場音樂（林竹岸）", "affection": "傳統表演藝術", "category": "戲曲", "rank": "重要傳統表演藝術", "district": "板橋區", "address": "新北市板橋區", "new_address": "新北市新北市板橋區" }, "geometry": { "type": "Point", "coordinates": [ 121.46311, 25.016165 ] } },
{ "type": "Feature", "properties": { "name": "醒獅陣（張遠榮）", "affection": "傳統表演藝術", "category": "雜技", "rank": "傳統表演藝術", "district": "板橋區", "address": "新北市板橋區", "new_address": "新北市新北市板橋區" }, "geometry": { "type": "Point", "coordinates": [ 121.46311, 25.016165 ] } },
{ "type": "Feature", "properties": { "name": "北管音樂（淡水南北軒）", "affection": "傳統表演藝術", "category": "音樂", "rank": "傳統表演藝術", "district": "淡水區", "address": "新北市淡水區", "new_address": "新北市新北市淡水區" }, "geometry": { "type": "Point", "coordinates": [ 121.46311, 25.016165 ] } },
{ "type": "Feature", "properties": { "name": "說唱（王玉川）", "affection": "傳統表演藝術", "category": "歌謠", "rank": "傳統表演藝術", "district": "板橋區", "address": "新北市板橋區", "new_address": "新北市新北市板橋區" }, "geometry": { "type": "Point", "coordinates": [ 121.46311, 25.016165 ] } },
{ "type": "Feature", "properties": { "name": "交加戲(九甲戲)（南管新錦珠）", "affection": "傳統表演藝術", "category": "戲曲", "rank": "傳統表演藝術", "district": "三重區", "address": "新北市三重區", "new_address": "新北市新北市三重區" }, "geometry": { "type": "Point", "coordinates": [ 121.486794, 25.069686 ] } },
{ "type": "Feature", "properties": { "name": "說唱（陳美珠、陳寶貴）", "affection": "傳統表演藝術", "category": "說唱", "rank": "傳統表演藝術", "district": "淡水區", "address": "新北市淡水區", "new_address": "新北市新北市淡水區" }, "geometry": { "type": "Point", "coordinates": [ 121.46311, 25.016165 ] } },
{ "type": "Feature", "properties": { "name": "歌仔戲（周洪明雪）", "affection": "傳統表演藝術", "category": "戲曲", "rank": "傳統表演藝術", "district": "新莊區", "address": "新北市新莊區", "new_address": "新北市新北市新莊區" }, "geometry": { "type": "Point", "coordinates": [ 121.445435, 25.0315 ] } },
{ "type": "Feature", "properties": { "name": "北管戲曲（林口樂林園管理委員會）", "affection": "傳統表演藝術", "category": "音樂、戲曲", "rank": "傳統表演藝術", "district": "林口區", "address": "新北市林口區", "new_address": "新北市新北市林口區" }, "geometry": { "type": "Point", "coordinates": [ 121.46311, 25.016165 ] } },
{ "type": "Feature", "properties": { "name": "歌仔戲（王束花）", "affection": "傳統表演藝術", "category": "戲曲", "rank": "傳統表演藝術", "district": "板橋區", "address": "新北市板橋區", "new_address": "新北市新北市板橋區" }, "geometry": { "type": "Point", "coordinates": [ 121.46311, 25.016165 ] } },
{ "type": "Feature", "properties": { "name": "京劇(梅派)京胡藝術（吳明生）", "affection": "傳統表演藝術", "category": "戲曲音樂", "rank": "傳統表演藝術", "district": "中和區", "address": "新北市中和區", "new_address": "新北市新北市中和區" }, "geometry": { "type": "Point", "coordinates": [ 121.48495, 25.232754 ] } },
{ "type": "Feature", "properties": { "name": "北管音樂（詹文贊）", "affection": "傳統表演藝術", "category": "音樂", "rank": "傳統表演藝術", "district": "淡水區", "address": "新北市淡水區", "new_address": "新北市新北市淡水區" }, "geometry": { "type": "Point", "coordinates": [ 121.46311, 25.016165 ] } },
{ "type": "Feature", "properties": { "name": "布袋戲（許正宗）", "affection": "傳統表演藝術", "category": "戲曲", "rank": "傳統表演藝術", "district": "新莊區", "address": "新北市新莊區", "new_address": "新北市新北市新莊區" }, "geometry": { "type": "Point", "coordinates": [ 121.445435, 25.0315 ] } },
{ "type": "Feature", "properties": { "name": "製鼓工藝（王錫坤）", "affection": "傳統工藝", "category": "其他-製鼓", "rank": "傳統工藝", "district": "新莊區", "address": "新北市新莊區", "new_address": "新北市新北市新莊區" }, "geometry": { "type": "Point", "coordinates": [ 121.445435, 25.0315 ] } },
{ "type": "Feature", "properties": { "name": "金屬工藝（謝錦鐘）", "affection": "傳統工藝", "category": "金工", "rank": "傳統工藝", "district": "中和區", "address": "新北市中和區", "new_address": "新北市新北市中和區" }, "geometry": { "type": "Point", "coordinates": [ 121.48495, 25.232754 ] } },
{ "type": "Feature", "properties": { "name": "製墨（陳嘉德）", "affection": "傳統工藝", "category": "其他-製墨", "rank": "傳統工藝", "district": "三重區", "address": "新北市三重區", "new_address": "新北市新北市三重區" }, "geometry": { "type": "Point", "coordinates": [ 121.486794, 25.069686 ] } },
{ "type": "Feature", "properties": { "name": "剪紙（李煥章）", "affection": "傳統工藝", "category": "其他-紙屬工藝", "rank": "重要傳統工藝", "district": "三重區", "address": "新北市三重區", "new_address": "新北市新北市三重區" }, "geometry": { "type": "Point", "coordinates": [ 121.486794, 25.069686 ] } },
{ "type": "Feature", "properties": { "name": "銅鑼工藝（吳宗霖）", "affection": "傳統工藝", "category": "其他-銅鑼工藝", "rank": "傳統工藝", "district": "烏來區", "address": "新北市烏來區", "new_address": "新北市新北市烏來區" }, "geometry": { "type": "Point", "coordinates": [ 121.46311, 25.016165 ] } },
{ "type": "Feature", "properties": { "name": "木雕（洪耀輝）", "affection": "傳統工藝", "category": "木作", "rank": "傳統工藝", "district": "三峽區", "address": "新北市三峽區", "new_address": "新北市新北市三峽區" }, "geometry": { "type": "Point", "coordinates": [ 121.46311, 25.016165 ] } },
{ "type": "Feature", "properties": { "name": "石雕（劉英宏）", "affection": "傳統工藝", "category": "雕塑", "rank": "傳統工藝", "district": "三峽區", "address": "新北市三峽區", "new_address": "新北市新北市三峽區" }, "geometry": { "type": "Point", "coordinates": [ 121.46311, 25.016165 ] } },
{ "type": "Feature", "properties": { "name": "糊紙（張徐沛）", "affection": "傳統工藝", "category": "其他-糊紙", "rank": "傳統工藝", "district": "新莊區", "address": "新北市新莊區", "new_address": "新北市新北市新莊區" }, "geometry": { "type": "Point", "coordinates": [ 121.445435, 25.0315 ] } },
{ "type": "Feature", "properties": { "name": "泥作工藝（楊重家）", "affection": "傳統工藝", "category": "泥作", "rank": "傳統工藝", "district": "三重區", "address": "新北市三重區", "new_address": "新北市新北市三重區" }, "geometry": { "type": "Point", "coordinates": [ 121.486794, 25.069686 ] } },
{ "type": "Feature", "properties": { "name": "傳統彩繪（莊武男）", "affection": "傳統工藝", "category": "傳統工藝美術", "rank": "重要傳統工藝", "district": "淡水區", "address": "新北市淡水區", "new_address": "新北市新北市淡水區" }, "geometry": { "type": "Point", "coordinates": [ 121.46311, 25.016165 ] } },
{ "type": "Feature", "properties": { "name": "花燈工藝 （林玉珠）", "affection": "傳統工藝", "category": "其他-花燈工藝", "rank": "傳統工藝", "district": "新店區", "address": "新北市新店區", "new_address": "新北市新北市新店區" }, "geometry": { "type": "Point", "coordinates": [ 121.871782, 25.031628 ] } },
{ "type": "Feature", "properties": { "name": "製鉋工藝（詹益農）", "affection": "傳統工藝", "category": "其他-製鉋工藝", "rank": "傳統工藝", "district": "中和區", "address": "新北市中和區", "new_address": "新北市新北市中和區" }, "geometry": { "type": "Point", "coordinates": [ 121.48495, 25.232754 ] } },
{ "type": "Feature", "properties": { "name": "泥作工藝（楊瑞西）", "affection": "傳統工藝", "category": "泥作", "rank": "傳統工藝", "district": "三重區", "address": "新北市三重區", "new_address": "新北市新北市三重區" }, "geometry": { "type": "Point", "coordinates": [ 121.486794, 25.069686 ] } },
{ "type": "Feature", "properties": { "name": "傳統彩繪（蔡龍進）", "affection": "傳統工藝", "category": "彩繪", "rank": "傳統工藝", "district": "板橋區", "address": "新北市板橋區", "new_address": "新北市新北市板橋區" }, "geometry": { "type": "Point", "coordinates": [ 121.46311, 25.016165 ] } },
{ "type": "Feature", "properties": { "name": "糊紙工藝（辜照雄）", "affection": "傳統工藝", "category": "其他-糊紙", "rank": "傳統工藝", "district": "板橋區", "address": "新北市板橋區", "new_address": "新北市新北市板橋區" }, "geometry": { "type": "Point", "coordinates": [ 121.46311, 25.016165 ] } },
{ "type": "Feature", "properties": { "name": "泥塑紙糊獅頭製作（許建福）", "affection": "傳統工藝", "category": "泥塑紙糊獅頭製作", "rank": "傳統工藝", "district": "三重區", "address": "新北市三重區", "new_address": "新北市新北市三重區" }, "geometry": { "type": "Point", "coordinates": [ 121.486794, 25.069686 ] } },
{ "type": "Feature", "properties": { "name": "仿古陶瓷（許朝宗）", "affection": "傳統工藝", "category": "陶藝", "rank": "傳統工藝", "district": "鶯歌區", "address": "新北市鶯歌區", "new_address": "新北市新北市鶯歌區" }, "geometry": { "type": "Point", "coordinates": [ 121.46311, 25.016165 ] } },
{ "type": "Feature", "properties": { "name": "泥條盤築陶藝(土內走)（李明雄）", "affection": "傳統工藝", "category": "陶藝", "rank": "傳統工藝", "district": "鶯歌區", "address": "新北市鶯歌區", "new_address": "新北市新北市鶯歌區" }, "geometry": { "type": "Point", "coordinates": [ 121.46311, 25.016165 ] } },
{ "type": "Feature", "properties": { "name": "石雕（石地發）", "affection": "傳統工藝", "category": "石雕", "rank": "傳統工藝", "district": "五股區", "address": "新北市五股區", "new_address": "新北市新北市五股區" }, "geometry": { "type": "Point", "coordinates": [ 121.46311, 25.016165 ] } },
{ "type": "Feature", "properties": { "name": "漆線雕（林家億）", "affection": "傳統工藝", "category": "其他-漆線雕", "rank": "傳統工藝", "district": "樹林區", "address": "新北市樹林區", "new_address": "新北市新北市樹林區" }, "geometry": { "type": "Point", "coordinates": [ 121.46311, 25.016165 ] } },
{ "type": "Feature", "properties": { "name": "細木作（李萬財）", "affection": "傳統工藝", "category": "木作", "rank": "傳統工藝", "district": "五股區", "address": "新北市五股區", "new_address": "新北市新北市五股區" }, "geometry": { "type": "Point", "coordinates": [ 121.46311, 25.016165 ] } },
{ "type": "Feature", "properties": { "name": "花燈工藝（林健兒）", "affection": "傳統工藝", "category": "其他-花燈工藝", "rank": "傳統工藝", "district": "樹林區", "address": "新北市樹林區", "new_address": "新北市新北市樹林區" }, "geometry": { "type": "Point", "coordinates": [ 121.46311, 25.016165 ] } },
{ "type": "Feature", "properties": { "name": "泥作工藝（謝振發）", "affection": "傳統工藝", "category": "泥作", "rank": "傳統工藝", "district": "萬里區", "address": "新北市萬里區", "new_address": "新北市新北市萬里區" }, "geometry": { "type": "Point", "coordinates": [ 121.46311, 25.016165 ] } },
{ "type": "Feature", "properties": { "name": "腳踢轆轤製陶(車做)（吳正宏）", "affection": "傳統工藝", "category": "製陶", "rank": "傳統工藝", "district": "鶯歌區", "address": "新北市鶯歌區", "new_address": "新北市新北市鶯歌區" }, "geometry": { "type": "Point", "coordinates": [ 121.46311, 25.016165 ] } },
{ "type": "Feature", "properties": { "name": "平溪天燈節", "affection": "民俗", "category": "節慶", "rank": "民俗", "district": "平溪區", "address": "新北市平溪區", "new_address": "新北市新北市平溪區" }, "geometry": { "type": "Point", "coordinates": [ 121.73821, 25.026903 ] } },
{ "type": "Feature", "properties": { "name": "野柳神明淨港", "affection": "民俗", "category": "節慶", "rank": "民俗", "district": "萬里區", "address": "新北市萬里區", "new_address": "新北市新北市萬里區" }, "geometry": { "type": "Point", "coordinates": [ 121.46311, 25.016165 ] } },
{ "type": "Feature", "properties": { "name": "淡水三芝九庄輪祀保生大帝", "affection": "民俗", "category": "信仰", "rank": "民俗", "district": "三芝區", "address": "新北市淡水、三芝地區", "new_address": "新北市新北市淡水、三芝地區" }, "geometry": { "type": "Point", "coordinates": [ 121.46311, 25.016165 ] } },
{ "type": "Feature", "properties": { "name": "新莊地藏庵文武大眾爺祭典", "affection": "民俗", "category": "信仰", "rank": "民俗", "district": "新莊區", "address": "新北市新莊地區", "new_address": "新北市新北市新莊地區" }, "geometry": { "type": "Point", "coordinates": [ 121.46311, 25.016165 ] } },
{ "type": "Feature", "properties": { "name": "三峽長福巖清水祖師聖誕祭典", "affection": "民俗", "category": "信仰", "rank": "民俗", "district": "三峽區", "address": "新北市三峽地區", "new_address": "新北市新北市三峽地區" }, "geometry": { "type": "Point", "coordinates": [ 121.46311, 25.016165 ] } },
{ "type": "Feature", "properties": { "name": "土城大墓公中元祭典", "affection": "民俗", "category": "信仰", "rank": "民俗", "district": "板橋區", "address": "土城區、中和區、板橋區", "new_address": "新北市土城區、中和區、板橋區" }, "geometry": { "type": "Point", "coordinates": [ 121.46311, 25.016165 ] } },
{ "type": "Feature", "properties": { "name": "淡水清水巖清水祖師遶境", "affection": "民俗", "category": "信仰", "rank": "民俗", "district": "淡水區", "address": "新北市淡水區", "new_address": "新北市新北市淡水區" }, "geometry": { "type": "Point", "coordinates": [ 121.46311, 25.016165 ] } },
{ "type": "Feature", "properties": { "name": "新莊保元宮「弄過火」", "affection": "民俗", "category": "信仰", "rank": "民俗", "district": "新莊區", "address": "新北市新莊區", "new_address": "新北市新北市新莊區" }, "geometry": { "type": "Point", "coordinates": [ 121.445435, 25.0315 ] } },
{ "type": "Feature", "properties": { "name": "三角湧「迎尪公」", "affection": "民俗", "category": "信仰", "rank": "民俗", "district": "三峽區", "address": "新北市三峽地區", "new_address": "新北市新北市三峽地區" }, "geometry": { "type": "Point", "coordinates": [ 121.46311, 25.016165 ] } },
{ "type": "Feature", "properties": { "name": "金山磺火捕魚-蹦火仔", "affection": "民俗", "category": "民俗", "rank": "民俗", "district": "金山區", "address": "新北市金山區", "new_address": "新北市新北市金山區" }, "geometry": { "type": "Point", "coordinates": [ 121.853896, 25.07772 ] } },
{ "type": "Feature", "properties": { "name": "金包里二媽回野柳媽祖洞祭典", "affection": "民俗", "category": "民俗", "rank": "民俗", "district": "萬里區", "address": "新北市金山區、萬里區", "new_address": "新北市新北市金山區、萬里區" }, "geometry": { "type": "Point", "coordinates": [ 121.853896, 25.07772 ] } },
{ "type": "Feature", "properties": { "name": "蘆洲國姓醮", "affection": "民俗", "category": "民俗", "rank": "民俗", "district": "蘆洲區", "address": "新北市蘆洲區", "new_address": "新北市新北市蘆洲區" }, "geometry": { "type": "Point", "coordinates": [ 121.46311, 25.016165 ] } },
{ "type": "Feature", "properties": { "name": "相褒歌（陳好夫、高羅珠 ）", "affection": "口述傳統", "category": "其他（口唱及對唱）", "rank": "市定", "district": "石碇區", "address": "新北市石碇區 ", "new_address": "新北市新北市石碇區 " }, "geometry": { "type": "Point", "coordinates": [ 121.46311, 25.016165 ] } },
{ "type": "Feature", "properties": { "name": "彬司匠派大木作技術（陳朝洋）", "affection": "保存技術及保存者", "category": "保存技術及保存者", "rank": "市定", "district": "新莊區", "address": "新北市新莊區", "new_address": "新北市新北市新莊區" }, "geometry": { "type": "Point", "coordinates": [ 121.445435, 25.0315 ] } },
{ "type": "Feature", "properties": { "name": "紙質文物保存維護技術（葉竑毅）", "affection": "保存技術及保存者", "category": "保存技術及保存者", "rank": "市定", "district": "樹林區", "address": "新北市樹林區", "new_address": "新北市新北市樹林區" }, "geometry": { "type": "Point", "coordinates": [ 121.46311, 25.016165 ] } },
{ "type": "Feature", "properties": { "name": "神像修復（金明偉）", "affection": "保存技術及保存者", "category": "保存技術及保存者", "rank": "市定", "district": "石門區", "address": "新北市石門區", "new_address": "新北市新北市石門區" }, "geometry": { "type": "Point", "coordinates": [ 121.46311, 25.016165 ] } }
]
}
