{
"type": "FeatureCollection",
"name": "toilet_data_metrotaipei",
"crs": { "type": "name", "properties": { "name": "urn:ogc:def:crs:OGC:1.3:CRS84" } },
"features": [
{ "type": "Feature", "properties": { "district": "鶯歌區", "name": "麥當勞鶯歌文化店-女廁" }, "geometry": { "type": "Point", "coordinates": [ 121.352289, 24.951092 ] } },
{ "type": "Feature", "properties": { "district": "三峽區", "name": "三峽區公有零售市場1F-男廁" }, "geometry": { "type": "Point", "coordinates": [ 121.370673, 24.934932 ] } },
{ "type": "Feature", "properties": { "district": "三峽區", "name": "中油清溪加油站-男廁" }, "geometry": { "type": "Point", "coordinates": [ 121.401373, 24.934785 ] } },
{ "type": "Feature", "properties": { "district": "淡水區", "name": "麥當勞淡水中山店2F-男廁" }, "geometry": { "type": "Point", "coordinates": [ 121.44248217, 25.17652565 ] } },
{ "type": "Feature", "properties": { "district": "淡水區", "name": "麥當勞淡水中山店2F-女廁" }, "geometry": { "type": "Point", "coordinates": [ 121.442443, 25.176545 ] } },
{ "type": "Feature", "properties": { "district": "淡水區", "name": "淡水無極天元宮(天壇)-女廁" }, "geometry": { "type": "Point", "coordinates": [ 121.4849496, 25.18657347 ] } },
{ "type": "Feature", "properties": { "district": "淡水區", "name": "中油竹圍加油站-女廁" }, "geometry": { "type": "Point", "coordinates": [ 121.458896, 25.133531 ] } },
{ "type": "Feature", "properties": { "district": "淡水區", "name": "中油永秦加油站-女廁" }, "geometry": { "type": "Point", "coordinates": [ 121.448802, 25.165579 ] } },
{ "type": "Feature", "properties": { "district": "淡水區", "name": "中油金滿益加油站-男廁" }, "geometry": { "type": "Point", "coordinates": [ 121.459848, 25.167126 ] } },
{ "type": "Feature", "properties": { "district": "淡水區", "name": "中油金滿益加油站-女廁" }, "geometry": { "type": "Point", "coordinates": [ 121.459848, 25.167126 ] } },
{ "type": "Feature", "properties": { "district": "淡水區", "name": "淡水福佑宮-女廁" }, "geometry": { "type": "Point", "coordinates": [ 121.4399, 25.17006 ] } },
{ "type": "Feature", "properties": { "district": "淡水區", "name": "漁人碼頭南邊木棧道1-1F-女廁" }, "geometry": { "type": "Point", "coordinates": [ 121.416777, 25.181395 ] } },
{ "type": "Feature", "properties": { "district": "瑞芳區", "name": "九份遊客中心-無障礙廁所" }, "geometry": { "type": "Point", "coordinates": [ 121.84347, 25.10975 ] } },
{ "type": "Feature", "properties": { "district": "汐止區", "name": "復興活動中心-男廁" }, "geometry": { "type": "Point", "coordinates": [ 121.660393, 25.06204 ] } },
{ "type": "Feature", "properties": { "district": "三峽區", "name": "三峽祖師廟-男廁" }, "geometry": { "type": "Point", "coordinates": [ 121.370367, 24.9338 ] } },
{ "type": "Feature", "properties": { "district": "三峽區", "name": "中油三峽加油站-男廁" }, "geometry": { "type": "Point", "coordinates": [ 121.377854, 24.930879 ] } },
{ "type": "Feature", "properties": { "district": "三峽區", "name": "中油三鶯加油站-男廁" }, "geometry": { "type": "Point", "coordinates": [ 121.36609805, 24.93892522 ] } },
{ "type": "Feature", "properties": { "district": "三峽區", "name": "滿月圓森林遊樂區-男廁" }, "geometry": { "type": "Point", "coordinates": [ 121.4490724, 24.82214572 ] } },
{ "type": "Feature", "properties": { "district": "淡水區", "name": "新埔加油站-女廁" }, "geometry": { "type": "Point", "coordinates": [ 121.45199597, 25.22548017 ] } },
{ "type": "Feature", "properties": { "district": "淡水區", "name": "北基淡金路加油站-男廁" }, "geometry": { "type": "Point", "coordinates": [ 121.450886, 25.214888 ] } },
{ "type": "Feature", "properties": { "district": "淡水區", "name": "北基淡金路加油站-女廁" }, "geometry": { "type": "Point", "coordinates": [ 121.450886, 25.214888 ] } },
{ "type": "Feature", "properties": { "district": "淡水區", "name": "淡水無極天元宮停車場-女廁" }, "geometry": { "type": "Point", "coordinates": [ 121.4849174, 25.18650551 ] } },
{ "type": "Feature", "properties": { "district": "淡水區", "name": "淡水區竹圍活動中心5F-男廁" }, "geometry": { "type": "Point", "coordinates": [ 121.461566, 25.13787 ] } },
{ "type": "Feature", "properties": { "district": "淡水區", "name": "中油淡水加油站-男廁" }, "geometry": { "type": "Point", "coordinates": [ 121.445415, 25.168902 ] } },
{ "type": "Feature", "properties": { "district": "淡水區", "name": "漁人碼頭北邊停車場4-4F-女廁" }, "geometry": { "type": "Point", "coordinates": [ 121.416777, 25.181395 ] } },
{ "type": "Feature", "properties": { "district": "汐止區", "name": "國泰綜合醫院汐止分院1F-男廁" }, "geometry": { "type": "Point", "coordinates": [ 121.661353, 25.072937 ] } },
{ "type": "Feature", "properties": { "district": "汐止區", "name": "汐止綜合運動場南側-女廁" }, "geometry": { "type": "Point", "coordinates": [ 121.65852, 25.06523 ] } },
{ "type": "Feature", "properties": { "district": "汐止區", "name": "台亞新台五一加油站-男廁" }, "geometry": { "type": "Point", "coordinates": [ 121.651309, 25.061686 ] } },
{ "type": "Feature", "properties": { "district": "鶯歌區", "name": "麥當勞鶯歌文化店-混合廁所" }, "geometry": { "type": "Point", "coordinates": [ 121.352289, 24.951092 ] } },
{ "type": "Feature", "properties": { "district": "三峽區", "name": "全國橫溪加油站-男廁" }, "geometry": { "type": "Point", "coordinates": [ 121.39776, 24.941448 ] } }
]
}
